<?xml version="1.0" encoding="UTF-8"?>
<gpx creator="StravaGPX" version="1.1" xmlns="http://www.topografix.com/GPX/1/1" xmlns:xsi="http://www.w3.org/2001/XMLSchema-instance" xsi:schemaLocation="http://www.topografix.com/GPX/1/1 http://www.topografix.com/GPX/1/1/gpx.xsd">
 <metadata>
  <time>2025-02-01T12:15:04Z</time>
 </metadata>
 <trk>
  <name>Ski alpin dans l'après-midi</name>
  <type>AlpineSki</type>
  <trkseg>
   <trkpt lat="45.3812580" lon="6.6104770">
    <ele>2667.4</ele>
    <time>2025-02-01T12:15:04Z</time>
   </trkpt>
   <trkpt lat="45.3812590" lon="6.6104810">
    <ele>2667.3</ele>
    <time>2025-02-01T12:15:05Z</time>
   </trkpt>
   <trkpt lat="45.3812600" lon="6.6104840">
    <ele>2667.1</ele>
    <time>2025-02-01T12:15:06Z</time>
   </trkpt>
   <trkpt lat="45.3812610" lon="6.6104880">
    <ele>2667.0</ele>
    <time>2025-02-01T12:15:07Z</time>
   </trkpt>
   <trkpt lat="45.3812620" lon="6.6104920">
    <ele>2666.8</ele>
    <time>2025-02-01T12:15:08Z</time>
   </trkpt>
   <trkpt lat="45.3812630" lon="6.6104950">
    <ele>2666.7</ele>
    <time>2025-02-01T12:15:09Z</time>
   </trkpt>
   <trkpt lat="45.3812640" lon="6.6104990">
    <ele>2666.6</ele>
    <time>2025-02-01T12:15:10Z</time>
   </trkpt>
   <trkpt lat="45.3812650" lon="6.6105030">
    <ele>2666.4</ele>
    <time>2025-02-01T12:15:11Z</time>
   </trkpt>
   <trkpt lat="45.3812660" lon="6.6105060">
    <ele>2666.3</ele>
    <time>2025-02-01T12:15:12Z</time>
   </trkpt>
   <trkpt lat="45.3812670" lon="6.6105100">
    <ele>2666.1</ele>
    <time>2025-02-01T12:15:13Z</time>
   </trkpt>
   <trkpt lat="45.3812680" lon="6.6105140">
    <ele>2666.0</ele>
    <time>2025-02-01T12:15:14Z</time>
   </trkpt>
   <trkpt lat="45.3812690" lon="6.6105170">
    <ele>2665.9</ele>
    <time>2025-02-01T12:15:15Z</time>
   </trkpt>
   <trkpt lat="45.3812700" lon="6.6105210">
    <ele>2665.7</ele>
    <time>2025-02-01T12:15:16Z</time>
   </trkpt>
   <trkpt lat="45.3812710" lon="6.6105250">
    <ele>2665.6</ele>
    <time>2025-02-01T12:15:17Z</time>
   </trkpt>
   <trkpt lat="45.3812720" lon="6.6105280">
    <ele>2665.4</ele>
    <time>2025-02-01T12:15:18Z</time>
   </trkpt>
   <trkpt lat="45.3812730" lon="6.6105320">
    <ele>2665.3</ele>
    <time>2025-02-01T12:15:19Z</time>
   </trkpt>
   <trkpt lat="45.3812740" lon="6.6105360">
    <ele>2665.1</ele>
    <time>2025-02-01T12:15:20Z</time>
   </trkpt>
   <trkpt lat="45.3812750" lon="6.6105390">
    <ele>2665.0</ele>
    <time>2025-02-01T12:15:21Z</time>
   </trkpt>
   <trkpt lat="45.3812760" lon="6.6105430">
    <ele>2664.8</ele>
    <time>2025-02-01T12:15:22Z</time>
   </trkpt>
   <trkpt lat="45.3812970" lon="6.6106280">
    <ele>2661.4</ele>
    <time>2025-02-01T12:15:23Z</time>
   </trkpt>
   <trkpt lat="45.3813040" lon="6.6107090">
    <ele>2658.2</ele>
    <time>2025-02-01T12:15:24Z</time>
   </trkpt>
   <trkpt lat="45.3813040" lon="6.6108030">
    <ele>2654.4</ele>
    <time>2025-02-01T12:15:25Z</time>
   </trkpt>
   <trkpt lat="45.3813280" lon="6.6108900">
    <ele>2651.2</ele>
    <time>2025-02-01T12:15:26Z</time>
   </trkpt>
   <trkpt lat="45.3813530" lon="6.6110180">
    <ele>2648.4</ele>
    <time>2025-02-01T12:15:27Z</time>
   </trkpt>
   <trkpt lat="45.3813650" lon="6.6111700">
    <ele>2645.4</ele>
    <time>2025-02-01T12:15:28Z</time>
   </trkpt>
   <trkpt lat="45.3813950" lon="6.6113240">
    <ele>2642.2</ele>
    <time>2025-02-01T12:15:29Z</time>
   </trkpt>
   <trkpt lat="45.3814100" lon="6.6114880">
    <ele>2639.0</ele>
    <time>2025-02-01T12:15:30Z</time>
   </trkpt>
   <trkpt lat="45.3814210" lon="6.6115980">
    <ele>2636.7</ele>
    <time>2025-02-01T12:15:31Z</time>
   </trkpt>
   <trkpt lat="45.3813980" lon="6.6116620">
    <ele>2635.2</ele>
    <time>2025-02-01T12:15:32Z</time>
   </trkpt>
   <trkpt lat="45.3813690" lon="6.6116630">
    <ele>2634.3</ele>
    <time>2025-02-01T12:15:33Z</time>
   </trkpt>
   <trkpt lat="45.3813330" lon="6.6116370">
    <ele>2633.0</ele>
    <time>2025-02-01T12:15:34Z</time>
   </trkpt>
   <trkpt lat="45.3812810" lon="6.6115770">
    <ele>2631.0</ele>
    <time>2025-02-01T12:15:35Z</time>
   </trkpt>
   <trkpt lat="45.3812330" lon="6.6114800">
    <ele>2628.8</ele>
    <time>2025-02-01T12:15:36Z</time>
   </trkpt>
   <trkpt lat="45.3811630" lon="6.6113970">
    <ele>2626.6</ele>
    <time>2025-02-01T12:15:37Z</time>
   </trkpt>
   <trkpt lat="45.3810910" lon="6.6112970">
    <ele>2624.4</ele>
    <time>2025-02-01T12:15:38Z</time>
   </trkpt>
   <trkpt lat="45.3810200" lon="6.6111850">
    <ele>2622.3</ele>
    <time>2025-02-01T12:15:39Z</time>
   </trkpt>
   <trkpt lat="45.3809420" lon="6.6110820">
    <ele>2620.2</ele>
    <time>2025-02-01T12:15:40Z</time>
   </trkpt>
   <trkpt lat="45.3808560" lon="6.6109920">
    <ele>2618.8</ele>
    <time>2025-02-01T12:15:41Z</time>
   </trkpt>
   <trkpt lat="45.3807650" lon="6.6109080">
    <ele>2617.9</ele>
    <time>2025-02-01T12:15:42Z</time>
   </trkpt>
   <trkpt lat="45.3806680" lon="6.6108240">
    <ele>2616.9</ele>
    <time>2025-02-01T12:15:43Z</time>
   </trkpt>
   <trkpt lat="45.3805710" lon="6.6107430">
    <ele>2616.1</ele>
    <time>2025-02-01T12:15:44Z</time>
   </trkpt>
   <trkpt lat="45.3804580" lon="6.6106880">
    <ele>2615.3</ele>
    <time>2025-02-01T12:15:45Z</time>
   </trkpt>
   <trkpt lat="45.3803580" lon="6.6106050">
    <ele>2614.7</ele>
    <time>2025-02-01T12:15:46Z</time>
   </trkpt>
   <trkpt lat="45.3802360" lon="6.6105280">
    <ele>2613.8</ele>
    <time>2025-02-01T12:15:47Z</time>
   </trkpt>
   <trkpt lat="45.3801530" lon="6.6104720">
    <ele>2613.1</ele>
    <time>2025-02-01T12:15:48Z</time>
   </trkpt>
   <trkpt lat="45.3800650" lon="6.6104190">
    <ele>2612.3</ele>
    <time>2025-02-01T12:15:49Z</time>
   </trkpt>
   <trkpt lat="45.3799840" lon="6.6103700">
    <ele>2611.6</ele>
    <time>2025-02-01T12:15:50Z</time>
   </trkpt>
   <trkpt lat="45.3799010" lon="6.6103180">
    <ele>2610.7</ele>
    <time>2025-02-01T12:15:52Z</time>
   </trkpt>
   <trkpt lat="45.3798170" lon="6.6102630">
    <ele>2609.9</ele>
    <time>2025-02-01T12:15:53Z</time>
   </trkpt>
   <trkpt lat="45.3797360" lon="6.6101970">
    <ele>2608.9</ele>
    <time>2025-02-01T12:15:54Z</time>
   </trkpt>
   <trkpt lat="45.3796550" lon="6.6101350">
    <ele>2608.0</ele>
    <time>2025-02-01T12:15:55Z</time>
   </trkpt>
   <trkpt lat="45.3795810" lon="6.6100630">
    <ele>2607.1</ele>
    <time>2025-02-01T12:15:56Z</time>
   </trkpt>
   <trkpt lat="45.3795110" lon="6.6100120">
    <ele>2606.4</ele>
    <time>2025-02-01T12:15:57Z</time>
   </trkpt>
   <trkpt lat="45.3794360" lon="6.6099710">
    <ele>2605.6</ele>
    <time>2025-02-01T12:15:58Z</time>
   </trkpt>
   <trkpt lat="45.3793730" lon="6.6099400">
    <ele>2604.9</ele>
    <time>2025-02-01T12:15:59Z</time>
   </trkpt>
   <trkpt lat="45.3793130" lon="6.6099030">
    <ele>2604.2</ele>
    <time>2025-02-01T12:16:00Z</time>
   </trkpt>
   <trkpt lat="45.3792470" lon="6.6098800">
    <ele>2603.4</ele>
    <time>2025-02-01T12:16:01Z</time>
   </trkpt>
   <trkpt lat="45.3791720" lon="6.6098580">
    <ele>2602.4</ele>
    <time>2025-02-01T12:16:02Z</time>
   </trkpt>
   <trkpt lat="45.3791070" lon="6.6098230">
    <ele>2601.4</ele>
    <time>2025-02-01T12:16:03Z</time>
   </trkpt>
   <trkpt lat="45.3790290" lon="6.6098350">
    <ele>2600.3</ele>
    <time>2025-02-01T12:16:04Z</time>
   </trkpt>
   <trkpt lat="45.3789460" lon="6.6098340">
    <ele>2599.9</ele>
    <time>2025-02-01T12:16:05Z</time>
   </trkpt>
   <trkpt lat="45.3788690" lon="6.6098540">
    <ele>2599.2</ele>
    <time>2025-02-01T12:16:06Z</time>
   </trkpt>
   <trkpt lat="45.3787990" lon="6.6098410">
    <ele>2597.9</ele>
    <time>2025-02-01T12:16:07Z</time>
   </trkpt>
   <trkpt lat="45.3787220" lon="6.6098370">
    <ele>2596.3</ele>
    <time>2025-02-01T12:16:08Z</time>
   </trkpt>
   <trkpt lat="45.3786470" lon="6.6097990">
    <ele>2594.5</ele>
    <time>2025-02-01T12:16:09Z</time>
   </trkpt>
   <trkpt lat="45.3785680" lon="6.6097600">
    <ele>2592.7</ele>
    <time>2025-02-01T12:16:10Z</time>
   </trkpt>
   <trkpt lat="45.3785020" lon="6.6097090">
    <ele>2590.9</ele>
    <time>2025-02-01T12:16:11Z</time>
   </trkpt>
   <trkpt lat="45.3784530" lon="6.6096710">
    <ele>2589.6</ele>
    <time>2025-02-01T12:16:12Z</time>
   </trkpt>
   <trkpt lat="45.3783990" lon="6.6096230">
    <ele>2588.0</ele>
    <time>2025-02-01T12:16:13Z</time>
   </trkpt>
   <trkpt lat="45.3783410" lon="6.6095910">
    <ele>2586.4</ele>
    <time>2025-02-01T12:16:14Z</time>
   </trkpt>
   <trkpt lat="45.3782610" lon="6.6095710">
    <ele>2584.3</ele>
    <time>2025-02-01T12:16:15Z</time>
   </trkpt>
   <trkpt lat="45.3782080" lon="6.6095820">
    <ele>2582.9</ele>
    <time>2025-02-01T12:16:16Z</time>
   </trkpt>
   <trkpt lat="45.3781790" lon="6.6095700">
    <ele>2582.1</ele>
    <time>2025-02-01T12:16:17Z</time>
   </trkpt>
   <trkpt lat="45.3781630" lon="6.6095550">
    <ele>2581.6</ele>
    <time>2025-02-01T12:16:18Z</time>
   </trkpt>
   <trkpt lat="45.3781540" lon="6.6095420">
    <ele>2581.2</ele>
    <time>2025-02-01T12:16:19Z</time>
   </trkpt>
   <trkpt lat="45.3781580" lon="6.6095410">
    <ele>2581.1</ele>
    <time>2025-02-01T12:16:20Z</time>
   </trkpt>
   <trkpt lat="45.3781570" lon="6.6095390">
    <ele>2581.1</ele>
    <time>2025-02-01T12:16:21Z</time>
   </trkpt>
   <trkpt lat="45.3781560" lon="6.6095360">
    <ele>2581.0</ele>
    <time>2025-02-01T12:16:22Z</time>
   </trkpt>
   <trkpt lat="45.3781550" lon="6.6095340">
    <ele>2581.0</ele>
    <time>2025-02-01T12:16:23Z</time>
   </trkpt>
   <trkpt lat="45.3781540" lon="6.6095310">
    <ele>2580.9</ele>
    <time>2025-02-01T12:16:24Z</time>
   </trkpt>
   <trkpt lat="45.3781530" lon="6.6095290">
    <ele>2580.9</ele>
    <time>2025-02-01T12:16:25Z</time>
   </trkpt>
   <trkpt lat="45.3781520" lon="6.6095260">
    <ele>2580.8</ele>
    <time>2025-02-01T12:16:26Z</time>
   </trkpt>
   <trkpt lat="45.3781510" lon="6.6095230">
    <ele>2580.7</ele>
    <time>2025-02-01T12:16:27Z</time>
   </trkpt>
   <trkpt lat="45.3781500" lon="6.6095210">
    <ele>2580.7</ele>
    <time>2025-02-01T12:16:28Z</time>
   </trkpt>
   <trkpt lat="45.3781490" lon="6.6095180">
    <ele>2580.6</ele>
    <time>2025-02-01T12:16:29Z</time>
   </trkpt>
   <trkpt lat="45.3781480" lon="6.6095160">
    <ele>2580.6</ele>
    <time>2025-02-01T12:16:30Z</time>
   </trkpt>
   <trkpt lat="45.3781470" lon="6.6095130">
    <ele>2580.5</ele>
    <time>2025-02-01T12:16:31Z</time>
   </trkpt>
   <trkpt lat="45.3781460" lon="6.6095110">
    <ele>2580.5</ele>
    <time>2025-02-01T12:16:32Z</time>
   </trkpt>
   <trkpt lat="45.3781450" lon="6.6095080">
    <ele>2580.4</ele>
    <time>2025-02-01T12:16:33Z</time>
   </trkpt>
   <trkpt lat="45.3781450" lon="6.6095050">
    <ele>2580.3</ele>
    <time>2025-02-01T12:16:34Z</time>
   </trkpt>
   <trkpt lat="45.3781440" lon="6.6095030">
    <ele>2580.3</ele>
    <time>2025-02-01T12:16:35Z</time>
   </trkpt>
   <trkpt lat="45.3781430" lon="6.6095000">
    <ele>2580.2</ele>
    <time>2025-02-01T12:16:36Z</time>
   </trkpt>
   <trkpt lat="45.3781420" lon="6.6094980">
    <ele>2580.2</ele>
    <time>2025-02-01T12:16:37Z</time>
   </trkpt>
   <trkpt lat="45.3781410" lon="6.6094950">
    <ele>2580.1</ele>
    <time>2025-02-01T12:16:38Z</time>
   </trkpt>
   <trkpt lat="45.3781400" lon="6.6094930">
    <ele>2580.1</ele>
    <time>2025-02-01T12:16:39Z</time>
   </trkpt>
   <trkpt lat="45.3781390" lon="6.6094900">
    <ele>2580.0</ele>
    <time>2025-02-01T12:16:40Z</time>
   </trkpt>
   <trkpt lat="45.3781380" lon="6.6094880">
    <ele>2580.0</ele>
    <time>2025-02-01T12:16:41Z</time>
   </trkpt>
   <trkpt lat="45.3781370" lon="6.6094850">
    <ele>2579.9</ele>
    <time>2025-02-01T12:16:42Z</time>
   </trkpt>
   <trkpt lat="45.3781360" lon="6.6094820">
    <ele>2579.9</ele>
    <time>2025-02-01T12:16:43Z</time>
   </trkpt>
   <trkpt lat="45.3781350" lon="6.6094800">
    <ele>2579.8</ele>
    <time>2025-02-01T12:16:44Z</time>
   </trkpt>
   <trkpt lat="45.3781340" lon="6.6094770">
    <ele>2579.7</ele>
    <time>2025-02-01T12:16:45Z</time>
   </trkpt>
   <trkpt lat="45.3781330" lon="6.6094750">
    <ele>2579.7</ele>
    <time>2025-02-01T12:16:46Z</time>
   </trkpt>
   <trkpt lat="45.3781320" lon="6.6094720">
    <ele>2579.6</ele>
    <time>2025-02-01T12:16:47Z</time>
   </trkpt>
   <trkpt lat="45.3781310" lon="6.6094700">
    <ele>2579.6</ele>
    <time>2025-02-01T12:16:48Z</time>
   </trkpt>
   <trkpt lat="45.3781300" lon="6.6094670">
    <ele>2579.5</ele>
    <time>2025-02-01T12:16:49Z</time>
   </trkpt>
   <trkpt lat="45.3781260" lon="6.6093780">
    <ele>2578.5</ele>
    <time>2025-02-01T12:16:50Z</time>
   </trkpt>
   <trkpt lat="45.3781390" lon="6.6092940">
    <ele>2577.1</ele>
    <time>2025-02-01T12:16:51Z</time>
   </trkpt>
   <trkpt lat="45.3781570" lon="6.6091820">
    <ele>2575.6</ele>
    <time>2025-02-01T12:16:52Z</time>
   </trkpt>
   <trkpt lat="45.3781270" lon="6.6090920">
    <ele>2573.9</ele>
    <time>2025-02-01T12:16:53Z</time>
   </trkpt>
   <trkpt lat="45.3781240" lon="6.6089950">
    <ele>2570.7</ele>
    <time>2025-02-01T12:16:54Z</time>
   </trkpt>
   <trkpt lat="45.3781140" lon="6.6089020">
    <ele>2568.6</ele>
    <time>2025-02-01T12:16:55Z</time>
   </trkpt>
   <trkpt lat="45.3780800" lon="6.6088240">
    <ele>2566.9</ele>
    <time>2025-02-01T12:16:56Z</time>
   </trkpt>
   <trkpt lat="45.3780900" lon="6.6087390">
    <ele>2564.9</ele>
    <time>2025-02-01T12:16:57Z</time>
   </trkpt>
   <trkpt lat="45.3780930" lon="6.6086710">
    <ele>2563.9</ele>
    <time>2025-02-01T12:16:58Z</time>
   </trkpt>
   <trkpt lat="45.3781170" lon="6.6086460">
    <ele>2562.7</ele>
    <time>2025-02-01T12:16:59Z</time>
   </trkpt>
   <trkpt lat="45.3781280" lon="6.6086470">
    <ele>2562.9</ele>
    <time>2025-02-01T12:17:00Z</time>
   </trkpt>
   <trkpt lat="45.3781280" lon="6.6086590">
    <ele>2563.0</ele>
    <time>2025-02-01T12:17:01Z</time>
   </trkpt>
   <trkpt lat="45.3781240" lon="6.6086640">
    <ele>2564.4</ele>
    <time>2025-02-01T12:17:02Z</time>
   </trkpt>
   <trkpt lat="45.3781250" lon="6.6086680">
    <ele>2564.6</ele>
    <time>2025-02-01T12:17:03Z</time>
   </trkpt>
   <trkpt lat="45.3781260" lon="6.6086680">
    <ele>2564.8</ele>
    <time>2025-02-01T12:17:04Z</time>
   </trkpt>
   <trkpt lat="45.3781260" lon="6.6086690">
    <ele>2565.0</ele>
    <time>2025-02-01T12:17:05Z</time>
   </trkpt>
   <trkpt lat="45.3781260" lon="6.6086690">
    <ele>2565.2</ele>
    <time>2025-02-01T12:17:06Z</time>
   </trkpt>
   <trkpt lat="45.3781250" lon="6.6086680">
    <ele>2565.4</ele>
    <time>2025-02-01T12:17:07Z</time>
   </trkpt>
   <trkpt lat="45.3781220" lon="6.6086680">
    <ele>2565.6</ele>
    <time>2025-02-01T12:17:08Z</time>
   </trkpt>
   <trkpt lat="45.3781210" lon="6.6086700">
    <ele>2565.7</ele>
    <time>2025-02-01T12:17:09Z</time>
   </trkpt>
   <trkpt lat="45.3781230" lon="6.6086700">
    <ele>2565.9</ele>
    <time>2025-02-01T12:17:10Z</time>
   </trkpt>
   <trkpt lat="45.3781240" lon="6.6086720">
    <ele>2566.1</ele>
    <time>2025-02-01T12:17:11Z</time>
   </trkpt>
   <trkpt lat="45.3781260" lon="6.6086710">
    <ele>2566.3</ele>
    <time>2025-02-01T12:17:12Z</time>
   </trkpt>
   <trkpt lat="45.3781280" lon="6.6086690">
    <ele>2566.5</ele>
    <time>2025-02-01T12:17:13Z</time>
   </trkpt>
   <trkpt lat="45.3781290" lon="6.6086700">
    <ele>2566.7</ele>
    <time>2025-02-01T12:17:14Z</time>
   </trkpt>
   <trkpt lat="45.3781310" lon="6.6086730">
    <ele>2566.9</ele>
    <time>2025-02-01T12:17:15Z</time>
   </trkpt>
   <trkpt lat="45.3781340" lon="6.6086770">
    <ele>2567.1</ele>
    <time>2025-02-01T12:17:16Z</time>
   </trkpt>
   <trkpt lat="45.3781340" lon="6.6086770">
    <ele>2567.2</ele>
    <time>2025-02-01T12:17:17Z</time>
   </trkpt>
   <trkpt lat="45.3781370" lon="6.6086780">
    <ele>2567.2</ele>
    <time>2025-02-01T12:17:18Z</time>
   </trkpt>
   <trkpt lat="45.3781440" lon="6.6086690">
    <ele>2566.8</ele>
    <time>2025-02-01T12:17:19Z</time>
   </trkpt>
   <trkpt lat="45.3781620" lon="6.6086460">
    <ele>2565.7</ele>
    <time>2025-02-01T12:17:20Z</time>
   </trkpt>
   <trkpt lat="45.3781940" lon="6.6085890">
    <ele>2563.3</ele>
    <time>2025-02-01T12:17:21Z</time>
   </trkpt>
   <trkpt lat="45.3782410" lon="6.6085320">
    <ele>2560.4</ele>
    <time>2025-02-01T12:17:22Z</time>
   </trkpt>
   <trkpt lat="45.3783040" lon="6.6084580">
    <ele>2556.7</ele>
    <time>2025-02-01T12:17:23Z</time>
   </trkpt>
   <trkpt lat="45.3783730" lon="6.6083870">
    <ele>2552.9</ele>
    <time>2025-02-01T12:17:24Z</time>
   </trkpt>
   <trkpt lat="45.3784450" lon="6.6083160">
    <ele>2549.0</ele>
    <time>2025-02-01T12:17:25Z</time>
   </trkpt>
   <trkpt lat="45.3785360" lon="6.6082310">
    <ele>2543.6</ele>
    <time>2025-02-01T12:17:26Z</time>
   </trkpt>
   <trkpt lat="45.3786260" lon="6.6081510">
    <ele>2540.4</ele>
    <time>2025-02-01T12:17:27Z</time>
   </trkpt>
   <trkpt lat="45.3787360" lon="6.6080420">
    <ele>2536.4</ele>
    <time>2025-02-01T12:17:28Z</time>
   </trkpt>
   <trkpt lat="45.3788570" lon="6.6079290">
    <ele>2531.9</ele>
    <time>2025-02-01T12:17:29Z</time>
   </trkpt>
   <trkpt lat="45.3789740" lon="6.6078040">
    <ele>2527.4</ele>
    <time>2025-02-01T12:17:30Z</time>
   </trkpt>
   <trkpt lat="45.3791040" lon="6.6076780">
    <ele>2522.7</ele>
    <time>2025-02-01T12:17:31Z</time>
   </trkpt>
   <trkpt lat="45.3792510" lon="6.6075860">
    <ele>2518.3</ele>
    <time>2025-02-01T12:17:32Z</time>
   </trkpt>
   <trkpt lat="45.3794020" lon="6.6074820">
    <ele>2514.1</ele>
    <time>2025-02-01T12:17:33Z</time>
   </trkpt>
   <trkpt lat="45.3795470" lon="6.6073500">
    <ele>2510.1</ele>
    <time>2025-02-01T12:17:34Z</time>
   </trkpt>
   <trkpt lat="45.3796900" lon="6.6072290">
    <ele>2506.6</ele>
    <time>2025-02-01T12:17:35Z</time>
   </trkpt>
   <trkpt lat="45.3798190" lon="6.6071060">
    <ele>2503.7</ele>
    <time>2025-02-01T12:17:36Z</time>
   </trkpt>
   <trkpt lat="45.3799480" lon="6.6069880">
    <ele>2501.0</ele>
    <time>2025-02-01T12:17:37Z</time>
   </trkpt>
   <trkpt lat="45.3800710" lon="6.6068390">
    <ele>2498.2</ele>
    <time>2025-02-01T12:17:38Z</time>
   </trkpt>
   <trkpt lat="45.3802020" lon="6.6067180">
    <ele>2495.5</ele>
    <time>2025-02-01T12:17:39Z</time>
   </trkpt>
   <trkpt lat="45.3803310" lon="6.6066080">
    <ele>2493.0</ele>
    <time>2025-02-01T12:17:40Z</time>
   </trkpt>
   <trkpt lat="45.3804550" lon="6.6064930">
    <ele>2490.5</ele>
    <time>2025-02-01T12:17:41Z</time>
   </trkpt>
   <trkpt lat="45.3805880" lon="6.6063850">
    <ele>2488.0</ele>
    <time>2025-02-01T12:17:42Z</time>
   </trkpt>
   <trkpt lat="45.3807240" lon="6.6062950">
    <ele>2485.7</ele>
    <time>2025-02-01T12:17:43Z</time>
   </trkpt>
   <trkpt lat="45.3808640" lon="6.6062240">
    <ele>2483.4</ele>
    <time>2025-02-01T12:17:44Z</time>
   </trkpt>
   <trkpt lat="45.3809980" lon="6.6061530">
    <ele>2481.1</ele>
    <time>2025-02-01T12:17:45Z</time>
   </trkpt>
   <trkpt lat="45.3811170" lon="6.6060730">
    <ele>2479.0</ele>
    <time>2025-02-01T12:17:46Z</time>
   </trkpt>
   <trkpt lat="45.3812350" lon="6.6059590">
    <ele>2476.5</ele>
    <time>2025-02-01T12:17:47Z</time>
   </trkpt>
   <trkpt lat="45.3813520" lon="6.6058380">
    <ele>2473.9</ele>
    <time>2025-02-01T12:17:48Z</time>
   </trkpt>
   <trkpt lat="45.3814660" lon="6.6057050">
    <ele>2471.1</ele>
    <time>2025-02-01T12:17:49Z</time>
   </trkpt>
   <trkpt lat="45.3815920" lon="6.6056020">
    <ele>2468.7</ele>
    <time>2025-02-01T12:17:50Z</time>
   </trkpt>
   <trkpt lat="45.3817170" lon="6.6055000">
    <ele>2466.6</ele>
    <time>2025-02-01T12:17:51Z</time>
   </trkpt>
   <trkpt lat="45.3818300" lon="6.6053830">
    <ele>2465.1</ele>
    <time>2025-02-01T12:17:52Z</time>
   </trkpt>
   <trkpt lat="45.3819540" lon="6.6053040">
    <ele>2463.8</ele>
    <time>2025-02-01T12:17:53Z</time>
   </trkpt>
   <trkpt lat="45.3820730" lon="6.6052480">
    <ele>2462.4</ele>
    <time>2025-02-01T12:17:54Z</time>
   </trkpt>
   <trkpt lat="45.3821830" lon="6.6051670">
    <ele>2460.6</ele>
    <time>2025-02-01T12:17:55Z</time>
   </trkpt>
   <trkpt lat="45.3823020" lon="6.6050780">
    <ele>2457.7</ele>
    <time>2025-02-01T12:17:56Z</time>
   </trkpt>
   <trkpt lat="45.3824260" lon="6.6050390">
    <ele>2454.2</ele>
    <time>2025-02-01T12:17:57Z</time>
   </trkpt>
   <trkpt lat="45.3825670" lon="6.6049920">
    <ele>2449.9</ele>
    <time>2025-02-01T12:17:58Z</time>
   </trkpt>
   <trkpt lat="45.3827180" lon="6.6049310">
    <ele>2444.9</ele>
    <time>2025-02-01T12:17:59Z</time>
   </trkpt>
   <trkpt lat="45.3828640" lon="6.6048610">
    <ele>2439.9</ele>
    <time>2025-02-01T12:18:00Z</time>
   </trkpt>
   <trkpt lat="45.3830210" lon="6.6047830">
    <ele>2434.4</ele>
    <time>2025-02-01T12:18:01Z</time>
   </trkpt>
   <trkpt lat="45.3831920" lon="6.6046830">
    <ele>2427.3</ele>
    <time>2025-02-01T12:18:02Z</time>
   </trkpt>
   <trkpt lat="45.3833930" lon="6.6046100">
    <ele>2418.4</ele>
    <time>2025-02-01T12:18:03Z</time>
   </trkpt>
   <trkpt lat="45.3835950" lon="6.6045140">
    <ele>2408.1</ele>
    <time>2025-02-01T12:18:04Z</time>
   </trkpt>
   <trkpt lat="45.3838060" lon="6.6044240">
    <ele>2397.0</ele>
    <time>2025-02-01T12:18:05Z</time>
   </trkpt>
   <trkpt lat="45.3840140" lon="6.6043170">
    <ele>2386.3</ele>
    <time>2025-02-01T12:18:06Z</time>
   </trkpt>
   <trkpt lat="45.3842540" lon="6.6041780">
    <ele>2378.0</ele>
    <time>2025-02-01T12:18:07Z</time>
   </trkpt>
   <trkpt lat="45.3844800" lon="6.6040540">
    <ele>2398.6</ele>
    <time>2025-02-01T12:18:08Z</time>
   </trkpt>
   <trkpt lat="45.3846460" lon="6.6038410">
    <ele>2389.7</ele>
    <time>2025-02-01T12:18:09Z</time>
   </trkpt>
   <trkpt lat="45.3848240" lon="6.6036520">
    <ele>2382.6</ele>
    <time>2025-02-01T12:18:10Z</time>
   </trkpt>
   <trkpt lat="45.3849720" lon="6.6035020">
    <ele>2384.4</ele>
    <time>2025-02-01T12:18:11Z</time>
   </trkpt>
   <trkpt lat="45.3850620" lon="6.6033750">
    <ele>2380.8</ele>
    <time>2025-02-01T12:18:12Z</time>
   </trkpt>
   <trkpt lat="45.3851520" lon="6.6032850">
    <ele>2378.2</ele>
    <time>2025-02-01T12:18:13Z</time>
   </trkpt>
   <trkpt lat="45.3852160" lon="6.6031600">
    <ele>2375.5</ele>
    <time>2025-02-01T12:18:14Z</time>
   </trkpt>
   <trkpt lat="45.3852770" lon="6.6031400">
    <ele>2373.9</ele>
    <time>2025-02-01T12:18:15Z</time>
   </trkpt>
   <trkpt lat="45.3853100" lon="6.6031560">
    <ele>2373.0</ele>
    <time>2025-02-01T12:18:16Z</time>
   </trkpt>
   <trkpt lat="45.3853090" lon="6.6031760">
    <ele>2372.6</ele>
    <time>2025-02-01T12:18:17Z</time>
   </trkpt>
   <trkpt lat="45.3852990" lon="6.6031760">
    <ele>2372.3</ele>
    <time>2025-02-01T12:18:18Z</time>
   </trkpt>
   <trkpt lat="45.3852970" lon="6.6031820">
    <ele>2372.2</ele>
    <time>2025-02-01T12:18:19Z</time>
   </trkpt>
   <trkpt lat="45.3853050" lon="6.6031840">
    <ele>2372.0</ele>
    <time>2025-02-01T12:18:20Z</time>
   </trkpt>
   <trkpt lat="45.3853030" lon="6.6031780">
    <ele>2371.9</ele>
    <time>2025-02-01T12:18:21Z</time>
   </trkpt>
   <trkpt lat="45.3853010" lon="6.6031750">
    <ele>2371.8</ele>
    <time>2025-02-01T12:18:22Z</time>
   </trkpt>
   <trkpt lat="45.3853000" lon="6.6031740">
    <ele>2371.7</ele>
    <time>2025-02-01T12:18:23Z</time>
   </trkpt>
   <trkpt lat="45.3853010" lon="6.6031740">
    <ele>2371.7</ele>
    <time>2025-02-01T12:18:24Z</time>
   </trkpt>
   <trkpt lat="45.3853010" lon="6.6031730">
    <ele>2371.7</ele>
    <time>2025-02-01T12:18:25Z</time>
   </trkpt>
   <trkpt lat="45.3853000" lon="6.6031750">
    <ele>2371.7</ele>
    <time>2025-02-01T12:18:26Z</time>
   </trkpt>
   <trkpt lat="45.3853020" lon="6.6031730">
    <ele>2371.6</ele>
    <time>2025-02-01T12:18:27Z</time>
   </trkpt>
   <trkpt lat="45.3853010" lon="6.6031730">
    <ele>2371.6</ele>
    <time>2025-02-01T12:18:28Z</time>
   </trkpt>
   <trkpt lat="45.3853050" lon="6.6031780">
    <ele>2371.4</ele>
    <time>2025-02-01T12:18:29Z</time>
   </trkpt>
   <trkpt lat="45.3853070" lon="6.6031810">
    <ele>2371.3</ele>
    <time>2025-02-01T12:18:30Z</time>
   </trkpt>
   <trkpt lat="45.3853040" lon="6.6031810">
    <ele>2371.3</ele>
    <time>2025-02-01T12:18:31Z</time>
   </trkpt>
   <trkpt lat="45.3853060" lon="6.6031840">
    <ele>2371.2</ele>
    <time>2025-02-01T12:18:32Z</time>
   </trkpt>
   <trkpt lat="45.3853040" lon="6.6031750">
    <ele>2371.0</ele>
    <time>2025-02-01T12:18:33Z</time>
   </trkpt>
   <trkpt lat="45.3853070" lon="6.6031730">
    <ele>2370.9</ele>
    <time>2025-02-01T12:18:34Z</time>
   </trkpt>
   <trkpt lat="45.3853170" lon="6.6031770">
    <ele>2370.6</ele>
    <time>2025-02-01T12:18:35Z</time>
   </trkpt>
   <trkpt lat="45.3853110" lon="6.6031750">
    <ele>2370.5</ele>
    <time>2025-02-01T12:18:36Z</time>
   </trkpt>
   <trkpt lat="45.3853060" lon="6.6031720">
    <ele>2370.3</ele>
    <time>2025-02-01T12:18:37Z</time>
   </trkpt>
   <trkpt lat="45.3853060" lon="6.6031720">
    <ele>2370.3</ele>
    <time>2025-02-01T12:18:38Z</time>
   </trkpt>
   <trkpt lat="45.3853060" lon="6.6031720">
    <ele>2370.3</ele>
    <time>2025-02-01T12:18:39Z</time>
   </trkpt>
   <trkpt lat="45.3853060" lon="6.6031720">
    <ele>2370.3</ele>
    <time>2025-02-01T12:18:40Z</time>
   </trkpt>
   <trkpt lat="45.3853060" lon="6.6031720">
    <ele>2370.3</ele>
    <time>2025-02-01T12:18:41Z</time>
   </trkpt>
   <trkpt lat="45.3853060" lon="6.6031720">
    <ele>2370.3</ele>
    <time>2025-02-01T12:18:42Z</time>
   </trkpt>
   <trkpt lat="45.3853060" lon="6.6031720">
    <ele>2370.3</ele>
    <time>2025-02-01T12:18:43Z</time>
   </trkpt>
   <trkpt lat="45.3853060" lon="6.6031720">
    <ele>2370.3</ele>
    <time>2025-02-01T12:18:44Z</time>
   </trkpt>
   <trkpt lat="45.3853060" lon="6.6031720">
    <ele>2370.3</ele>
    <time>2025-02-01T12:18:45Z</time>
   </trkpt>
   <trkpt lat="45.3853060" lon="6.6031720">
    <ele>2370.3</ele>
    <time>2025-02-01T12:18:46Z</time>
   </trkpt>
   <trkpt lat="45.3853060" lon="6.6031720">
    <ele>2370.3</ele>
    <time>2025-02-01T12:18:47Z</time>
   </trkpt>
   <trkpt lat="45.3852900" lon="6.6031610">
    <ele>2369.8</ele>
    <time>2025-02-01T12:18:48Z</time>
   </trkpt>
   <trkpt lat="45.3852930" lon="6.6031610">
    <ele>2369.7</ele>
    <time>2025-02-01T12:18:49Z</time>
   </trkpt>
   <trkpt lat="45.3852920" lon="6.6031590">
    <ele>2369.7</ele>
    <time>2025-02-01T12:18:50Z</time>
   </trkpt>
   <trkpt lat="45.3852960" lon="6.6031610">
    <ele>2369.6</ele>
    <time>2025-02-01T12:18:51Z</time>
   </trkpt>
   <trkpt lat="45.3853000" lon="6.6031570">
    <ele>2369.4</ele>
    <time>2025-02-01T12:18:52Z</time>
   </trkpt>
   <trkpt lat="45.3853020" lon="6.6031540">
    <ele>2369.3</ele>
    <time>2025-02-01T12:18:53Z</time>
   </trkpt>
   <trkpt lat="45.3853030" lon="6.6031520">
    <ele>2369.3</ele>
    <time>2025-02-01T12:18:54Z</time>
   </trkpt>
   <trkpt lat="45.3853060" lon="6.6031490">
    <ele>2369.2</ele>
    <time>2025-02-01T12:18:55Z</time>
   </trkpt>
   <trkpt lat="45.3853120" lon="6.6031440">
    <ele>2369.0</ele>
    <time>2025-02-01T12:18:56Z</time>
   </trkpt>
   <trkpt lat="45.3853100" lon="6.6031350">
    <ele>2368.8</ele>
    <time>2025-02-01T12:18:57Z</time>
   </trkpt>
   <trkpt lat="45.3853190" lon="6.6031120">
    <ele>2368.3</ele>
    <time>2025-02-01T12:18:58Z</time>
   </trkpt>
   <trkpt lat="45.3853350" lon="6.6030660">
    <ele>2367.3</ele>
    <time>2025-02-01T12:18:59Z</time>
   </trkpt>
   <trkpt lat="45.3853590" lon="6.6030050">
    <ele>2365.9</ele>
    <time>2025-02-01T12:19:00Z</time>
   </trkpt>
   <trkpt lat="45.3853990" lon="6.6029370">
    <ele>2364.2</ele>
    <time>2025-02-01T12:19:01Z</time>
   </trkpt>
   <trkpt lat="45.3854380" lon="6.6028600">
    <ele>2362.4</ele>
    <time>2025-02-01T12:19:02Z</time>
   </trkpt>
   <trkpt lat="45.3854770" lon="6.6027760">
    <ele>2359.9</ele>
    <time>2025-02-01T12:19:03Z</time>
   </trkpt>
   <trkpt lat="45.3855130" lon="6.6026910">
    <ele>2358.4</ele>
    <time>2025-02-01T12:19:04Z</time>
   </trkpt>
   <trkpt lat="45.3855810" lon="6.6026480">
    <ele>2356.8</ele>
    <time>2025-02-01T12:19:05Z</time>
   </trkpt>
   <trkpt lat="45.3856420" lon="6.6026250">
    <ele>2355.4</ele>
    <time>2025-02-01T12:19:06Z</time>
   </trkpt>
   <trkpt lat="45.3857030" lon="6.6025940">
    <ele>2354.0</ele>
    <time>2025-02-01T12:19:07Z</time>
   </trkpt>
   <trkpt lat="45.3857590" lon="6.6025550">
    <ele>2352.7</ele>
    <time>2025-02-01T12:19:08Z</time>
   </trkpt>
   <trkpt lat="45.3858140" lon="6.6025160">
    <ele>2351.3</ele>
    <time>2025-02-01T12:19:09Z</time>
   </trkpt>
   <trkpt lat="45.3858650" lon="6.6024560">
    <ele>2349.8</ele>
    <time>2025-02-01T12:19:10Z</time>
   </trkpt>
   <trkpt lat="45.3859010" lon="6.6023600">
    <ele>2348.1</ele>
    <time>2025-02-01T12:19:11Z</time>
   </trkpt>
   <trkpt lat="45.3859120" lon="6.6022460">
    <ele>2346.2</ele>
    <time>2025-02-01T12:19:12Z</time>
   </trkpt>
   <trkpt lat="45.3859110" lon="6.6021210">
    <ele>2344.1</ele>
    <time>2025-02-01T12:19:13Z</time>
   </trkpt>
   <trkpt lat="45.3859040" lon="6.6019960">
    <ele>2342.1</ele>
    <time>2025-02-01T12:19:14Z</time>
   </trkpt>
   <trkpt lat="45.3859050" lon="6.6018800">
    <ele>2340.2</ele>
    <time>2025-02-01T12:19:15Z</time>
   </trkpt>
   <trkpt lat="45.3859070" lon="6.6017420">
    <ele>2337.9</ele>
    <time>2025-02-01T12:19:16Z</time>
   </trkpt>
   <trkpt lat="45.3859140" lon="6.6015790">
    <ele>2335.1</ele>
    <time>2025-02-01T12:19:17Z</time>
   </trkpt>
   <trkpt lat="45.3859360" lon="6.6013990">
    <ele>2331.9</ele>
    <time>2025-02-01T12:19:18Z</time>
   </trkpt>
   <trkpt lat="45.3859650" lon="6.6012130">
    <ele>2328.5</ele>
    <time>2025-02-01T12:19:19Z</time>
   </trkpt>
   <trkpt lat="45.3860260" lon="6.6010380">
    <ele>2325.1</ele>
    <time>2025-02-01T12:19:20Z</time>
   </trkpt>
   <trkpt lat="45.3861030" lon="6.6008670">
    <ele>2321.4</ele>
    <time>2025-02-01T12:19:21Z</time>
   </trkpt>
   <trkpt lat="45.3861900" lon="6.6007020">
    <ele>2317.4</ele>
    <time>2025-02-01T12:19:22Z</time>
   </trkpt>
   <trkpt lat="45.3862720" lon="6.6005480">
    <ele>2313.4</ele>
    <time>2025-02-01T12:19:23Z</time>
   </trkpt>
   <trkpt lat="45.3863340" lon="6.6003740">
    <ele>2309.7</ele>
    <time>2025-02-01T12:19:24Z</time>
   </trkpt>
   <trkpt lat="45.3863760" lon="6.6001700">
    <ele>2305.8</ele>
    <time>2025-02-01T12:19:25Z</time>
   </trkpt>
   <trkpt lat="45.3863890" lon="6.5999590">
    <ele>2302.1</ele>
    <time>2025-02-01T12:19:26Z</time>
   </trkpt>
   <trkpt lat="45.3864140" lon="6.5997500">
    <ele>2298.8</ele>
    <time>2025-02-01T12:19:27Z</time>
   </trkpt>
   <trkpt lat="45.3864790" lon="6.5995610">
    <ele>2296.2</ele>
    <time>2025-02-01T12:19:28Z</time>
   </trkpt>
   <trkpt lat="45.3865590" lon="6.5993910">
    <ele>2294.0</ele>
    <time>2025-02-01T12:19:29Z</time>
   </trkpt>
   <trkpt lat="45.3866320" lon="6.5992340">
    <ele>2292.3</ele>
    <time>2025-02-01T12:19:30Z</time>
   </trkpt>
   <trkpt lat="45.3866530" lon="6.5990520">
    <ele>2290.8</ele>
    <time>2025-02-01T12:19:31Z</time>
   </trkpt>
   <trkpt lat="45.3866450" lon="6.5988720">
    <ele>2289.2</ele>
    <time>2025-02-01T12:19:32Z</time>
   </trkpt>
   <trkpt lat="45.3866700" lon="6.5986980">
    <ele>2287.3</ele>
    <time>2025-02-01T12:19:33Z</time>
   </trkpt>
   <trkpt lat="45.3867350" lon="6.5985160">
    <ele>2284.6</ele>
    <time>2025-02-01T12:19:34Z</time>
   </trkpt>
   <trkpt lat="45.3868100" lon="6.5983260">
    <ele>2281.4</ele>
    <time>2025-02-01T12:19:35Z</time>
   </trkpt>
   <trkpt lat="45.3868890" lon="6.5981460">
    <ele>2278.1</ele>
    <time>2025-02-01T12:19:36Z</time>
   </trkpt>
   <trkpt lat="45.3869820" lon="6.5979480">
    <ele>2274.4</ele>
    <time>2025-02-01T12:19:37Z</time>
   </trkpt>
   <trkpt lat="45.3870760" lon="6.5977700">
    <ele>2270.7</ele>
    <time>2025-02-01T12:19:38Z</time>
   </trkpt>
   <trkpt lat="45.3871810" lon="6.5976370">
    <ele>2267.2</ele>
    <time>2025-02-01T12:19:39Z</time>
   </trkpt>
   <trkpt lat="45.3872610" lon="6.5975200">
    <ele>2264.4</ele>
    <time>2025-02-01T12:19:40Z</time>
   </trkpt>
   <trkpt lat="45.3873240" lon="6.5973800">
    <ele>2261.5</ele>
    <time>2025-02-01T12:19:41Z</time>
   </trkpt>
   <trkpt lat="45.3873750" lon="6.5972430">
    <ele>2257.2</ele>
    <time>2025-02-01T12:19:42Z</time>
   </trkpt>
   <trkpt lat="45.3874210" lon="6.5971370">
    <ele>2255.4</ele>
    <time>2025-02-01T12:19:43Z</time>
   </trkpt>
   <trkpt lat="45.3874680" lon="6.5970470">
    <ele>2253.5</ele>
    <time>2025-02-01T12:19:44Z</time>
   </trkpt>
   <trkpt lat="45.3875150" lon="6.5969620">
    <ele>2252.0</ele>
    <time>2025-02-01T12:19:45Z</time>
   </trkpt>
   <trkpt lat="45.3875470" lon="6.5968290">
    <ele>2249.4</ele>
    <time>2025-02-01T12:19:46Z</time>
   </trkpt>
   <trkpt lat="45.3875750" lon="6.5966680">
    <ele>2246.7</ele>
    <time>2025-02-01T12:19:47Z</time>
   </trkpt>
   <trkpt lat="45.3876200" lon="6.5965180">
    <ele>2244.6</ele>
    <time>2025-02-01T12:19:48Z</time>
   </trkpt>
   <trkpt lat="45.3876390" lon="6.5963450">
    <ele>2240.1</ele>
    <time>2025-02-01T12:19:49Z</time>
   </trkpt>
   <trkpt lat="45.3876810" lon="6.5961970">
    <ele>2237.2</ele>
    <time>2025-02-01T12:19:50Z</time>
   </trkpt>
   <trkpt lat="45.3877090" lon="6.5959980">
    <ele>2231.8</ele>
    <time>2025-02-01T12:19:51Z</time>
   </trkpt>
   <trkpt lat="45.3877410" lon="6.5958060">
    <ele>2227.8</ele>
    <time>2025-02-01T12:19:52Z</time>
   </trkpt>
   <trkpt lat="45.3878240" lon="6.5956520">
    <ele>2223.8</ele>
    <time>2025-02-01T12:19:53Z</time>
   </trkpt>
   <trkpt lat="45.3879240" lon="6.5955310">
    <ele>2221.4</ele>
    <time>2025-02-01T12:19:54Z</time>
   </trkpt>
   <trkpt lat="45.3880100" lon="6.5953860">
    <ele>2217.8</ele>
    <time>2025-02-01T12:19:55Z</time>
   </trkpt>
   <trkpt lat="45.3880800" lon="6.5952310">
    <ele>2215.3</ele>
    <time>2025-02-01T12:19:56Z</time>
   </trkpt>
   <trkpt lat="45.3881560" lon="6.5950990">
    <ele>2211.7</ele>
    <time>2025-02-01T12:19:57Z</time>
   </trkpt>
   <trkpt lat="45.3881910" lon="6.5949530">
    <ele>2209.3</ele>
    <time>2025-02-01T12:19:58Z</time>
   </trkpt>
   <trkpt lat="45.3882150" lon="6.5948050">
    <ele>2207.3</ele>
    <time>2025-02-01T12:19:59Z</time>
   </trkpt>
   <trkpt lat="45.3883030" lon="6.5947090">
    <ele>2205.0</ele>
    <time>2025-02-01T12:20:00Z</time>
   </trkpt>
   <trkpt lat="45.3883390" lon="6.5945780">
    <ele>2203.1</ele>
    <time>2025-02-01T12:20:01Z</time>
   </trkpt>
   <trkpt lat="45.3883850" lon="6.5945050">
    <ele>2202.4</ele>
    <time>2025-02-01T12:20:02Z</time>
   </trkpt>
   <trkpt lat="45.3884030" lon="6.5945470">
    <ele>2202.8</ele>
    <time>2025-02-01T12:20:03Z</time>
   </trkpt>
   <trkpt lat="45.3884020" lon="6.5945620">
    <ele>2202.8</ele>
    <time>2025-02-01T12:20:04Z</time>
   </trkpt>
   <trkpt lat="45.3883950" lon="6.5945670">
    <ele>2202.8</ele>
    <time>2025-02-01T12:20:05Z</time>
   </trkpt>
   <trkpt lat="45.3883960" lon="6.5945670">
    <ele>2202.7</ele>
    <time>2025-02-01T12:20:06Z</time>
   </trkpt>
   <trkpt lat="45.3883980" lon="6.5945670">
    <ele>2202.7</ele>
    <time>2025-02-01T12:20:07Z</time>
   </trkpt>
   <trkpt lat="45.3884000" lon="6.5945670">
    <ele>2202.7</ele>
    <time>2025-02-01T12:20:08Z</time>
   </trkpt>
   <trkpt lat="45.3884010" lon="6.5945680">
    <ele>2202.6</ele>
    <time>2025-02-01T12:20:09Z</time>
   </trkpt>
   <trkpt lat="45.3884030" lon="6.5945680">
    <ele>2202.6</ele>
    <time>2025-02-01T12:20:10Z</time>
   </trkpt>
   <trkpt lat="45.3884050" lon="6.5945680">
    <ele>2202.6</ele>
    <time>2025-02-01T12:20:11Z</time>
   </trkpt>
   <trkpt lat="45.3884060" lon="6.5945680">
    <ele>2202.5</ele>
    <time>2025-02-01T12:20:12Z</time>
   </trkpt>
   <trkpt lat="45.3884080" lon="6.5945680">
    <ele>2202.5</ele>
    <time>2025-02-01T12:20:13Z</time>
   </trkpt>
   <trkpt lat="45.3884100" lon="6.5945680">
    <ele>2202.5</ele>
    <time>2025-02-01T12:20:14Z</time>
   </trkpt>
   <trkpt lat="45.3884110" lon="6.5945680">
    <ele>2202.5</ele>
    <time>2025-02-01T12:20:15Z</time>
   </trkpt>
   <trkpt lat="45.3884130" lon="6.5945680">
    <ele>2202.4</ele>
    <time>2025-02-01T12:20:16Z</time>
   </trkpt>
   <trkpt lat="45.3884150" lon="6.5945680">
    <ele>2202.3</ele>
    <time>2025-02-01T12:20:17Z</time>
   </trkpt>
   <trkpt lat="45.3884160" lon="6.5945680">
    <ele>2202.3</ele>
    <time>2025-02-01T12:20:18Z</time>
   </trkpt>
   <trkpt lat="45.3884180" lon="6.5945690">
    <ele>2202.3</ele>
    <time>2025-02-01T12:20:19Z</time>
   </trkpt>
   <trkpt lat="45.3884190" lon="6.5945690">
    <ele>2202.2</ele>
    <time>2025-02-01T12:20:20Z</time>
   </trkpt>
   <trkpt lat="45.3884210" lon="6.5945690">
    <ele>2202.2</ele>
    <time>2025-02-01T12:20:21Z</time>
   </trkpt>
   <trkpt lat="45.3884230" lon="6.5945690">
    <ele>2202.2</ele>
    <time>2025-02-01T12:20:22Z</time>
   </trkpt>
   <trkpt lat="45.3884240" lon="6.5945690">
    <ele>2202.1</ele>
    <time>2025-02-01T12:20:23Z</time>
   </trkpt>
   <trkpt lat="45.3884260" lon="6.5945690">
    <ele>2202.1</ele>
    <time>2025-02-01T12:20:24Z</time>
   </trkpt>
   <trkpt lat="45.3884280" lon="6.5945690">
    <ele>2202.1</ele>
    <time>2025-02-01T12:20:25Z</time>
   </trkpt>
   <trkpt lat="45.3884290" lon="6.5945690">
    <ele>2202.0</ele>
    <time>2025-02-01T12:20:26Z</time>
   </trkpt>
   <trkpt lat="45.3884310" lon="6.5945690">
    <ele>2202.0</ele>
    <time>2025-02-01T12:20:27Z</time>
   </trkpt>
   <trkpt lat="45.3884330" lon="6.5945690">
    <ele>2202.0</ele>
    <time>2025-02-01T12:20:28Z</time>
   </trkpt>
   <trkpt lat="45.3884340" lon="6.5945700">
    <ele>2201.9</ele>
    <time>2025-02-01T12:20:29Z</time>
   </trkpt>
   <trkpt lat="45.3884360" lon="6.5945700">
    <ele>2201.9</ele>
    <time>2025-02-01T12:20:30Z</time>
   </trkpt>
   <trkpt lat="45.3884380" lon="6.5945700">
    <ele>2201.9</ele>
    <time>2025-02-01T12:20:31Z</time>
   </trkpt>
   <trkpt lat="45.3884390" lon="6.5945700">
    <ele>2201.8</ele>
    <time>2025-02-01T12:20:32Z</time>
   </trkpt>
   <trkpt lat="45.3884410" lon="6.5945700">
    <ele>2201.8</ele>
    <time>2025-02-01T12:20:33Z</time>
   </trkpt>
   <trkpt lat="45.3884820" lon="6.5945450">
    <ele>2201.6</ele>
    <time>2025-02-01T12:20:34Z</time>
   </trkpt>
   <trkpt lat="45.3885320" lon="6.5945110">
    <ele>2201.0</ele>
    <time>2025-02-01T12:20:35Z</time>
   </trkpt>
   <trkpt lat="45.3885880" lon="6.5944560">
    <ele>2199.8</ele>
    <time>2025-02-01T12:20:36Z</time>
   </trkpt>
   <trkpt lat="45.3886330" lon="6.5943630">
    <ele>2198.4</ele>
    <time>2025-02-01T12:20:37Z</time>
   </trkpt>
   <trkpt lat="45.3886710" lon="6.5942560">
    <ele>2196.9</ele>
    <time>2025-02-01T12:20:38Z</time>
   </trkpt>
   <trkpt lat="45.3887210" lon="6.5941470">
    <ele>2194.1</ele>
    <time>2025-02-01T12:20:39Z</time>
   </trkpt>
   <trkpt lat="45.3887270" lon="6.5940190">
    <ele>2191.9</ele>
    <time>2025-02-01T12:20:40Z</time>
   </trkpt>
   <trkpt lat="45.3887270" lon="6.5938910">
    <ele>2189.8</ele>
    <time>2025-02-01T12:20:41Z</time>
   </trkpt>
   <trkpt lat="45.3887540" lon="6.5938340">
    <ele>2188.7</ele>
    <time>2025-02-01T12:20:42Z</time>
   </trkpt>
   <trkpt lat="45.3887630" lon="6.5938180">
    <ele>2188.7</ele>
    <time>2025-02-01T12:20:43Z</time>
   </trkpt>
   <trkpt lat="45.3887670" lon="6.5938110">
    <ele>2187.9</ele>
    <time>2025-02-01T12:20:44Z</time>
   </trkpt>
   <trkpt lat="45.3887740" lon="6.5937990">
    <ele>2187.9</ele>
    <time>2025-02-01T12:20:45Z</time>
   </trkpt>
   <trkpt lat="45.3887690" lon="6.5937990">
    <ele>2187.9</ele>
    <time>2025-02-01T12:20:46Z</time>
   </trkpt>
   <trkpt lat="45.3887690" lon="6.5938000">
    <ele>2187.8</ele>
    <time>2025-02-01T12:20:47Z</time>
   </trkpt>
   <trkpt lat="45.3887700" lon="6.5937990">
    <ele>2187.8</ele>
    <time>2025-02-01T12:20:48Z</time>
   </trkpt>
   <trkpt lat="45.3887730" lon="6.5937950">
    <ele>2187.8</ele>
    <time>2025-02-01T12:20:49Z</time>
   </trkpt>
   <trkpt lat="45.3887730" lon="6.5937950">
    <ele>2187.7</ele>
    <time>2025-02-01T12:20:50Z</time>
   </trkpt>
   <trkpt lat="45.3887740" lon="6.5937930">
    <ele>2187.7</ele>
    <time>2025-02-01T12:20:51Z</time>
   </trkpt>
   <trkpt lat="45.3887740" lon="6.5937930">
    <ele>2187.7</ele>
    <time>2025-02-01T12:20:52Z</time>
   </trkpt>
   <trkpt lat="45.3887710" lon="6.5937940">
    <ele>2187.6</ele>
    <time>2025-02-01T12:20:53Z</time>
   </trkpt>
   <trkpt lat="45.3887720" lon="6.5937920">
    <ele>2187.6</ele>
    <time>2025-02-01T12:20:54Z</time>
   </trkpt>
   <trkpt lat="45.3887730" lon="6.5937910">
    <ele>2187.6</ele>
    <time>2025-02-01T12:20:55Z</time>
   </trkpt>
   <trkpt lat="45.3887770" lon="6.5937870">
    <ele>2187.3</ele>
    <time>2025-02-01T12:20:56Z</time>
   </trkpt>
   <trkpt lat="45.3887780" lon="6.5937890">
    <ele>2187.2</ele>
    <time>2025-02-01T12:20:57Z</time>
   </trkpt>
   <trkpt lat="45.3887790" lon="6.5937880">
    <ele>2187.2</ele>
    <time>2025-02-01T12:20:58Z</time>
   </trkpt>
   <trkpt lat="45.3887820" lon="6.5937860">
    <ele>2187.2</ele>
    <time>2025-02-01T12:20:59Z</time>
   </trkpt>
   <trkpt lat="45.3887810" lon="6.5937890">
    <ele>2187.1</ele>
    <time>2025-02-01T12:21:00Z</time>
   </trkpt>
   <trkpt lat="45.3887810" lon="6.5937890">
    <ele>2187.1</ele>
    <time>2025-02-01T12:21:01Z</time>
   </trkpt>
   <trkpt lat="45.3887860" lon="6.5937830">
    <ele>2187.1</ele>
    <time>2025-02-01T12:21:02Z</time>
   </trkpt>
   <trkpt lat="45.3887930" lon="6.5937750">
    <ele>2187.0</ele>
    <time>2025-02-01T12:21:03Z</time>
   </trkpt>
   <trkpt lat="45.3887990" lon="6.5937700">
    <ele>2186.2</ele>
    <time>2025-02-01T12:21:04Z</time>
   </trkpt>
   <trkpt lat="45.3888280" lon="6.5937470">
    <ele>2185.9</ele>
    <time>2025-02-01T12:21:05Z</time>
   </trkpt>
   <trkpt lat="45.3888360" lon="6.5937420">
    <ele>2185.9</ele>
    <time>2025-02-01T12:21:06Z</time>
   </trkpt>
   <trkpt lat="45.3888600" lon="6.5937230">
    <ele>2184.7</ele>
    <time>2025-02-01T12:21:07Z</time>
   </trkpt>
   <trkpt lat="45.3888710" lon="6.5937120">
    <ele>2184.2</ele>
    <time>2025-02-01T12:21:08Z</time>
   </trkpt>
   <trkpt lat="45.3888990" lon="6.5936840">
    <ele>2182.8</ele>
    <time>2025-02-01T12:21:09Z</time>
   </trkpt>
   <trkpt lat="45.3889300" lon="6.5936590">
    <ele>2182.2</ele>
    <time>2025-02-01T12:21:10Z</time>
   </trkpt>
   <trkpt lat="45.3889630" lon="6.5936370">
    <ele>2180.8</ele>
    <time>2025-02-01T12:21:11Z</time>
   </trkpt>
   <trkpt lat="45.3889970" lon="6.5936150">
    <ele>2180.2</ele>
    <time>2025-02-01T12:21:12Z</time>
   </trkpt>
   <trkpt lat="45.3890290" lon="6.5935970">
    <ele>2178.8</ele>
    <time>2025-02-01T12:21:13Z</time>
   </trkpt>
   <trkpt lat="45.3890650" lon="6.5935880">
    <ele>2178.2</ele>
    <time>2025-02-01T12:21:14Z</time>
   </trkpt>
   <trkpt lat="45.3891060" lon="6.5935780">
    <ele>2177.5</ele>
    <time>2025-02-01T12:21:15Z</time>
   </trkpt>
   <trkpt lat="45.3891480" lon="6.5935690">
    <ele>2176.1</ele>
    <time>2025-02-01T12:21:16Z</time>
   </trkpt>
   <trkpt lat="45.3891950" lon="6.5935580">
    <ele>2175.3</ele>
    <time>2025-02-01T12:21:17Z</time>
   </trkpt>
   <trkpt lat="45.3892500" lon="6.5935510">
    <ele>2173.0</ele>
    <time>2025-02-01T12:21:18Z</time>
   </trkpt>
   <trkpt lat="45.3893120" lon="6.5935460">
    <ele>2171.7</ele>
    <time>2025-02-01T12:21:19Z</time>
   </trkpt>
   <trkpt lat="45.3893810" lon="6.5935340">
    <ele>2169.4</ele>
    <time>2025-02-01T12:21:20Z</time>
   </trkpt>
   <trkpt lat="45.3894550" lon="6.5935140">
    <ele>2167.7</ele>
    <time>2025-02-01T12:21:21Z</time>
   </trkpt>
   <trkpt lat="45.3895250" lon="6.5934890">
    <ele>2165.0</ele>
    <time>2025-02-01T12:21:22Z</time>
   </trkpt>
   <trkpt lat="45.3895970" lon="6.5934170">
    <ele>2160.2</ele>
    <time>2025-02-01T12:21:23Z</time>
   </trkpt>
   <trkpt lat="45.3896730" lon="6.5933330">
    <ele>2155.9</ele>
    <time>2025-02-01T12:21:24Z</time>
   </trkpt>
   <trkpt lat="45.3897820" lon="6.5932710">
    <ele>2150.9</ele>
    <time>2025-02-01T12:21:25Z</time>
   </trkpt>
   <trkpt lat="45.3899000" lon="6.5932260">
    <ele>2146.6</ele>
    <time>2025-02-01T12:21:26Z</time>
   </trkpt>
   <trkpt lat="45.3900110" lon="6.5931270">
    <ele>2141.5</ele>
    <time>2025-02-01T12:21:27Z</time>
   </trkpt>
   <trkpt lat="45.3900980" lon="6.5929300">
    <ele>2136.0</ele>
    <time>2025-02-01T12:21:28Z</time>
   </trkpt>
   <trkpt lat="45.3902110" lon="6.5927410">
    <ele>2130.5</ele>
    <time>2025-02-01T12:21:29Z</time>
   </trkpt>
   <trkpt lat="45.3903790" lon="6.5926390">
    <ele>2125.5</ele>
    <time>2025-02-01T12:21:30Z</time>
   </trkpt>
   <trkpt lat="45.3905170" lon="6.5924900">
    <ele>2121.5</ele>
    <time>2025-02-01T12:21:31Z</time>
   </trkpt>
   <trkpt lat="45.3906260" lon="6.5922590">
    <ele>2117.4</ele>
    <time>2025-02-01T12:21:32Z</time>
   </trkpt>
   <trkpt lat="45.3907710" lon="6.5921230">
    <ele>2114.0</ele>
    <time>2025-02-01T12:21:33Z</time>
   </trkpt>
   <trkpt lat="45.3909140" lon="6.5920090">
    <ele>2110.7</ele>
    <time>2025-02-01T12:21:34Z</time>
   </trkpt>
   <trkpt lat="45.3910230" lon="6.5918500">
    <ele>2107.2</ele>
    <time>2025-02-01T12:21:35Z</time>
   </trkpt>
   <trkpt lat="45.3911460" lon="6.5917560">
    <ele>2103.7</ele>
    <time>2025-02-01T12:21:36Z</time>
   </trkpt>
   <trkpt lat="45.3912350" lon="6.5916200">
    <ele>2100.0</ele>
    <time>2025-02-01T12:21:37Z</time>
   </trkpt>
   <trkpt lat="45.3913320" lon="6.5914840">
    <ele>2096.1</ele>
    <time>2025-02-01T12:21:38Z</time>
   </trkpt>
   <trkpt lat="45.3914230" lon="6.5913310">
    <ele>2092.0</ele>
    <time>2025-02-01T12:21:39Z</time>
   </trkpt>
   <trkpt lat="45.3914850" lon="6.5911430">
    <ele>2087.4</ele>
    <time>2025-02-01T12:21:40Z</time>
   </trkpt>
   <trkpt lat="45.3915920" lon="6.5909770">
    <ele>2081.8</ele>
    <time>2025-02-01T12:21:41Z</time>
   </trkpt>
   <trkpt lat="45.3917130" lon="6.5908350">
    <ele>2075.0</ele>
    <time>2025-02-01T12:21:42Z</time>
   </trkpt>
   <trkpt lat="45.3918570" lon="6.5906960">
    <ele>2066.0</ele>
    <time>2025-02-01T12:21:43Z</time>
   </trkpt>
   <trkpt lat="45.3920260" lon="6.5905500">
    <ele>2055.0</ele>
    <time>2025-02-01T12:21:44Z</time>
   </trkpt>
   <trkpt lat="45.3921850" lon="6.5904110">
    <ele>2045.2</ele>
    <time>2025-02-01T12:21:45Z</time>
   </trkpt>
   <trkpt lat="45.3923740" lon="6.5903030">
    <ele>2036.0</ele>
    <time>2025-02-01T12:21:46Z</time>
   </trkpt>
   <trkpt lat="45.3925400" lon="6.5901200">
    <ele>2028.8</ele>
    <time>2025-02-01T12:21:47Z</time>
   </trkpt>
   <trkpt lat="45.3926710" lon="6.5899010">
    <ele>2023.5</ele>
    <time>2025-02-01T12:21:48Z</time>
   </trkpt>
   <trkpt lat="45.3928140" lon="6.5897560">
    <ele>2018.8</ele>
    <time>2025-02-01T12:21:49Z</time>
   </trkpt>
   <trkpt lat="45.3929380" lon="6.5895790">
    <ele>2013.9</ele>
    <time>2025-02-01T12:21:50Z</time>
   </trkpt>
   <trkpt lat="45.3930500" lon="6.5893880">
    <ele>2012.4</ele>
    <time>2025-02-01T12:21:51Z</time>
   </trkpt>
   <trkpt lat="45.3932090" lon="6.5892930">
    <ele>2008.8</ele>
    <time>2025-02-01T12:21:52Z</time>
   </trkpt>
   <trkpt lat="45.3933600" lon="6.5891950">
    <ele>2005.0</ele>
    <time>2025-02-01T12:21:53Z</time>
   </trkpt>
   <trkpt lat="45.3935180" lon="6.5891140">
    <ele>2002.2</ele>
    <time>2025-02-01T12:21:54Z</time>
   </trkpt>
   <trkpt lat="45.3936980" lon="6.5890940">
    <ele>1995.0</ele>
    <time>2025-02-01T12:21:55Z</time>
   </trkpt>
   <trkpt lat="45.3938740" lon="6.5891350">
    <ele>1991.0</ele>
    <time>2025-02-01T12:21:56Z</time>
   </trkpt>
   <trkpt lat="45.3940460" lon="6.5892280">
    <ele>1987.8</ele>
    <time>2025-02-01T12:21:57Z</time>
   </trkpt>
   <trkpt lat="45.3941820" lon="6.5893520">
    <ele>1984.7</ele>
    <time>2025-02-01T12:21:58Z</time>
   </trkpt>
   <trkpt lat="45.3942860" lon="6.5894780">
    <ele>1982.6</ele>
    <time>2025-02-01T12:21:59Z</time>
   </trkpt>
   <trkpt lat="45.3943660" lon="6.5896080">
    <ele>1980.5</ele>
    <time>2025-02-01T12:22:00Z</time>
   </trkpt>
   <trkpt lat="45.3944350" lon="6.5897370">
    <ele>1979.2</ele>
    <time>2025-02-01T12:22:01Z</time>
   </trkpt>
   <trkpt lat="45.3945210" lon="6.5898490">
    <ele>1977.0</ele>
    <time>2025-02-01T12:22:02Z</time>
   </trkpt>
   <trkpt lat="45.3946310" lon="6.5899270">
    <ele>1974.4</ele>
    <time>2025-02-01T12:22:03Z</time>
   </trkpt>
   <trkpt lat="45.3947370" lon="6.5900410">
    <ele>1972.1</ele>
    <time>2025-02-01T12:22:04Z</time>
   </trkpt>
   <trkpt lat="45.3948190" lon="6.5902070">
    <ele>1970.3</ele>
    <time>2025-02-01T12:22:05Z</time>
   </trkpt>
   <trkpt lat="45.3949150" lon="6.5903690">
    <ele>1969.6</ele>
    <time>2025-02-01T12:22:06Z</time>
   </trkpt>
   <trkpt lat="45.3950510" lon="6.5904770">
    <ele>1966.9</ele>
    <time>2025-02-01T12:22:07Z</time>
   </trkpt>
   <trkpt lat="45.3952040" lon="6.5905100">
    <ele>1964.1</ele>
    <time>2025-02-01T12:22:08Z</time>
   </trkpt>
   <trkpt lat="45.3953340" lon="6.5905410">
    <ele>1962.2</ele>
    <time>2025-02-01T12:22:09Z</time>
   </trkpt>
   <trkpt lat="45.3954510" lon="6.5905710">
    <ele>1960.6</ele>
    <time>2025-02-01T12:22:10Z</time>
   </trkpt>
   <trkpt lat="45.3955500" lon="6.5905410">
    <ele>1959.1</ele>
    <time>2025-02-01T12:22:11Z</time>
   </trkpt>
   <trkpt lat="45.3956320" lon="6.5905620">
    <ele>1957.8</ele>
    <time>2025-02-01T12:22:12Z</time>
   </trkpt>
   <trkpt lat="45.3956880" lon="6.5905170">
    <ele>1956.6</ele>
    <time>2025-02-01T12:22:13Z</time>
   </trkpt>
   <trkpt lat="45.3956930" lon="6.5904830">
    <ele>1956.1</ele>
    <time>2025-02-01T12:22:14Z</time>
   </trkpt>
   <trkpt lat="45.3956790" lon="6.5904900">
    <ele>1955.8</ele>
    <time>2025-02-01T12:22:15Z</time>
   </trkpt>
   <trkpt lat="45.3956750" lon="6.5905030">
    <ele>1955.6</ele>
    <time>2025-02-01T12:22:16Z</time>
   </trkpt>
   <trkpt lat="45.3956750" lon="6.5905050">
    <ele>1955.6</ele>
    <time>2025-02-01T12:22:17Z</time>
   </trkpt>
   <trkpt lat="45.3956740" lon="6.5905070">
    <ele>1955.5</ele>
    <time>2025-02-01T12:22:18Z</time>
   </trkpt>
   <trkpt lat="45.3956740" lon="6.5905080">
    <ele>1955.5</ele>
    <time>2025-02-01T12:22:19Z</time>
   </trkpt>
   <trkpt lat="45.3956730" lon="6.5905040">
    <ele>1955.5</ele>
    <time>2025-02-01T12:22:20Z</time>
   </trkpt>
   <trkpt lat="45.3956710" lon="6.5905050">
    <ele>1955.4</ele>
    <time>2025-02-01T12:22:21Z</time>
   </trkpt>
   <trkpt lat="45.3956690" lon="6.5905050">
    <ele>1955.4</ele>
    <time>2025-02-01T12:22:22Z</time>
   </trkpt>
   <trkpt lat="45.3956690" lon="6.5905050">
    <ele>1955.4</ele>
    <time>2025-02-01T12:22:23Z</time>
   </trkpt>
   <trkpt lat="45.3956690" lon="6.5905050">
    <ele>1955.4</ele>
    <time>2025-02-01T12:22:24Z</time>
   </trkpt>
   <trkpt lat="45.3956680" lon="6.5905120">
    <ele>1955.3</ele>
    <time>2025-02-01T12:22:25Z</time>
   </trkpt>
   <trkpt lat="45.3956680" lon="6.5905100">
    <ele>1955.2</ele>
    <time>2025-02-01T12:22:26Z</time>
   </trkpt>
   <trkpt lat="45.3956690" lon="6.5905130">
    <ele>1955.2</ele>
    <time>2025-02-01T12:22:27Z</time>
   </trkpt>
   <trkpt lat="45.3956690" lon="6.5905100">
    <ele>1955.1</ele>
    <time>2025-02-01T12:22:28Z</time>
   </trkpt>
   <trkpt lat="45.3956700" lon="6.5905090">
    <ele>1955.1</ele>
    <time>2025-02-01T12:22:29Z</time>
   </trkpt>
   <trkpt lat="45.3956700" lon="6.5905090">
    <ele>1955.1</ele>
    <time>2025-02-01T12:22:30Z</time>
   </trkpt>
   <trkpt lat="45.3956700" lon="6.5905090">
    <ele>1955.1</ele>
    <time>2025-02-01T12:22:31Z</time>
   </trkpt>
   <trkpt lat="45.3956710" lon="6.5905040">
    <ele>1955.0</ele>
    <time>2025-02-01T12:22:32Z</time>
   </trkpt>
   <trkpt lat="45.3956710" lon="6.5905020">
    <ele>1955.0</ele>
    <time>2025-02-01T12:22:33Z</time>
   </trkpt>
   <trkpt lat="45.3956730" lon="6.5904970">
    <ele>1954.9</ele>
    <time>2025-02-01T12:22:34Z</time>
   </trkpt>
   <trkpt lat="45.3956730" lon="6.5904970">
    <ele>1954.9</ele>
    <time>2025-02-01T12:22:35Z</time>
   </trkpt>
   <trkpt lat="45.3956740" lon="6.5904940">
    <ele>1954.8</ele>
    <time>2025-02-01T12:22:36Z</time>
   </trkpt>
   <trkpt lat="45.3956740" lon="6.5904930">
    <ele>1954.8</ele>
    <time>2025-02-01T12:22:37Z</time>
   </trkpt>
   <trkpt lat="45.3956740" lon="6.5904940">
    <ele>1954.8</ele>
    <time>2025-02-01T12:22:38Z</time>
   </trkpt>
   <trkpt lat="45.3956760" lon="6.5904910">
    <ele>1954.7</ele>
    <time>2025-02-01T12:22:39Z</time>
   </trkpt>
   <trkpt lat="45.3956790" lon="6.5904940">
    <ele>1954.6</ele>
    <time>2025-02-01T12:22:40Z</time>
   </trkpt>
   <trkpt lat="45.3956780" lon="6.5904960">
    <ele>1954.6</ele>
    <time>2025-02-01T12:22:41Z</time>
   </trkpt>
   <trkpt lat="45.3956780" lon="6.5904930">
    <ele>1954.5</ele>
    <time>2025-02-01T12:22:42Z</time>
   </trkpt>
   <trkpt lat="45.3956770" lon="6.5904920">
    <ele>1954.5</ele>
    <time>2025-02-01T12:22:43Z</time>
   </trkpt>
   <trkpt lat="45.3956780" lon="6.5904930">
    <ele>1954.5</ele>
    <time>2025-02-01T12:22:44Z</time>
   </trkpt>
   <trkpt lat="45.3956800" lon="6.5904960">
    <ele>1954.4</ele>
    <time>2025-02-01T12:22:45Z</time>
   </trkpt>
   <trkpt lat="45.3956810" lon="6.5905010">
    <ele>1954.3</ele>
    <time>2025-02-01T12:22:46Z</time>
   </trkpt>
   <trkpt lat="45.3956810" lon="6.5905060">
    <ele>1954.2</ele>
    <time>2025-02-01T12:22:47Z</time>
   </trkpt>
   <trkpt lat="45.3956810" lon="6.5905040">
    <ele>1954.2</ele>
    <time>2025-02-01T12:22:48Z</time>
   </trkpt>
   <trkpt lat="45.3956820" lon="6.5905050">
    <ele>1954.2</ele>
    <time>2025-02-01T12:22:49Z</time>
   </trkpt>
   <trkpt lat="45.3956850" lon="6.5905070">
    <ele>1954.1</ele>
    <time>2025-02-01T12:22:50Z</time>
   </trkpt>
   <trkpt lat="45.3956890" lon="6.5905120">
    <ele>1954.0</ele>
    <time>2025-02-01T12:22:51Z</time>
   </trkpt>
   <trkpt lat="45.3957000" lon="6.5905070">
    <ele>1953.7</ele>
    <time>2025-02-01T12:22:52Z</time>
   </trkpt>
   <trkpt lat="45.3957120" lon="6.5904920">
    <ele>1953.2</ele>
    <time>2025-02-01T12:22:53Z</time>
   </trkpt>
   <trkpt lat="45.3957150" lon="6.5904860">
    <ele>1953.1</ele>
    <time>2025-02-01T12:22:54Z</time>
   </trkpt>
   <trkpt lat="45.3957160" lon="6.5904710">
    <ele>1952.8</ele>
    <time>2025-02-01T12:22:55Z</time>
   </trkpt>
   <trkpt lat="45.3957130" lon="6.5904660">
    <ele>1952.7</ele>
    <time>2025-02-01T12:22:56Z</time>
   </trkpt>
   <trkpt lat="45.3957090" lon="6.5904660">
    <ele>1952.6</ele>
    <time>2025-02-01T12:22:57Z</time>
   </trkpt>
   <trkpt lat="45.3957080" lon="6.5904650">
    <ele>1952.5</ele>
    <time>2025-02-01T12:22:58Z</time>
   </trkpt>
   <trkpt lat="45.3957080" lon="6.5904610">
    <ele>1952.5</ele>
    <time>2025-02-01T12:22:59Z</time>
   </trkpt>
   <trkpt lat="45.3957100" lon="6.5904620">
    <ele>1952.4</ele>
    <time>2025-02-01T12:23:00Z</time>
   </trkpt>
   <trkpt lat="45.3957100" lon="6.5904640">
    <ele>1952.4</ele>
    <time>2025-02-01T12:23:01Z</time>
   </trkpt>
   <trkpt lat="45.3957100" lon="6.5904640">
    <ele>1952.4</ele>
    <time>2025-02-01T12:23:02Z</time>
   </trkpt>
   <trkpt lat="45.3957100" lon="6.5904640">
    <ele>1952.4</ele>
    <time>2025-02-01T12:23:03Z</time>
   </trkpt>
   <trkpt lat="45.3957180" lon="6.5904830">
    <ele>1951.9</ele>
    <time>2025-02-01T12:23:04Z</time>
   </trkpt>
   <trkpt lat="45.3957200" lon="6.5904850">
    <ele>1951.8</ele>
    <time>2025-02-01T12:23:05Z</time>
   </trkpt>
   <trkpt lat="45.3957200" lon="6.5904810">
    <ele>1951.8</ele>
    <time>2025-02-01T12:23:06Z</time>
   </trkpt>
   <trkpt lat="45.3957220" lon="6.5904710">
    <ele>1951.6</ele>
    <time>2025-02-01T12:23:07Z</time>
   </trkpt>
   <trkpt lat="45.3957210" lon="6.5904490">
    <ele>1951.1</ele>
    <time>2025-02-01T12:23:08Z</time>
   </trkpt>
   <trkpt lat="45.3957200" lon="6.5904190">
    <ele>1950.5</ele>
    <time>2025-02-01T12:23:09Z</time>
   </trkpt>
   <trkpt lat="45.3957240" lon="6.5904030">
    <ele>1950.1</ele>
    <time>2025-02-01T12:23:10Z</time>
   </trkpt>
   <trkpt lat="45.3957330" lon="6.5903920">
    <ele>1949.7</ele>
    <time>2025-02-01T12:23:11Z</time>
   </trkpt>
   <trkpt lat="45.3957430" lon="6.5903860">
    <ele>1949.4</ele>
    <time>2025-02-01T12:23:12Z</time>
   </trkpt>
   <trkpt lat="45.3957520" lon="6.5903860">
    <ele>1949.1</ele>
    <time>2025-02-01T12:23:13Z</time>
   </trkpt>
   <trkpt lat="45.3957590" lon="6.5903830">
    <ele>1948.9</ele>
    <time>2025-02-01T12:23:14Z</time>
   </trkpt>
   <trkpt lat="45.3957660" lon="6.5903850">
    <ele>1948.6</ele>
    <time>2025-02-01T12:23:15Z</time>
   </trkpt>
   <trkpt lat="45.3957680" lon="6.5903870">
    <ele>1948.6</ele>
    <time>2025-02-01T12:23:16Z</time>
   </trkpt>
   <trkpt lat="45.3957770" lon="6.5903710">
    <ele>1948.1</ele>
    <time>2025-02-01T12:23:17Z</time>
   </trkpt>
   <trkpt lat="45.3957980" lon="6.5903240">
    <ele>1946.8</ele>
    <time>2025-02-01T12:23:18Z</time>
   </trkpt>
   <trkpt lat="45.3958410" lon="6.5902670">
    <ele>1944.8</ele>
    <time>2025-02-01T12:23:19Z</time>
   </trkpt>
   <trkpt lat="45.3959170" lon="6.5901940">
    <ele>1941.5</ele>
    <time>2025-02-01T12:23:20Z</time>
   </trkpt>
   <trkpt lat="45.3960180" lon="6.5901310">
    <ele>1937.4</ele>
    <time>2025-02-01T12:23:21Z</time>
   </trkpt>
   <trkpt lat="45.3962410" lon="6.5899740">
    <ele>1928.6</ele>
    <time>2025-02-01T12:23:22Z</time>
   </trkpt>
   <trkpt lat="45.3963440" lon="6.5898590">
    <ele>1924.1</ele>
    <time>2025-02-01T12:23:23Z</time>
   </trkpt>
   <trkpt lat="45.3964660" lon="6.5897520">
    <ele>1919.4</ele>
    <time>2025-02-01T12:23:24Z</time>
   </trkpt>
   <trkpt lat="45.3966100" lon="6.5896730">
    <ele>1914.6</ele>
    <time>2025-02-01T12:23:25Z</time>
   </trkpt>
   <trkpt lat="45.3967380" lon="6.5895170">
    <ele>1910.0</ele>
    <time>2025-02-01T12:23:26Z</time>
   </trkpt>
   <trkpt lat="45.3968800" lon="6.5894100">
    <ele>1906.4</ele>
    <time>2025-02-01T12:23:27Z</time>
   </trkpt>
   <trkpt lat="45.3970310" lon="6.5893570">
    <ele>1903.3</ele>
    <time>2025-02-01T12:23:28Z</time>
   </trkpt>
   <trkpt lat="45.3971710" lon="6.5892950">
    <ele>1900.5</ele>
    <time>2025-02-01T12:23:29Z</time>
   </trkpt>
   <trkpt lat="45.3973090" lon="6.5892500">
    <ele>1897.8</ele>
    <time>2025-02-01T12:23:30Z</time>
   </trkpt>
   <trkpt lat="45.3974480" lon="6.5892210">
    <ele>1895.1</ele>
    <time>2025-02-01T12:23:31Z</time>
   </trkpt>
   <trkpt lat="45.3976030" lon="6.5891490">
    <ele>1891.7</ele>
    <time>2025-02-01T12:23:32Z</time>
   </trkpt>
   <trkpt lat="45.3977380" lon="6.5890300">
    <ele>1888.4</ele>
    <time>2025-02-01T12:23:33Z</time>
   </trkpt>
   <trkpt lat="45.3978830" lon="6.5889520">
    <ele>1885.0</ele>
    <time>2025-02-01T12:23:34Z</time>
   </trkpt>
   <trkpt lat="45.3980260" lon="6.5888990">
    <ele>1882.5</ele>
    <time>2025-02-01T12:23:35Z</time>
   </trkpt>
   <trkpt lat="45.3981590" lon="6.5887900">
    <ele>1880.1</ele>
    <time>2025-02-01T12:23:36Z</time>
   </trkpt>
   <trkpt lat="45.3982820" lon="6.5887010">
    <ele>1878.3</ele>
    <time>2025-02-01T12:23:37Z</time>
   </trkpt>
   <trkpt lat="45.3983860" lon="6.5885810">
    <ele>1876.5</ele>
    <time>2025-02-01T12:23:38Z</time>
   </trkpt>
   <trkpt lat="45.3984860" lon="6.5884480">
    <ele>1874.8</ele>
    <time>2025-02-01T12:23:40Z</time>
   </trkpt>
   <trkpt lat="45.3985930" lon="6.5883440">
    <ele>1873.2</ele>
    <time>2025-02-01T12:23:41Z</time>
   </trkpt>
   <trkpt lat="45.3986990" lon="6.5882790">
    <ele>1872.0</ele>
    <time>2025-02-01T12:23:42Z</time>
   </trkpt>
   <trkpt lat="45.3988120" lon="6.5882670">
    <ele>1870.9</ele>
    <time>2025-02-01T12:23:43Z</time>
   </trkpt>
   <trkpt lat="45.3989190" lon="6.5883320">
    <ele>1869.6</ele>
    <time>2025-02-01T12:23:44Z</time>
   </trkpt>
   <trkpt lat="45.3990120" lon="6.5883780">
    <ele>1868.5</ele>
    <time>2025-02-01T12:23:45Z</time>
   </trkpt>
   <trkpt lat="45.3991030" lon="6.5883620">
    <ele>1867.3</ele>
    <time>2025-02-01T12:23:46Z</time>
   </trkpt>
   <trkpt lat="45.3992210" lon="6.5883240">
    <ele>1865.2</ele>
    <time>2025-02-01T12:23:47Z</time>
   </trkpt>
   <trkpt lat="45.3993340" lon="6.5882340">
    <ele>1862.5</ele>
    <time>2025-02-01T12:23:48Z</time>
   </trkpt>
   <trkpt lat="45.3994200" lon="6.5880990">
    <ele>1859.6</ele>
    <time>2025-02-01T12:23:49Z</time>
   </trkpt>
   <trkpt lat="45.3995430" lon="6.5880210">
    <ele>1856.4</ele>
    <time>2025-02-01T12:23:50Z</time>
   </trkpt>
   <trkpt lat="45.3996850" lon="6.5880240">
    <ele>1852.7</ele>
    <time>2025-02-01T12:23:51Z</time>
   </trkpt>
   <trkpt lat="45.3998160" lon="6.5879610">
    <ele>1848.9</ele>
    <time>2025-02-01T12:23:52Z</time>
   </trkpt>
   <trkpt lat="45.3999440" lon="6.5878660">
    <ele>1844.9</ele>
    <time>2025-02-01T12:23:53Z</time>
   </trkpt>
   <trkpt lat="45.4001000" lon="6.5878360">
    <ele>1840.5</ele>
    <time>2025-02-01T12:23:54Z</time>
   </trkpt>
   <trkpt lat="45.4002380" lon="6.5877780">
    <ele>1836.7</ele>
    <time>2025-02-01T12:23:55Z</time>
   </trkpt>
   <trkpt lat="45.4003530" lon="6.5876950">
    <ele>1834.0</ele>
    <time>2025-02-01T12:23:56Z</time>
   </trkpt>
   <trkpt lat="45.4004620" lon="6.5876120">
    <ele>1832.1</ele>
    <time>2025-02-01T12:23:57Z</time>
   </trkpt>
   <trkpt lat="45.4005680" lon="6.5875450">
    <ele>1830.6</ele>
    <time>2025-02-01T12:23:58Z</time>
   </trkpt>
   <trkpt lat="45.4006850" lon="6.5875260">
    <ele>1829.2</ele>
    <time>2025-02-01T12:23:59Z</time>
   </trkpt>
   <trkpt lat="45.4007990" lon="6.5875030">
    <ele>1827.8</ele>
    <time>2025-02-01T12:24:00Z</time>
   </trkpt>
   <trkpt lat="45.4009000" lon="6.5874140">
    <ele>1826.4</ele>
    <time>2025-02-01T12:24:01Z</time>
   </trkpt>
   <trkpt lat="45.4009920" lon="6.5873110">
    <ele>1825.0</ele>
    <time>2025-02-01T12:24:02Z</time>
   </trkpt>
   <trkpt lat="45.4010770" lon="6.5872350">
    <ele>1823.9</ele>
    <time>2025-02-01T12:24:03Z</time>
   </trkpt>
   <trkpt lat="45.4011620" lon="6.5871600">
    <ele>1822.9</ele>
    <time>2025-02-01T12:24:04Z</time>
   </trkpt>
   <trkpt lat="45.4012360" lon="6.5870570">
    <ele>1822.1</ele>
    <time>2025-02-01T12:24:05Z</time>
   </trkpt>
   <trkpt lat="45.4012990" lon="6.5869470">
    <ele>1821.0</ele>
    <time>2025-02-01T12:24:06Z</time>
   </trkpt>
   <trkpt lat="45.4013550" lon="6.5868410">
    <ele>1820.2</ele>
    <time>2025-02-01T12:24:07Z</time>
   </trkpt>
   <trkpt lat="45.4014080" lon="6.5867450">
    <ele>1819.4</ele>
    <time>2025-02-01T12:24:08Z</time>
   </trkpt>
   <trkpt lat="45.4014590" lon="6.5866420">
    <ele>1818.5</ele>
    <time>2025-02-01T12:24:09Z</time>
   </trkpt>
   <trkpt lat="45.4015150" lon="6.5865450">
    <ele>1817.6</ele>
    <time>2025-02-01T12:24:10Z</time>
   </trkpt>
   <trkpt lat="45.4015830" lon="6.5864500">
    <ele>1816.8</ele>
    <time>2025-02-01T12:24:11Z</time>
   </trkpt>
   <trkpt lat="45.4016320" lon="6.5863360">
    <ele>1815.8</ele>
    <time>2025-02-01T12:24:12Z</time>
   </trkpt>
   <trkpt lat="45.4016580" lon="6.5862120">
    <ele>1814.8</ele>
    <time>2025-02-01T12:24:13Z</time>
   </trkpt>
   <trkpt lat="45.4016710" lon="6.5860930">
    <ele>1814.1</ele>
    <time>2025-02-01T12:24:14Z</time>
   </trkpt>
   <trkpt lat="45.4017060" lon="6.5859900">
    <ele>1812.9</ele>
    <time>2025-02-01T12:24:15Z</time>
   </trkpt>
   <trkpt lat="45.4017590" lon="6.5858980">
    <ele>1812.0</ele>
    <time>2025-02-01T12:24:16Z</time>
   </trkpt>
   <trkpt lat="45.4017960" lon="6.5857920">
    <ele>1810.9</ele>
    <time>2025-02-01T12:24:17Z</time>
   </trkpt>
   <trkpt lat="45.4018150" lon="6.5856850">
    <ele>1810.1</ele>
    <time>2025-02-01T12:24:18Z</time>
   </trkpt>
   <trkpt lat="45.4018370" lon="6.5855880">
    <ele>1809.3</ele>
    <time>2025-02-01T12:24:19Z</time>
   </trkpt>
   <trkpt lat="45.4018710" lon="6.5854960">
    <ele>1808.4</ele>
    <time>2025-02-01T12:24:20Z</time>
   </trkpt>
   <trkpt lat="45.4019090" lon="6.5854080">
    <ele>1807.4</ele>
    <time>2025-02-01T12:24:21Z</time>
   </trkpt>
   <trkpt lat="45.4019460" lon="6.5853190">
    <ele>1806.4</ele>
    <time>2025-02-01T12:24:22Z</time>
   </trkpt>
   <trkpt lat="45.4019850" lon="6.5852270">
    <ele>1805.2</ele>
    <time>2025-02-01T12:24:23Z</time>
   </trkpt>
   <trkpt lat="45.4020300" lon="6.5851300">
    <ele>1804.0</ele>
    <time>2025-02-01T12:24:24Z</time>
   </trkpt>
   <trkpt lat="45.4020670" lon="6.5850220">
    <ele>1802.7</ele>
    <time>2025-02-01T12:24:25Z</time>
   </trkpt>
   <trkpt lat="45.4021110" lon="6.5849200">
    <ele>1801.3</ele>
    <time>2025-02-01T12:24:26Z</time>
   </trkpt>
   <trkpt lat="45.4021850" lon="6.5848430">
    <ele>1799.9</ele>
    <time>2025-02-01T12:24:27Z</time>
   </trkpt>
   <trkpt lat="45.4022460" lon="6.5847620">
    <ele>1798.5</ele>
    <time>2025-02-01T12:24:28Z</time>
   </trkpt>
   <trkpt lat="45.4022820" lon="6.5846520">
    <ele>1797.1</ele>
    <time>2025-02-01T12:24:29Z</time>
   </trkpt>
   <trkpt lat="45.4023550" lon="6.5845650">
    <ele>1794.7</ele>
    <time>2025-02-01T12:24:30Z</time>
   </trkpt>
   <trkpt lat="45.4024450" lon="6.5845070">
    <ele>1793.5</ele>
    <time>2025-02-01T12:24:31Z</time>
   </trkpt>
   <trkpt lat="45.4025210" lon="6.5844410">
    <ele>1792.4</ele>
    <time>2025-02-01T12:24:32Z</time>
   </trkpt>
   <trkpt lat="45.4025950" lon="6.5843840">
    <ele>1791.5</ele>
    <time>2025-02-01T12:24:33Z</time>
   </trkpt>
   <trkpt lat="45.4026720" lon="6.5843430">
    <ele>1790.5</ele>
    <time>2025-02-01T12:24:34Z</time>
   </trkpt>
   <trkpt lat="45.4027530" lon="6.5843030">
    <ele>1789.5</ele>
    <time>2025-02-01T12:24:35Z</time>
   </trkpt>
   <trkpt lat="45.4028320" lon="6.5842450">
    <ele>1788.4</ele>
    <time>2025-02-01T12:24:36Z</time>
   </trkpt>
   <trkpt lat="45.4029140" lon="6.5841850">
    <ele>1787.1</ele>
    <time>2025-02-01T12:24:37Z</time>
   </trkpt>
   <trkpt lat="45.4029920" lon="6.5841040">
    <ele>1785.7</ele>
    <time>2025-02-01T12:24:38Z</time>
   </trkpt>
   <trkpt lat="45.4030810" lon="6.5840340">
    <ele>1784.3</ele>
    <time>2025-02-01T12:24:39Z</time>
   </trkpt>
   <trkpt lat="45.4031760" lon="6.5839930">
    <ele>1782.9</ele>
    <time>2025-02-01T12:24:40Z</time>
   </trkpt>
   <trkpt lat="45.4032630" lon="6.5839250">
    <ele>1781.6</ele>
    <time>2025-02-01T12:24:41Z</time>
   </trkpt>
   <trkpt lat="45.4033590" lon="6.5838800">
    <ele>1780.4</ele>
    <time>2025-02-01T12:24:42Z</time>
   </trkpt>
   <trkpt lat="45.4034360" lon="6.5838220">
    <ele>1779.3</ele>
    <time>2025-02-01T12:24:43Z</time>
   </trkpt>
   <trkpt lat="45.4035160" lon="6.5837470">
    <ele>1778.0</ele>
    <time>2025-02-01T12:24:44Z</time>
   </trkpt>
   <trkpt lat="45.4036000" lon="6.5836820">
    <ele>1776.5</ele>
    <time>2025-02-01T12:24:45Z</time>
   </trkpt>
   <trkpt lat="45.4036920" lon="6.5836430">
    <ele>1774.9</ele>
    <time>2025-02-01T12:24:46Z</time>
   </trkpt>
   <trkpt lat="45.4037830" lon="6.5835790">
    <ele>1773.1</ele>
    <time>2025-02-01T12:24:47Z</time>
   </trkpt>
   <trkpt lat="45.4038760" lon="6.5835140">
    <ele>1771.3</ele>
    <time>2025-02-01T12:24:48Z</time>
   </trkpt>
   <trkpt lat="45.4039670" lon="6.5834360">
    <ele>1769.3</ele>
    <time>2025-02-01T12:24:49Z</time>
   </trkpt>
   <trkpt lat="45.4040450" lon="6.5833310">
    <ele>1767.3</ele>
    <time>2025-02-01T12:24:50Z</time>
   </trkpt>
   <trkpt lat="45.4041330" lon="6.5832450">
    <ele>1765.4</ele>
    <time>2025-02-01T12:24:51Z</time>
   </trkpt>
   <trkpt lat="45.4042130" lon="6.5831540">
    <ele>1763.6</ele>
    <time>2025-02-01T12:24:52Z</time>
   </trkpt>
   <trkpt lat="45.4042850" lon="6.5830690">
    <ele>1762.0</ele>
    <time>2025-02-01T12:24:53Z</time>
   </trkpt>
   <trkpt lat="45.4043640" lon="6.5829790">
    <ele>1760.4</ele>
    <time>2025-02-01T12:24:54Z</time>
   </trkpt>
   <trkpt lat="45.4044550" lon="6.5828890">
    <ele>1758.6</ele>
    <time>2025-02-01T12:24:55Z</time>
   </trkpt>
   <trkpt lat="45.4045350" lon="6.5828020">
    <ele>1757.0</ele>
    <time>2025-02-01T12:24:56Z</time>
   </trkpt>
   <trkpt lat="45.4046230" lon="6.5826930">
    <ele>1755.9</ele>
    <time>2025-02-01T12:24:57Z</time>
   </trkpt>
   <trkpt lat="45.4046820" lon="6.5825610">
    <ele>1754.7</ele>
    <time>2025-02-01T12:24:58Z</time>
   </trkpt>
   <trkpt lat="45.4047440" lon="6.5824340">
    <ele>1753.4</ele>
    <time>2025-02-01T12:24:59Z</time>
   </trkpt>
   <trkpt lat="45.4048090" lon="6.5823060">
    <ele>1752.1</ele>
    <time>2025-02-01T12:25:00Z</time>
   </trkpt>
   <trkpt lat="45.4048630" lon="6.5821640">
    <ele>1750.8</ele>
    <time>2025-02-01T12:25:01Z</time>
   </trkpt>
   <trkpt lat="45.4049010" lon="6.5820280">
    <ele>1749.6</ele>
    <time>2025-02-01T12:25:02Z</time>
   </trkpt>
   <trkpt lat="45.4049390" lon="6.5818900">
    <ele>1748.4</ele>
    <time>2025-02-01T12:25:03Z</time>
   </trkpt>
   <trkpt lat="45.4049790" lon="6.5817580">
    <ele>1747.2</ele>
    <time>2025-02-01T12:25:04Z</time>
   </trkpt>
   <trkpt lat="45.4050200" lon="6.5816240">
    <ele>1746.2</ele>
    <time>2025-02-01T12:25:05Z</time>
   </trkpt>
   <trkpt lat="45.4050630" lon="6.5814800">
    <ele>1745.1</ele>
    <time>2025-02-01T12:25:06Z</time>
   </trkpt>
   <trkpt lat="45.4050670" lon="6.5813760">
    <ele>1744.4</ele>
    <time>2025-02-01T12:25:07Z</time>
   </trkpt>
   <trkpt lat="45.4050610" lon="6.5812600">
    <ele>1743.5</ele>
    <time>2025-02-01T12:25:08Z</time>
   </trkpt>
   <trkpt lat="45.4050440" lon="6.5811920">
    <ele>1743.0</ele>
    <time>2025-02-01T12:25:09Z</time>
   </trkpt>
   <trkpt lat="45.4050350" lon="6.5811940">
    <ele>1742.9</ele>
    <time>2025-02-01T12:25:10Z</time>
   </trkpt>
   <trkpt lat="45.4050360" lon="6.5811910">
    <ele>1742.8</ele>
    <time>2025-02-01T12:25:11Z</time>
   </trkpt>
   <trkpt lat="45.4050360" lon="6.5811880">
    <ele>1742.8</ele>
    <time>2025-02-01T12:25:12Z</time>
   </trkpt>
   <trkpt lat="45.4050370" lon="6.5811850">
    <ele>1742.8</ele>
    <time>2025-02-01T12:25:13Z</time>
   </trkpt>
   <trkpt lat="45.4050370" lon="6.5811820">
    <ele>1742.8</ele>
    <time>2025-02-01T12:25:14Z</time>
   </trkpt>
   <trkpt lat="45.4050380" lon="6.5811790">
    <ele>1742.7</ele>
    <time>2025-02-01T12:25:15Z</time>
   </trkpt>
   <trkpt lat="45.4050380" lon="6.5811760">
    <ele>1742.7</ele>
    <time>2025-02-01T12:25:16Z</time>
   </trkpt>
   <trkpt lat="45.4050380" lon="6.5811730">
    <ele>1742.7</ele>
    <time>2025-02-01T12:25:17Z</time>
   </trkpt>
   <trkpt lat="45.4050390" lon="6.5811700">
    <ele>1742.7</ele>
    <time>2025-02-01T12:25:18Z</time>
   </trkpt>
   <trkpt lat="45.4050390" lon="6.5811680">
    <ele>1742.6</ele>
    <time>2025-02-01T12:25:19Z</time>
   </trkpt>
   <trkpt lat="45.4050400" lon="6.5811650">
    <ele>1742.6</ele>
    <time>2025-02-01T12:25:20Z</time>
   </trkpt>
   <trkpt lat="45.4050400" lon="6.5811620">
    <ele>1742.6</ele>
    <time>2025-02-01T12:25:21Z</time>
   </trkpt>
   <trkpt lat="45.4050400" lon="6.5811590">
    <ele>1742.6</ele>
    <time>2025-02-01T12:25:22Z</time>
   </trkpt>
   <trkpt lat="45.4050410" lon="6.5811560">
    <ele>1742.5</ele>
    <time>2025-02-01T12:25:23Z</time>
   </trkpt>
   <trkpt lat="45.4050410" lon="6.5811530">
    <ele>1742.5</ele>
    <time>2025-02-01T12:25:24Z</time>
   </trkpt>
   <trkpt lat="45.4050420" lon="6.5811500">
    <ele>1742.5</ele>
    <time>2025-02-01T12:25:25Z</time>
   </trkpt>
   <trkpt lat="45.4050420" lon="6.5811470">
    <ele>1742.5</ele>
    <time>2025-02-01T12:25:26Z</time>
   </trkpt>
   <trkpt lat="45.4050430" lon="6.5811440">
    <ele>1742.4</ele>
    <time>2025-02-01T12:25:27Z</time>
   </trkpt>
   <trkpt lat="45.4050430" lon="6.5811410">
    <ele>1742.4</ele>
    <time>2025-02-01T12:25:28Z</time>
   </trkpt>
   <trkpt lat="45.4050500" lon="6.5810960">
    <ele>1742.0</ele>
    <time>2025-02-01T12:25:29Z</time>
   </trkpt>
   <trkpt lat="45.4050570" lon="6.5810280">
    <ele>1741.3</ele>
    <time>2025-02-01T12:25:30Z</time>
   </trkpt>
   <trkpt lat="45.4050680" lon="6.5809390">
    <ele>1740.3</ele>
    <time>2025-02-01T12:25:31Z</time>
   </trkpt>
   <trkpt lat="45.4050770" lon="6.5808440">
    <ele>1739.2</ele>
    <time>2025-02-01T12:25:32Z</time>
   </trkpt>
   <trkpt lat="45.4050860" lon="6.5807360">
    <ele>1737.8</ele>
    <time>2025-02-01T12:25:33Z</time>
   </trkpt>
   <trkpt lat="45.4050990" lon="6.5806250">
    <ele>1736.3</ele>
    <time>2025-02-01T12:25:34Z</time>
   </trkpt>
   <trkpt lat="45.4051220" lon="6.5805090">
    <ele>1734.7</ele>
    <time>2025-02-01T12:25:35Z</time>
   </trkpt>
   <trkpt lat="45.4051480" lon="6.5803840">
    <ele>1733.1</ele>
    <time>2025-02-01T12:25:36Z</time>
   </trkpt>
   <trkpt lat="45.4051720" lon="6.5802550">
    <ele>1731.4</ele>
    <time>2025-02-01T12:25:37Z</time>
   </trkpt>
   <trkpt lat="45.4051910" lon="6.5801220">
    <ele>1729.8</ele>
    <time>2025-02-01T12:25:38Z</time>
   </trkpt>
   <trkpt lat="45.4052020" lon="6.5799770">
    <ele>1728.2</ele>
    <time>2025-02-01T12:25:39Z</time>
   </trkpt>
   <trkpt lat="45.4052070" lon="6.5798240">
    <ele>1726.5</ele>
    <time>2025-02-01T12:25:40Z</time>
   </trkpt>
   <trkpt lat="45.4052330" lon="6.5796780">
    <ele>1725.0</ele>
    <time>2025-02-01T12:25:41Z</time>
   </trkpt>
   <trkpt lat="45.4052530" lon="6.5795320">
    <ele>1723.6</ele>
    <time>2025-02-01T12:25:42Z</time>
   </trkpt>
   <trkpt lat="45.4052410" lon="6.5793790">
    <ele>1722.3</ele>
    <time>2025-02-01T12:25:43Z</time>
   </trkpt>
   <trkpt lat="45.4052610" lon="6.5792320">
    <ele>1721.1</ele>
    <time>2025-02-01T12:25:44Z</time>
   </trkpt>
   <trkpt lat="45.4052970" lon="6.5790880">
    <ele>1719.8</ele>
    <time>2025-02-01T12:25:45Z</time>
   </trkpt>
   <trkpt lat="45.4053020" lon="6.5789530">
    <ele>1719.5</ele>
    <time>2025-02-01T12:25:46Z</time>
   </trkpt>
   <trkpt lat="45.4053130" lon="6.5788190">
    <ele>1719.7</ele>
    <time>2025-02-01T12:25:47Z</time>
   </trkpt>
   <trkpt lat="45.4053270" lon="6.5786960">
    <ele>1719.8</ele>
    <time>2025-02-01T12:25:48Z</time>
   </trkpt>
   <trkpt lat="45.4053390" lon="6.5785750">
    <ele>1719.9</ele>
    <time>2025-02-01T12:25:50Z</time>
   </trkpt>
   <trkpt lat="45.4053490" lon="6.5784370">
    <ele>1719.2</ele>
    <time>2025-02-01T12:25:51Z</time>
   </trkpt>
   <trkpt lat="45.4053620" lon="6.5783190">
    <ele>1718.1</ele>
    <time>2025-02-01T12:25:52Z</time>
   </trkpt>
   <trkpt lat="45.4053780" lon="6.5782160">
    <ele>1717.2</ele>
    <time>2025-02-01T12:25:53Z</time>
   </trkpt>
   <trkpt lat="45.4053910" lon="6.5781160">
    <ele>1716.3</ele>
    <time>2025-02-01T12:25:54Z</time>
   </trkpt>
   <trkpt lat="45.4054090" lon="6.5780190">
    <ele>1715.4</ele>
    <time>2025-02-01T12:25:55Z</time>
   </trkpt>
   <trkpt lat="45.4054220" lon="6.5779250">
    <ele>1714.9</ele>
    <time>2025-02-01T12:25:56Z</time>
   </trkpt>
   <trkpt lat="45.4054280" lon="6.5778330">
    <ele>1714.6</ele>
    <time>2025-02-01T12:25:57Z</time>
   </trkpt>
   <trkpt lat="45.4054540" lon="6.5777520">
    <ele>1714.3</ele>
    <time>2025-02-01T12:25:58Z</time>
   </trkpt>
   <trkpt lat="45.4055030" lon="6.5776710">
    <ele>1714.1</ele>
    <time>2025-02-01T12:25:59Z</time>
   </trkpt>
   <trkpt lat="45.4055520" lon="6.5776050">
    <ele>1714.0</ele>
    <time>2025-02-01T12:26:00Z</time>
   </trkpt>
   <trkpt lat="45.4055900" lon="6.5775430">
    <ele>1713.9</ele>
    <time>2025-02-01T12:26:01Z</time>
   </trkpt>
   <trkpt lat="45.4056220" lon="6.5774790">
    <ele>1713.8</ele>
    <time>2025-02-01T12:26:02Z</time>
   </trkpt>
   <trkpt lat="45.4056510" lon="6.5774200">
    <ele>1713.8</ele>
    <time>2025-02-01T12:26:03Z</time>
   </trkpt>
   <trkpt lat="45.4056750" lon="6.5773660">
    <ele>1713.7</ele>
    <time>2025-02-01T12:26:04Z</time>
   </trkpt>
   <trkpt lat="45.4057000" lon="6.5773190">
    <ele>1713.6</ele>
    <time>2025-02-01T12:26:05Z</time>
   </trkpt>
   <trkpt lat="45.4057250" lon="6.5772740">
    <ele>1713.6</ele>
    <time>2025-02-01T12:26:06Z</time>
   </trkpt>
   <trkpt lat="45.4057460" lon="6.5772310">
    <ele>1713.5</ele>
    <time>2025-02-01T12:26:07Z</time>
   </trkpt>
   <trkpt lat="45.4057630" lon="6.5771870">
    <ele>1713.4</ele>
    <time>2025-02-01T12:26:08Z</time>
   </trkpt>
   <trkpt lat="45.4057810" lon="6.5771470">
    <ele>1713.2</ele>
    <time>2025-02-01T12:26:09Z</time>
   </trkpt>
   <trkpt lat="45.4057990" lon="6.5771030">
    <ele>1712.9</ele>
    <time>2025-02-01T12:26:10Z</time>
   </trkpt>
   <trkpt lat="45.4058180" lon="6.5770610">
    <ele>1712.6</ele>
    <time>2025-02-01T12:26:11Z</time>
   </trkpt>
   <trkpt lat="45.4058420" lon="6.5770210">
    <ele>1712.3</ele>
    <time>2025-02-01T12:26:12Z</time>
   </trkpt>
   <trkpt lat="45.4058820" lon="6.5769720">
    <ele>1711.7</ele>
    <time>2025-02-01T12:26:13Z</time>
   </trkpt>
   <trkpt lat="45.4059410" lon="6.5769260">
    <ele>1710.8</ele>
    <time>2025-02-01T12:26:14Z</time>
   </trkpt>
   <trkpt lat="45.4060110" lon="6.5768760">
    <ele>1709.7</ele>
    <time>2025-02-01T12:26:15Z</time>
   </trkpt>
   <trkpt lat="45.4060720" lon="6.5768460">
    <ele>1708.7</ele>
    <time>2025-02-01T12:26:16Z</time>
   </trkpt>
   <trkpt lat="45.4061280" lon="6.5768120">
    <ele>1707.9</ele>
    <time>2025-02-01T12:26:17Z</time>
   </trkpt>
   <trkpt lat="45.4061800" lon="6.5767810">
    <ele>1707.3</ele>
    <time>2025-02-01T12:26:18Z</time>
   </trkpt>
   <trkpt lat="45.4062380" lon="6.5767470">
    <ele>1706.7</ele>
    <time>2025-02-01T12:26:19Z</time>
   </trkpt>
   <trkpt lat="45.4063010" lon="6.5767000">
    <ele>1705.9</ele>
    <time>2025-02-01T12:26:20Z</time>
   </trkpt>
   <trkpt lat="45.4063630" lon="6.5766490">
    <ele>1705.2</ele>
    <time>2025-02-01T12:26:21Z</time>
   </trkpt>
   <trkpt lat="45.4064200" lon="6.5765940">
    <ele>1704.4</ele>
    <time>2025-02-01T12:26:22Z</time>
   </trkpt>
   <trkpt lat="45.4064740" lon="6.5765330">
    <ele>1703.6</ele>
    <time>2025-02-01T12:26:23Z</time>
   </trkpt>
   <trkpt lat="45.4065270" lon="6.5764730">
    <ele>1702.7</ele>
    <time>2025-02-01T12:26:24Z</time>
   </trkpt>
   <trkpt lat="45.4065760" lon="6.5764010">
    <ele>1701.8</ele>
    <time>2025-02-01T12:26:25Z</time>
   </trkpt>
   <trkpt lat="45.4066330" lon="6.5763170">
    <ele>1700.6</ele>
    <time>2025-02-01T12:26:26Z</time>
   </trkpt>
   <trkpt lat="45.4066890" lon="6.5762430">
    <ele>1699.5</ele>
    <time>2025-02-01T12:26:27Z</time>
   </trkpt>
   <trkpt lat="45.4067540" lon="6.5761620">
    <ele>1698.2</ele>
    <time>2025-02-01T12:26:28Z</time>
   </trkpt>
   <trkpt lat="45.4068040" lon="6.5760820">
    <ele>1697.0</ele>
    <time>2025-02-01T12:26:29Z</time>
   </trkpt>
   <trkpt lat="45.4068580" lon="6.5759990">
    <ele>1695.7</ele>
    <time>2025-02-01T12:26:30Z</time>
   </trkpt>
   <trkpt lat="45.4069290" lon="6.5759120">
    <ele>1694.1</ele>
    <time>2025-02-01T12:26:31Z</time>
   </trkpt>
   <trkpt lat="45.4070030" lon="6.5758120">
    <ele>1692.1</ele>
    <time>2025-02-01T12:26:32Z</time>
   </trkpt>
   <trkpt lat="45.4070750" lon="6.5757080">
    <ele>1690.2</ele>
    <time>2025-02-01T12:26:33Z</time>
   </trkpt>
   <trkpt lat="45.4071440" lon="6.5755980">
    <ele>1689.1</ele>
    <time>2025-02-01T12:26:34Z</time>
   </trkpt>
   <trkpt lat="45.4072030" lon="6.5755040">
    <ele>1689.4</ele>
    <time>2025-02-01T12:26:35Z</time>
   </trkpt>
   <trkpt lat="45.4072590" lon="6.5754150">
    <ele>1689.6</ele>
    <time>2025-02-01T12:26:36Z</time>
   </trkpt>
   <trkpt lat="45.4073030" lon="6.5753370">
    <ele>1689.8</ele>
    <time>2025-02-01T12:26:37Z</time>
   </trkpt>
   <trkpt lat="45.4073520" lon="6.5752560">
    <ele>1689.7</ele>
    <time>2025-02-01T12:26:38Z</time>
   </trkpt>
   <trkpt lat="45.4074010" lon="6.5751680">
    <ele>1688.2</ele>
    <time>2025-02-01T12:26:39Z</time>
   </trkpt>
   <trkpt lat="45.4074480" lon="6.5750610">
    <ele>1686.2</ele>
    <time>2025-02-01T12:26:40Z</time>
   </trkpt>
   <trkpt lat="45.4074850" lon="6.5749450">
    <ele>1684.0</ele>
    <time>2025-02-01T12:26:41Z</time>
   </trkpt>
   <trkpt lat="45.4075100" lon="6.5748350">
    <ele>1682.0</ele>
    <time>2025-02-01T12:26:42Z</time>
   </trkpt>
   <trkpt lat="45.4075130" lon="6.5746970">
    <ele>1680.1</ele>
    <time>2025-02-01T12:26:43Z</time>
   </trkpt>
   <trkpt lat="45.4074920" lon="6.5745630">
    <ele>1678.5</ele>
    <time>2025-02-01T12:26:44Z</time>
   </trkpt>
   <trkpt lat="45.4074550" lon="6.5744400">
    <ele>1676.9</ele>
    <time>2025-02-01T12:26:45Z</time>
   </trkpt>
   <trkpt lat="45.4074110" lon="6.5743150">
    <ele>1675.1</ele>
    <time>2025-02-01T12:26:46Z</time>
   </trkpt>
   <trkpt lat="45.4073890" lon="6.5741820">
    <ele>1673.3</ele>
    <time>2025-02-01T12:26:47Z</time>
   </trkpt>
   <trkpt lat="45.4073530" lon="6.5740210">
    <ele>1671.1</ele>
    <time>2025-02-01T12:26:48Z</time>
   </trkpt>
   <trkpt lat="45.4072740" lon="6.5738980">
    <ele>1669.0</ele>
    <time>2025-02-01T12:26:49Z</time>
   </trkpt>
   <trkpt lat="45.4071750" lon="6.5738090">
    <ele>1666.9</ele>
    <time>2025-02-01T12:26:50Z</time>
   </trkpt>
   <trkpt lat="45.4070730" lon="6.5737320">
    <ele>1665.1</ele>
    <time>2025-02-01T12:26:51Z</time>
   </trkpt>
   <trkpt lat="45.4069880" lon="6.5736390">
    <ele>1663.8</ele>
    <time>2025-02-01T12:26:52Z</time>
   </trkpt>
   <trkpt lat="45.4069180" lon="6.5735700">
    <ele>1662.9</ele>
    <time>2025-02-01T12:26:53Z</time>
   </trkpt>
   <trkpt lat="45.4068360" lon="6.5735350">
    <ele>1662.0</ele>
    <time>2025-02-01T12:26:54Z</time>
   </trkpt>
   <trkpt lat="45.4067650" lon="6.5734830">
    <ele>1661.3</ele>
    <time>2025-02-01T12:26:55Z</time>
   </trkpt>
   <trkpt lat="45.4066710" lon="6.5734430">
    <ele>1660.4</ele>
    <time>2025-02-01T12:26:56Z</time>
   </trkpt>
   <trkpt lat="45.4065740" lon="6.5734640">
    <ele>1659.4</ele>
    <time>2025-02-01T12:26:57Z</time>
   </trkpt>
   <trkpt lat="45.4064880" lon="6.5734170">
    <ele>1658.6</ele>
    <time>2025-02-01T12:26:58Z</time>
   </trkpt>
   <trkpt lat="45.4063990" lon="6.5733970">
    <ele>1657.8</ele>
    <time>2025-02-01T12:26:59Z</time>
   </trkpt>
   <trkpt lat="45.4063160" lon="6.5733070">
    <ele>1656.8</ele>
    <time>2025-02-01T12:27:00Z</time>
   </trkpt>
   <trkpt lat="45.4062740" lon="6.5732240">
    <ele>1655.9</ele>
    <time>2025-02-01T12:27:01Z</time>
   </trkpt>
   <trkpt lat="45.4062650" lon="6.5731340">
    <ele>1655.0</ele>
    <time>2025-02-01T12:27:02Z</time>
   </trkpt>
   <trkpt lat="45.4062890" lon="6.5730280">
    <ele>1653.6</ele>
    <time>2025-02-01T12:27:03Z</time>
   </trkpt>
   <trkpt lat="45.4063450" lon="6.5729200">
    <ele>1651.6</ele>
    <time>2025-02-01T12:27:04Z</time>
   </trkpt>
   <trkpt lat="45.4064260" lon="6.5728230">
    <ele>1647.6</ele>
    <time>2025-02-01T12:27:05Z</time>
   </trkpt>
   <trkpt lat="45.4065100" lon="6.5727270">
    <ele>1643.8</ele>
    <time>2025-02-01T12:27:06Z</time>
   </trkpt>
   <trkpt lat="45.4065970" lon="6.5726310">
    <ele>1640.7</ele>
    <time>2025-02-01T12:27:07Z</time>
   </trkpt>
   <trkpt lat="45.4066870" lon="6.5725420">
    <ele>1638.9</ele>
    <time>2025-02-01T12:27:08Z</time>
   </trkpt>
   <trkpt lat="45.4067810" lon="6.5724630">
    <ele>1637.5</ele>
    <time>2025-02-01T12:27:09Z</time>
   </trkpt>
   <trkpt lat="45.4068760" lon="6.5723780">
    <ele>1636.1</ele>
    <time>2025-02-01T12:27:10Z</time>
   </trkpt>
   <trkpt lat="45.4069750" lon="6.5723470">
    <ele>1635.1</ele>
    <time>2025-02-01T12:27:11Z</time>
   </trkpt>
   <trkpt lat="45.4070710" lon="6.5723370">
    <ele>1634.2</ele>
    <time>2025-02-01T12:27:12Z</time>
   </trkpt>
   <trkpt lat="45.4071670" lon="6.5723350">
    <ele>1633.4</ele>
    <time>2025-02-01T12:27:13Z</time>
   </trkpt>
   <trkpt lat="45.4072590" lon="6.5723210">
    <ele>1632.6</ele>
    <time>2025-02-01T12:27:14Z</time>
   </trkpt>
   <trkpt lat="45.4073460" lon="6.5723230">
    <ele>1631.8</ele>
    <time>2025-02-01T12:27:15Z</time>
   </trkpt>
   <trkpt lat="45.4074290" lon="6.5723290">
    <ele>1631.0</ele>
    <time>2025-02-01T12:27:16Z</time>
   </trkpt>
   <trkpt lat="45.4075180" lon="6.5722920">
    <ele>1630.0</ele>
    <time>2025-02-01T12:27:17Z</time>
   </trkpt>
   <trkpt lat="45.4075840" lon="6.5722800">
    <ele>1629.2</ele>
    <time>2025-02-01T12:27:18Z</time>
   </trkpt>
   <trkpt lat="45.4076600" lon="6.5722930">
    <ele>1628.4</ele>
    <time>2025-02-01T12:27:19Z</time>
   </trkpt>
   <trkpt lat="45.4077420" lon="6.5722930">
    <ele>1627.4</ele>
    <time>2025-02-01T12:27:20Z</time>
   </trkpt>
   <trkpt lat="45.4078230" lon="6.5722660">
    <ele>1626.5</ele>
    <time>2025-02-01T12:27:21Z</time>
   </trkpt>
   <trkpt lat="45.4079120" lon="6.5722360">
    <ele>1625.4</ele>
    <time>2025-02-01T12:27:22Z</time>
   </trkpt>
   <trkpt lat="45.4079900" lon="6.5722100">
    <ele>1624.4</ele>
    <time>2025-02-01T12:27:23Z</time>
   </trkpt>
   <trkpt lat="45.4080570" lon="6.5721890">
    <ele>1623.5</ele>
    <time>2025-02-01T12:27:24Z</time>
   </trkpt>
   <trkpt lat="45.4081310" lon="6.5721660">
    <ele>1622.5</ele>
    <time>2025-02-01T12:27:25Z</time>
   </trkpt>
   <trkpt lat="45.4082330" lon="6.5721500">
    <ele>1621.1</ele>
    <time>2025-02-01T12:27:26Z</time>
   </trkpt>
   <trkpt lat="45.4083030" lon="6.5721290">
    <ele>1620.1</ele>
    <time>2025-02-01T12:27:27Z</time>
   </trkpt>
   <trkpt lat="45.4083860" lon="6.5721070">
    <ele>1619.0</ele>
    <time>2025-02-01T12:27:28Z</time>
   </trkpt>
   <trkpt lat="45.4084830" lon="6.5720830">
    <ele>1617.7</ele>
    <time>2025-02-01T12:27:29Z</time>
   </trkpt>
   <trkpt lat="45.4085670" lon="6.5720600">
    <ele>1616.6</ele>
    <time>2025-02-01T12:27:30Z</time>
   </trkpt>
   <trkpt lat="45.4086530" lon="6.5720370">
    <ele>1615.5</ele>
    <time>2025-02-01T12:27:31Z</time>
   </trkpt>
   <trkpt lat="45.4087490" lon="6.5720180">
    <ele>1614.4</ele>
    <time>2025-02-01T12:27:32Z</time>
   </trkpt>
   <trkpt lat="45.4088390" lon="6.5719910">
    <ele>1613.3</ele>
    <time>2025-02-01T12:27:33Z</time>
   </trkpt>
   <trkpt lat="45.4090150" lon="6.5719460">
    <ele>1611.2</ele>
    <time>2025-02-01T12:27:34Z</time>
   </trkpt>
   <trkpt lat="45.4091060" lon="6.5719280">
    <ele>1609.9</ele>
    <time>2025-02-01T12:27:35Z</time>
   </trkpt>
   <trkpt lat="45.4092030" lon="6.5719210">
    <ele>1608.5</ele>
    <time>2025-02-01T12:27:36Z</time>
   </trkpt>
   <trkpt lat="45.4093010" lon="6.5719150">
    <ele>1606.9</ele>
    <time>2025-02-01T12:27:37Z</time>
   </trkpt>
   <trkpt lat="45.4093970" lon="6.5718720">
    <ele>1605.3</ele>
    <time>2025-02-01T12:27:38Z</time>
   </trkpt>
   <trkpt lat="45.4094980" lon="6.5718390">
    <ele>1603.7</ele>
    <time>2025-02-01T12:27:39Z</time>
   </trkpt>
   <trkpt lat="45.4095920" lon="6.5717990">
    <ele>1602.2</ele>
    <time>2025-02-01T12:27:40Z</time>
   </trkpt>
   <trkpt lat="45.4097040" lon="6.5717480">
    <ele>1600.5</ele>
    <time>2025-02-01T12:27:41Z</time>
   </trkpt>
   <trkpt lat="45.4098070" lon="6.5717170">
    <ele>1599.2</ele>
    <time>2025-02-01T12:27:42Z</time>
   </trkpt>
   <trkpt lat="45.4099140" lon="6.5717100">
    <ele>1598.0</ele>
    <time>2025-02-01T12:27:43Z</time>
   </trkpt>
   <trkpt lat="45.4100150" lon="6.5716410">
    <ele>1596.4</ele>
    <time>2025-02-01T12:27:44Z</time>
   </trkpt>
   <trkpt lat="45.4100860" lon="6.5715230">
    <ele>1594.6</ele>
    <time>2025-02-01T12:27:45Z</time>
   </trkpt>
   <trkpt lat="45.4101320" lon="6.5713930">
    <ele>1592.6</ele>
    <time>2025-02-01T12:27:46Z</time>
   </trkpt>
   <trkpt lat="45.4102170" lon="6.5712690">
    <ele>1590.1</ele>
    <time>2025-02-01T12:27:47Z</time>
   </trkpt>
   <trkpt lat="45.4103140" lon="6.5711660">
    <ele>1587.3</ele>
    <time>2025-02-01T12:27:48Z</time>
   </trkpt>
   <trkpt lat="45.4103750" lon="6.5710200">
    <ele>1584.5</ele>
    <time>2025-02-01T12:27:49Z</time>
   </trkpt>
   <trkpt lat="45.4104430" lon="6.5708550">
    <ele>1581.6</ele>
    <time>2025-02-01T12:27:50Z</time>
   </trkpt>
   <trkpt lat="45.4105430" lon="6.5707240">
    <ele>1579.0</ele>
    <time>2025-02-01T12:27:52Z</time>
   </trkpt>
   <trkpt lat="45.4106110" lon="6.5705740">
    <ele>1576.9</ele>
    <time>2025-02-01T12:27:53Z</time>
   </trkpt>
   <trkpt lat="45.4106800" lon="6.5704220">
    <ele>1575.0</ele>
    <time>2025-02-01T12:27:54Z</time>
   </trkpt>
   <trkpt lat="45.4107750" lon="6.5702960">
    <ele>1572.9</ele>
    <time>2025-02-01T12:27:55Z</time>
   </trkpt>
   <trkpt lat="45.4108460" lon="6.5701660">
    <ele>1570.5</ele>
    <time>2025-02-01T12:27:56Z</time>
   </trkpt>
   <trkpt lat="45.4108920" lon="6.5700010">
    <ele>1567.4</ele>
    <time>2025-02-01T12:27:57Z</time>
   </trkpt>
   <trkpt lat="45.4109590" lon="6.5698250">
    <ele>1563.6</ele>
    <time>2025-02-01T12:27:58Z</time>
   </trkpt>
   <trkpt lat="45.4110260" lon="6.5696180">
    <ele>1558.8</ele>
    <time>2025-02-01T12:27:59Z</time>
   </trkpt>
   <trkpt lat="45.4111150" lon="6.5694070">
    <ele>1553.7</ele>
    <time>2025-02-01T12:28:00Z</time>
   </trkpt>
   <trkpt lat="45.4112090" lon="6.5692250">
    <ele>1548.2</ele>
    <time>2025-02-01T12:28:01Z</time>
   </trkpt>
   <trkpt lat="45.4113160" lon="6.5690340">
    <ele>1541.7</ele>
    <time>2025-02-01T12:28:02Z</time>
   </trkpt>
   <trkpt lat="45.4114560" lon="6.5688560">
    <ele>1535.0</ele>
    <time>2025-02-01T12:28:03Z</time>
   </trkpt>
   <trkpt lat="45.4116290" lon="6.5687130">
    <ele>1528.9</ele>
    <time>2025-02-01T12:28:04Z</time>
   </trkpt>
   <trkpt lat="45.4117960" lon="6.5685810">
    <ele>1523.9</ele>
    <time>2025-02-01T12:28:05Z</time>
   </trkpt>
   <trkpt lat="45.4119780" lon="6.5685110">
    <ele>1519.9</ele>
    <time>2025-02-01T12:28:06Z</time>
   </trkpt>
   <trkpt lat="45.4121590" lon="6.5684900">
    <ele>1516.6</ele>
    <time>2025-02-01T12:28:07Z</time>
   </trkpt>
   <trkpt lat="45.4123210" lon="6.5684410">
    <ele>1513.9</ele>
    <time>2025-02-01T12:28:08Z</time>
   </trkpt>
   <trkpt lat="45.4124920" lon="6.5683910">
    <ele>1511.4</ele>
    <time>2025-02-01T12:28:09Z</time>
   </trkpt>
   <trkpt lat="45.4126590" lon="6.5683510">
    <ele>1509.3</ele>
    <time>2025-02-01T12:28:10Z</time>
   </trkpt>
   <trkpt lat="45.4128360" lon="6.5683800">
    <ele>1507.4</ele>
    <time>2025-02-01T12:28:11Z</time>
   </trkpt>
   <trkpt lat="45.4130010" lon="6.5683790">
    <ele>1505.2</ele>
    <time>2025-02-01T12:28:12Z</time>
   </trkpt>
   <trkpt lat="45.4131830" lon="6.5683110">
    <ele>1501.9</ele>
    <time>2025-02-01T12:28:13Z</time>
   </trkpt>
   <trkpt lat="45.4133510" lon="6.5682140">
    <ele>1498.0</ele>
    <time>2025-02-01T12:28:14Z</time>
   </trkpt>
   <trkpt lat="45.4135140" lon="6.5681190">
    <ele>1493.9</ele>
    <time>2025-02-01T12:28:15Z</time>
   </trkpt>
   <trkpt lat="45.4136690" lon="6.5679610">
    <ele>1489.1</ele>
    <time>2025-02-01T12:28:16Z</time>
   </trkpt>
   <trkpt lat="45.4138360" lon="6.5678360">
    <ele>1484.3</ele>
    <time>2025-02-01T12:28:17Z</time>
   </trkpt>
   <trkpt lat="45.4140040" lon="6.5677020">
    <ele>1479.2</ele>
    <time>2025-02-01T12:28:18Z</time>
   </trkpt>
   <trkpt lat="45.4141610" lon="6.5675570">
    <ele>1474.5</ele>
    <time>2025-02-01T12:28:19Z</time>
   </trkpt>
   <trkpt lat="45.4143160" lon="6.5674520">
    <ele>1471.0</ele>
    <time>2025-02-01T12:28:20Z</time>
   </trkpt>
   <trkpt lat="45.4144450" lon="6.5673090">
    <ele>1467.9</ele>
    <time>2025-02-01T12:28:21Z</time>
   </trkpt>
   <trkpt lat="45.4145680" lon="6.5671980">
    <ele>1465.3</ele>
    <time>2025-02-01T12:28:22Z</time>
   </trkpt>
   <trkpt lat="45.4146960" lon="6.5670830">
    <ele>1462.6</ele>
    <time>2025-02-01T12:28:23Z</time>
   </trkpt>
   <trkpt lat="45.4148080" lon="6.5669410">
    <ele>1459.4</ele>
    <time>2025-02-01T12:28:24Z</time>
   </trkpt>
   <trkpt lat="45.4149440" lon="6.5667900">
    <ele>1455.1</ele>
    <time>2025-02-01T12:28:25Z</time>
   </trkpt>
   <trkpt lat="45.4150630" lon="6.5666160">
    <ele>1450.4</ele>
    <time>2025-02-01T12:28:26Z</time>
   </trkpt>
   <trkpt lat="45.4151440" lon="6.5664010">
    <ele>1445.6</ele>
    <time>2025-02-01T12:28:27Z</time>
   </trkpt>
   <trkpt lat="45.4151920" lon="6.5661880">
    <ele>1441.2</ele>
    <time>2025-02-01T12:28:28Z</time>
   </trkpt>
   <trkpt lat="45.4152660" lon="6.5660370">
    <ele>1437.8</ele>
    <time>2025-02-01T12:28:29Z</time>
   </trkpt>
   <trkpt lat="45.4153600" lon="6.5659620">
    <ele>1435.2</ele>
    <time>2025-02-01T12:28:30Z</time>
   </trkpt>
   <trkpt lat="45.4154290" lon="6.5658370">
    <ele>1432.5</ele>
    <time>2025-02-01T12:28:31Z</time>
   </trkpt>
   <trkpt lat="45.4154620" lon="6.5657270">
    <ele>1430.6</ele>
    <time>2025-02-01T12:28:32Z</time>
   </trkpt>
   <trkpt lat="45.4154580" lon="6.5656610">
    <ele>1429.5</ele>
    <time>2025-02-01T12:28:33Z</time>
   </trkpt>
   <trkpt lat="45.4154500" lon="6.5656130">
    <ele>1428.7</ele>
    <time>2025-02-01T12:28:34Z</time>
   </trkpt>
   <trkpt lat="45.4154530" lon="6.5655710">
    <ele>1428.0</ele>
    <time>2025-02-01T12:28:35Z</time>
   </trkpt>
   <trkpt lat="45.4154430" lon="6.5655570">
    <ele>1427.7</ele>
    <time>2025-02-01T12:28:36Z</time>
   </trkpt>
   <trkpt lat="45.4154490" lon="6.5655640">
    <ele>1427.5</ele>
    <time>2025-02-01T12:28:37Z</time>
   </trkpt>
   <trkpt lat="45.4154560" lon="6.5655710">
    <ele>1427.3</ele>
    <time>2025-02-01T12:28:38Z</time>
   </trkpt>
   <trkpt lat="45.4154630" lon="6.5655630">
    <ele>1427.1</ele>
    <time>2025-02-01T12:28:39Z</time>
   </trkpt>
   <trkpt lat="45.4154650" lon="6.5655510">
    <ele>1426.9</ele>
    <time>2025-02-01T12:28:40Z</time>
   </trkpt>
   <trkpt lat="45.4154680" lon="6.5655390">
    <ele>1426.7</ele>
    <time>2025-02-01T12:28:41Z</time>
   </trkpt>
   <trkpt lat="45.4154680" lon="6.5655280">
    <ele>1426.5</ele>
    <time>2025-02-01T12:28:42Z</time>
   </trkpt>
   <trkpt lat="45.4154680" lon="6.5655190">
    <ele>1426.4</ele>
    <time>2025-02-01T12:28:43Z</time>
   </trkpt>
   <trkpt lat="45.4154680" lon="6.5655120">
    <ele>1426.3</ele>
    <time>2025-02-01T12:28:44Z</time>
   </trkpt>
   <trkpt lat="45.4154700" lon="6.5655070">
    <ele>1426.2</ele>
    <time>2025-02-01T12:28:45Z</time>
   </trkpt>
   <trkpt lat="45.4154720" lon="6.5654990">
    <ele>1426.0</ele>
    <time>2025-02-01T12:28:46Z</time>
   </trkpt>
   <trkpt lat="45.4154730" lon="6.5654910">
    <ele>1425.9</ele>
    <time>2025-02-01T12:28:47Z</time>
   </trkpt>
   <trkpt lat="45.4154750" lon="6.5654920">
    <ele>1425.9</ele>
    <time>2025-02-01T12:28:48Z</time>
   </trkpt>
   <trkpt lat="45.4154800" lon="6.5654860">
    <ele>1425.7</ele>
    <time>2025-02-01T12:28:49Z</time>
   </trkpt>
   <trkpt lat="45.4154790" lon="6.5654810">
    <ele>1425.7</ele>
    <time>2025-02-01T12:28:50Z</time>
   </trkpt>
   <trkpt lat="45.4154800" lon="6.5654730">
    <ele>1425.5</ele>
    <time>2025-02-01T12:28:51Z</time>
   </trkpt>
   <trkpt lat="45.4154810" lon="6.5654680">
    <ele>1425.5</ele>
    <time>2025-02-01T12:28:52Z</time>
   </trkpt>
   <trkpt lat="45.4154790" lon="6.5654640">
    <ele>1425.4</ele>
    <time>2025-02-01T12:28:53Z</time>
   </trkpt>
   <trkpt lat="45.4154780" lon="6.5654590">
    <ele>1425.3</ele>
    <time>2025-02-01T12:28:54Z</time>
   </trkpt>
   <trkpt lat="45.4154730" lon="6.5654390">
    <ele>1425.0</ele>
    <time>2025-02-01T12:28:55Z</time>
   </trkpt>
   <trkpt lat="45.4154640" lon="6.5654280">
    <ele>1424.7</ele>
    <time>2025-02-01T12:28:56Z</time>
   </trkpt>
   <trkpt lat="45.4154600" lon="6.5654320">
    <ele>1424.6</ele>
    <time>2025-02-01T12:28:57Z</time>
   </trkpt>
   <trkpt lat="45.4154600" lon="6.5654330">
    <ele>1424.6</ele>
    <time>2025-02-01T12:28:58Z</time>
   </trkpt>
   <trkpt lat="45.4154590" lon="6.5654310">
    <ele>1424.6</ele>
    <time>2025-02-01T12:28:59Z</time>
   </trkpt>
   <trkpt lat="45.4154570" lon="6.5654320">
    <ele>1424.5</ele>
    <time>2025-02-01T12:29:00Z</time>
   </trkpt>
   <trkpt lat="45.4154590" lon="6.5654330">
    <ele>1424.5</ele>
    <time>2025-02-01T12:29:01Z</time>
   </trkpt>
   <trkpt lat="45.4154530" lon="6.5654260">
    <ele>1424.3</ele>
    <time>2025-02-01T12:29:02Z</time>
   </trkpt>
   <trkpt lat="45.4154590" lon="6.5654250">
    <ele>1424.2</ele>
    <time>2025-02-01T12:29:03Z</time>
   </trkpt>
   <trkpt lat="45.4154610" lon="6.5654280">
    <ele>1424.1</ele>
    <time>2025-02-01T12:29:04Z</time>
   </trkpt>
   <trkpt lat="45.4154590" lon="6.5654300">
    <ele>1424.1</ele>
    <time>2025-02-01T12:29:05Z</time>
   </trkpt>
   <trkpt lat="45.4154640" lon="6.5654370">
    <ele>1423.9</ele>
    <time>2025-02-01T12:29:06Z</time>
   </trkpt>
   <trkpt lat="45.4154670" lon="6.5654400">
    <ele>1423.9</ele>
    <time>2025-02-01T12:29:07Z</time>
   </trkpt>
   <trkpt lat="45.4154640" lon="6.5654390">
    <ele>1423.8</ele>
    <time>2025-02-01T12:29:08Z</time>
   </trkpt>
   <trkpt lat="45.4154640" lon="6.5654380">
    <ele>1423.8</ele>
    <time>2025-02-01T12:29:09Z</time>
   </trkpt>
   <trkpt lat="45.4154690" lon="6.5654420">
    <ele>1423.7</ele>
    <time>2025-02-01T12:29:10Z</time>
   </trkpt>
   <trkpt lat="45.4154700" lon="6.5654450">
    <ele>1423.6</ele>
    <time>2025-02-01T12:29:11Z</time>
   </trkpt>
   <trkpt lat="45.4154730" lon="6.5654510">
    <ele>1423.5</ele>
    <time>2025-02-01T12:29:12Z</time>
   </trkpt>
   <trkpt lat="45.4154730" lon="6.5654490">
    <ele>1423.5</ele>
    <time>2025-02-01T12:29:13Z</time>
   </trkpt>
   <trkpt lat="45.4154570" lon="6.5654360">
    <ele>1423.1</ele>
    <time>2025-02-01T12:29:14Z</time>
   </trkpt>
   <trkpt lat="45.4154580" lon="6.5654330">
    <ele>1423.1</ele>
    <time>2025-02-01T12:29:15Z</time>
   </trkpt>
   <trkpt lat="45.4154720" lon="6.5654420">
    <ele>1422.8</ele>
    <time>2025-02-01T12:29:16Z</time>
   </trkpt>
  </trkseg>
 </trk>
</gpx>
