<?xml version="1.0" encoding="UTF-8"?>
<gpx creator="StravaGPX" version="1.1" xmlns="http://www.topografix.com/GPX/1/1" xmlns:xsi="http://www.w3.org/2001/XMLSchema-instance" xsi:schemaLocation="http://www.topografix.com/GPX/1/1 http://www.topografix.com/GPX/1/1/gpx.xsd">
 <metadata>
  <time>2023-09-12T05:10:49Z</time>
 </metadata>
 <trk>
  <name>Course à pied matinale</name>
  <type>running</type>
  <trkseg>
   <trkpt lat="45.7637740" lon="4.7757100">
    <ele>221.3</ele>
    <time>2023-09-12T05:10:49Z</time>
   </trkpt>
   <trkpt lat="45.7636910" lon="4.7755540">
    <ele>221.2</ele>
    <time>2023-09-12T05:10:50Z</time>
   </trkpt>
   <trkpt lat="45.7636200" lon="4.7756490">
    <ele>221.2</ele>
    <time>2023-09-12T05:10:52Z</time>
   </trkpt>
   <trkpt lat="45.7636140" lon="4.7756330">
    <ele>221.2</ele>
    <time>2023-09-12T05:10:53Z</time>
   </trkpt>
   <trkpt lat="45.7636130" lon="4.7756260">
    <ele>221.2</ele>
    <time>2023-09-12T05:10:54Z</time>
   </trkpt>
   <trkpt lat="45.7636100" lon="4.7756110">
    <ele>221.2</ele>
    <time>2023-09-12T05:10:55Z</time>
   </trkpt>
   <trkpt lat="45.7636120" lon="4.7755940">
    <ele>221.2</ele>
    <time>2023-09-12T05:10:56Z</time>
   </trkpt>
   <trkpt lat="45.7636170" lon="4.7755700">
    <ele>221.2</ele>
    <time>2023-09-12T05:10:57Z</time>
   </trkpt>
   <trkpt lat="45.7636200" lon="4.7755260">
    <ele>221.2</ele>
    <time>2023-09-12T05:10:58Z</time>
   </trkpt>
   <trkpt lat="45.7636210" lon="4.7754690">
    <ele>221.2</ele>
    <time>2023-09-12T05:10:59Z</time>
   </trkpt>
   <trkpt lat="45.7636240" lon="4.7754500">
    <ele>221.2</ele>
    <time>2023-09-12T05:11:00Z</time>
   </trkpt>
   <trkpt lat="45.7636330" lon="4.7754060">
    <ele>221.2</ele>
    <time>2023-09-12T05:11:01Z</time>
   </trkpt>
   <trkpt lat="45.7636460" lon="4.7753600">
    <ele>221.2</ele>
    <time>2023-09-12T05:11:02Z</time>
   </trkpt>
   <trkpt lat="45.7636470" lon="4.7753200">
    <ele>221.2</ele>
    <time>2023-09-12T05:11:03Z</time>
   </trkpt>
   <trkpt lat="45.7636430" lon="4.7752820">
    <ele>221.2</ele>
    <time>2023-09-12T05:11:04Z</time>
   </trkpt>
   <trkpt lat="45.7636280" lon="4.7752270">
    <ele>221.2</ele>
    <time>2023-09-12T05:11:05Z</time>
   </trkpt>
   <trkpt lat="45.7636170" lon="4.7752090">
    <ele>221.2</ele>
    <time>2023-09-12T05:11:06Z</time>
   </trkpt>
   <trkpt lat="45.7636020" lon="4.7751740">
    <ele>221.1</ele>
    <time>2023-09-12T05:11:07Z</time>
   </trkpt>
   <trkpt lat="45.7635930" lon="4.7751350">
    <ele>221.1</ele>
    <time>2023-09-12T05:11:08Z</time>
   </trkpt>
   <trkpt lat="45.7636060" lon="4.7750790">
    <ele>221.1</ele>
    <time>2023-09-12T05:11:09Z</time>
   </trkpt>
   <trkpt lat="45.7636410" lon="4.7750390">
    <ele>221.1</ele>
    <time>2023-09-12T05:11:10Z</time>
   </trkpt>
   <trkpt lat="45.7636390" lon="4.7749840">
    <ele>221.1</ele>
    <time>2023-09-12T05:11:11Z</time>
   </trkpt>
   <trkpt lat="45.7636360" lon="4.7749630">
    <ele>221.1</ele>
    <time>2023-09-12T05:11:12Z</time>
   </trkpt>
   <trkpt lat="45.7636330" lon="4.7749120">
    <ele>221.1</ele>
    <time>2023-09-12T05:11:13Z</time>
   </trkpt>
   <trkpt lat="45.7636080" lon="4.7748780">
    <ele>221.1</ele>
    <time>2023-09-12T05:11:14Z</time>
   </trkpt>
   <trkpt lat="45.7635880" lon="4.7748500">
    <ele>221.1</ele>
    <time>2023-09-12T05:11:15Z</time>
   </trkpt>
   <trkpt lat="45.7635970" lon="4.7748010">
    <ele>221.1</ele>
    <time>2023-09-12T05:11:16Z</time>
   </trkpt>
   <trkpt lat="45.7635970" lon="4.7747840">
    <ele>221.1</ele>
    <time>2023-09-12T05:11:17Z</time>
   </trkpt>
   <trkpt lat="45.7636060" lon="4.7747260">
    <ele>221.0</ele>
    <time>2023-09-12T05:11:18Z</time>
   </trkpt>
   <trkpt lat="45.7636140" lon="4.7747060">
    <ele>221.0</ele>
    <time>2023-09-12T05:11:19Z</time>
   </trkpt>
   <trkpt lat="45.7635950" lon="4.7746660">
    <ele>221.0</ele>
    <time>2023-09-12T05:11:20Z</time>
   </trkpt>
   <trkpt lat="45.7635840" lon="4.7746570">
    <ele>221.0</ele>
    <time>2023-09-12T05:11:21Z</time>
   </trkpt>
   <trkpt lat="45.7635550" lon="4.7746340">
    <ele>221.0</ele>
    <time>2023-09-12T05:11:22Z</time>
   </trkpt>
   <trkpt lat="45.7635280" lon="4.7745940">
    <ele>221.0</ele>
    <time>2023-09-12T05:11:23Z</time>
   </trkpt>
   <trkpt lat="45.7635430" lon="4.7745550">
    <ele>221.0</ele>
    <time>2023-09-12T05:11:24Z</time>
   </trkpt>
   <trkpt lat="45.7635420" lon="4.7745320">
    <ele>221.0</ele>
    <time>2023-09-12T05:11:25Z</time>
   </trkpt>
   <trkpt lat="45.7635470" lon="4.7745040">
    <ele>221.0</ele>
    <time>2023-09-12T05:11:26Z</time>
   </trkpt>
   <trkpt lat="45.7635470" lon="4.7744630">
    <ele>221.0</ele>
    <time>2023-09-12T05:11:27Z</time>
   </trkpt>
   <trkpt lat="45.7635600" lon="4.7744260">
    <ele>221.0</ele>
    <time>2023-09-12T05:11:28Z</time>
   </trkpt>
   <trkpt lat="45.7635490" lon="4.7743910">
    <ele>221.0</ele>
    <time>2023-09-12T05:11:29Z</time>
   </trkpt>
   <trkpt lat="45.7635590" lon="4.7743480">
    <ele>221.0</ele>
    <time>2023-09-12T05:11:30Z</time>
   </trkpt>
   <trkpt lat="45.7635640" lon="4.7743240">
    <ele>221.0</ele>
    <time>2023-09-12T05:11:31Z</time>
   </trkpt>
   <trkpt lat="45.7635810" lon="4.7742920">
    <ele>221.0</ele>
    <time>2023-09-12T05:11:32Z</time>
   </trkpt>
   <trkpt lat="45.7635640" lon="4.7742500">
    <ele>221.0</ele>
    <time>2023-09-12T05:11:33Z</time>
   </trkpt>
   <trkpt lat="45.7635650" lon="4.7742090">
    <ele>221.0</ele>
    <time>2023-09-12T05:11:34Z</time>
   </trkpt>
   <trkpt lat="45.7635540" lon="4.7741710">
    <ele>221.0</ele>
    <time>2023-09-12T05:11:35Z</time>
   </trkpt>
   <trkpt lat="45.7635300" lon="4.7741260">
    <ele>221.0</ele>
    <time>2023-09-12T05:11:36Z</time>
   </trkpt>
   <trkpt lat="45.7635150" lon="4.7741160">
    <ele>221.0</ele>
    <time>2023-09-12T05:11:37Z</time>
   </trkpt>
   <trkpt lat="45.7635030" lon="4.7740800">
    <ele>221.0</ele>
    <time>2023-09-12T05:11:38Z</time>
   </trkpt>
   <trkpt lat="45.7635170" lon="4.7740320">
    <ele>221.0</ele>
    <time>2023-09-12T05:11:39Z</time>
   </trkpt>
   <trkpt lat="45.7635150" lon="4.7739940">
    <ele>221.0</ele>
    <time>2023-09-12T05:11:40Z</time>
   </trkpt>
   <trkpt lat="45.7635310" lon="4.7739870">
    <ele>221.0</ele>
    <time>2023-09-12T05:11:41Z</time>
   </trkpt>
   <trkpt lat="45.7635540" lon="4.7739500">
    <ele>221.0</ele>
    <time>2023-09-12T05:11:42Z</time>
   </trkpt>
   <trkpt lat="45.7635600" lon="4.7739340">
    <ele>221.0</ele>
    <time>2023-09-12T05:11:43Z</time>
   </trkpt>
   <trkpt lat="45.7635570" lon="4.7738820">
    <ele>221.0</ele>
    <time>2023-09-12T05:11:44Z</time>
   </trkpt>
   <trkpt lat="45.7635430" lon="4.7738420">
    <ele>221.0</ele>
    <time>2023-09-12T05:11:45Z</time>
   </trkpt>
   <trkpt lat="45.7635410" lon="4.7737990">
    <ele>221.0</ele>
    <time>2023-09-12T05:11:46Z</time>
   </trkpt>
   <trkpt lat="45.7635240" lon="4.7737560">
    <ele>220.9</ele>
    <time>2023-09-12T05:11:47Z</time>
   </trkpt>
   <trkpt lat="45.7635190" lon="4.7737450">
    <ele>220.9</ele>
    <time>2023-09-12T05:11:48Z</time>
   </trkpt>
   <trkpt lat="45.7635170" lon="4.7737030">
    <ele>220.8</ele>
    <time>2023-09-12T05:11:49Z</time>
   </trkpt>
   <trkpt lat="45.7634940" lon="4.7736680">
    <ele>220.8</ele>
    <time>2023-09-12T05:11:50Z</time>
   </trkpt>
   <trkpt lat="45.7634820" lon="4.7736600">
    <ele>220.8</ele>
    <time>2023-09-12T05:11:51Z</time>
   </trkpt>
   <trkpt lat="45.7634580" lon="4.7736630">
    <ele>220.8</ele>
    <time>2023-09-12T05:11:52Z</time>
   </trkpt>
   <trkpt lat="45.7634490" lon="4.7736750">
    <ele>220.8</ele>
    <time>2023-09-12T05:11:53Z</time>
   </trkpt>
   <trkpt lat="45.7634200" lon="4.7736530">
    <ele>220.7</ele>
    <time>2023-09-12T05:11:54Z</time>
   </trkpt>
   <trkpt lat="45.7633820" lon="4.7736530">
    <ele>220.7</ele>
    <time>2023-09-12T05:11:55Z</time>
   </trkpt>
   <trkpt lat="45.7633700" lon="4.7736510">
    <ele>220.7</ele>
    <time>2023-09-12T05:11:56Z</time>
   </trkpt>
   <trkpt lat="45.7633380" lon="4.7736510">
    <ele>220.6</ele>
    <time>2023-09-12T05:11:57Z</time>
   </trkpt>
   <trkpt lat="45.7633260" lon="4.7736490">
    <ele>220.6</ele>
    <time>2023-09-12T05:11:58Z</time>
   </trkpt>
   <trkpt lat="45.7632910" lon="4.7736360">
    <ele>220.6</ele>
    <time>2023-09-12T05:11:59Z</time>
   </trkpt>
   <trkpt lat="45.7632790" lon="4.7736310">
    <ele>220.6</ele>
    <time>2023-09-12T05:12:00Z</time>
   </trkpt>
   <trkpt lat="45.7632410" lon="4.7736360">
    <ele>220.6</ele>
    <time>2023-09-12T05:12:01Z</time>
   </trkpt>
   <trkpt lat="45.7632290" lon="4.7736350">
    <ele>220.6</ele>
    <time>2023-09-12T05:12:02Z</time>
   </trkpt>
   <trkpt lat="45.7631920" lon="4.7736210">
    <ele>220.5</ele>
    <time>2023-09-12T05:12:03Z</time>
   </trkpt>
   <trkpt lat="45.7631800" lon="4.7736130">
    <ele>220.5</ele>
    <time>2023-09-12T05:12:04Z</time>
   </trkpt>
   <trkpt lat="45.7631540" lon="4.7735910">
    <ele>220.5</ele>
    <time>2023-09-12T05:12:05Z</time>
   </trkpt>
   <trkpt lat="45.7631170" lon="4.7735720">
    <ele>220.5</ele>
    <time>2023-09-12T05:12:06Z</time>
   </trkpt>
   <trkpt lat="45.7631010" lon="4.7735730">
    <ele>220.5</ele>
    <time>2023-09-12T05:12:07Z</time>
   </trkpt>
   <trkpt lat="45.7630640" lon="4.7735670">
    <ele>220.5</ele>
    <time>2023-09-12T05:12:08Z</time>
   </trkpt>
   <trkpt lat="45.7630490" lon="4.7735570">
    <ele>220.5</ele>
    <time>2023-09-12T05:12:09Z</time>
   </trkpt>
   <trkpt lat="45.7630160" lon="4.7735450">
    <ele>220.4</ele>
    <time>2023-09-12T05:12:10Z</time>
   </trkpt>
   <trkpt lat="45.7630060" lon="4.7735370">
    <ele>220.4</ele>
    <time>2023-09-12T05:12:11Z</time>
   </trkpt>
   <trkpt lat="45.7629820" lon="4.7735650">
    <ele>220.4</ele>
    <time>2023-09-12T05:12:12Z</time>
   </trkpt>
   <trkpt lat="45.7629470" lon="4.7735660">
    <ele>220.4</ele>
    <time>2023-09-12T05:12:13Z</time>
   </trkpt>
   <trkpt lat="45.7629360" lon="4.7735660">
    <ele>220.4</ele>
    <time>2023-09-12T05:12:14Z</time>
   </trkpt>
   <trkpt lat="45.7629070" lon="4.7735390">
    <ele>220.5</ele>
    <time>2023-09-12T05:12:15Z</time>
   </trkpt>
   <trkpt lat="45.7628780" lon="4.7735240">
    <ele>220.5</ele>
    <time>2023-09-12T05:12:16Z</time>
   </trkpt>
   <trkpt lat="45.7628400" lon="4.7735120">
    <ele>220.5</ele>
    <time>2023-09-12T05:12:17Z</time>
   </trkpt>
   <trkpt lat="45.7628270" lon="4.7735090">
    <ele>220.5</ele>
    <time>2023-09-12T05:12:18Z</time>
   </trkpt>
   <trkpt lat="45.7627920" lon="4.7734860">
    <ele>220.5</ele>
    <time>2023-09-12T05:12:19Z</time>
   </trkpt>
   <trkpt lat="45.7627770" lon="4.7734800">
    <ele>220.5</ele>
    <time>2023-09-12T05:12:20Z</time>
   </trkpt>
   <trkpt lat="45.7627390" lon="4.7734670">
    <ele>220.5</ele>
    <time>2023-09-12T05:12:21Z</time>
   </trkpt>
   <trkpt lat="45.7627260" lon="4.7734610">
    <ele>220.5</ele>
    <time>2023-09-12T05:12:22Z</time>
   </trkpt>
   <trkpt lat="45.7626960" lon="4.7734550">
    <ele>220.5</ele>
    <time>2023-09-12T05:12:23Z</time>
   </trkpt>
   <trkpt lat="45.7626650" lon="4.7734480">
    <ele>220.5</ele>
    <time>2023-09-12T05:12:24Z</time>
   </trkpt>
   <trkpt lat="45.7626320" lon="4.7734420">
    <ele>220.6</ele>
    <time>2023-09-12T05:12:25Z</time>
   </trkpt>
   <trkpt lat="45.7626100" lon="4.7734700">
    <ele>220.6</ele>
    <time>2023-09-12T05:12:26Z</time>
   </trkpt>
   <trkpt lat="45.7625780" lon="4.7734830">
    <ele>220.6</ele>
    <time>2023-09-12T05:12:27Z</time>
   </trkpt>
   <trkpt lat="45.7625670" lon="4.7734780">
    <ele>220.6</ele>
    <time>2023-09-12T05:12:28Z</time>
   </trkpt>
   <trkpt lat="45.7625400" lon="4.7734790">
    <ele>220.6</ele>
    <time>2023-09-12T05:12:29Z</time>
   </trkpt>
   <trkpt lat="45.7625120" lon="4.7734770">
    <ele>220.6</ele>
    <time>2023-09-12T05:12:30Z</time>
   </trkpt>
   <trkpt lat="45.7624820" lon="4.7734690">
    <ele>220.6</ele>
    <time>2023-09-12T05:12:31Z</time>
   </trkpt>
   <trkpt lat="45.7624500" lon="4.7734560">
    <ele>220.6</ele>
    <time>2023-09-12T05:12:32Z</time>
   </trkpt>
   <trkpt lat="45.7624310" lon="4.7734120">
    <ele>220.6</ele>
    <time>2023-09-12T05:12:33Z</time>
   </trkpt>
   <trkpt lat="45.7623900" lon="4.7734050">
    <ele>220.6</ele>
    <time>2023-09-12T05:12:34Z</time>
   </trkpt>
   <trkpt lat="45.7623750" lon="4.7734010">
    <ele>220.6</ele>
    <time>2023-09-12T05:12:35Z</time>
   </trkpt>
   <trkpt lat="45.7623500" lon="4.7733750">
    <ele>220.6</ele>
    <time>2023-09-12T05:12:36Z</time>
   </trkpt>
   <trkpt lat="45.7623220" lon="4.7733900">
    <ele>220.6</ele>
    <time>2023-09-12T05:12:37Z</time>
   </trkpt>
   <trkpt lat="45.7622800" lon="4.7733760">
    <ele>220.6</ele>
    <time>2023-09-12T05:12:38Z</time>
   </trkpt>
   <trkpt lat="45.7622620" lon="4.7733730">
    <ele>220.6</ele>
    <time>2023-09-12T05:12:39Z</time>
   </trkpt>
   <trkpt lat="45.7622360" lon="4.7733910">
    <ele>220.6</ele>
    <time>2023-09-12T05:12:40Z</time>
   </trkpt>
   <trkpt lat="45.7622050" lon="4.7733740">
    <ele>220.6</ele>
    <time>2023-09-12T05:12:41Z</time>
   </trkpt>
   <trkpt lat="45.7621770" lon="4.7733590">
    <ele>220.6</ele>
    <time>2023-09-12T05:12:42Z</time>
   </trkpt>
   <trkpt lat="45.7621640" lon="4.7733560">
    <ele>220.6</ele>
    <time>2023-09-12T05:12:43Z</time>
   </trkpt>
   <trkpt lat="45.7621320" lon="4.7733630">
    <ele>220.6</ele>
    <time>2023-09-12T05:12:44Z</time>
   </trkpt>
   <trkpt lat="45.7621180" lon="4.7733680">
    <ele>220.7</ele>
    <time>2023-09-12T05:12:45Z</time>
   </trkpt>
   <trkpt lat="45.7620860" lon="4.7733780">
    <ele>220.7</ele>
    <time>2023-09-12T05:12:46Z</time>
   </trkpt>
   <trkpt lat="45.7620520" lon="4.7733650">
    <ele>220.7</ele>
    <time>2023-09-12T05:12:47Z</time>
   </trkpt>
   <trkpt lat="45.7620180" lon="4.7733580">
    <ele>220.7</ele>
    <time>2023-09-12T05:12:48Z</time>
   </trkpt>
   <trkpt lat="45.7620020" lon="4.7733550">
    <ele>220.7</ele>
    <time>2023-09-12T05:12:49Z</time>
   </trkpt>
   <trkpt lat="45.7619750" lon="4.7733440">
    <ele>220.7</ele>
    <time>2023-09-12T05:12:50Z</time>
   </trkpt>
   <trkpt lat="45.7619600" lon="4.7733430">
    <ele>220.7</ele>
    <time>2023-09-12T05:12:51Z</time>
   </trkpt>
   <trkpt lat="45.7619350" lon="4.7733580">
    <ele>220.7</ele>
    <time>2023-09-12T05:12:52Z</time>
   </trkpt>
   <trkpt lat="45.7619080" lon="4.7733620">
    <ele>220.7</ele>
    <time>2023-09-12T05:12:53Z</time>
   </trkpt>
   <trkpt lat="45.7618820" lon="4.7733350">
    <ele>220.7</ele>
    <time>2023-09-12T05:12:54Z</time>
   </trkpt>
   <trkpt lat="45.7618730" lon="4.7733260">
    <ele>220.7</ele>
    <time>2023-09-12T05:12:55Z</time>
   </trkpt>
   <trkpt lat="45.7618380" lon="4.7733430">
    <ele>220.7</ele>
    <time>2023-09-12T05:12:56Z</time>
   </trkpt>
   <trkpt lat="45.7618100" lon="4.7733490">
    <ele>220.7</ele>
    <time>2023-09-12T05:12:57Z</time>
   </trkpt>
   <trkpt lat="45.7617790" lon="4.7733460">
    <ele>220.7</ele>
    <time>2023-09-12T05:12:58Z</time>
   </trkpt>
   <trkpt lat="45.7617630" lon="4.7733530">
    <ele>220.7</ele>
    <time>2023-09-12T05:12:59Z</time>
   </trkpt>
   <trkpt lat="45.7617320" lon="4.7733620">
    <ele>220.7</ele>
    <time>2023-09-12T05:13:00Z</time>
   </trkpt>
   <trkpt lat="45.7617210" lon="4.7733580">
    <ele>220.7</ele>
    <time>2023-09-12T05:13:01Z</time>
   </trkpt>
   <trkpt lat="45.7617040" lon="4.7733740">
    <ele>220.7</ele>
    <time>2023-09-12T05:13:02Z</time>
   </trkpt>
   <trkpt lat="45.7616720" lon="4.7733790">
    <ele>220.7</ele>
    <time>2023-09-12T05:13:03Z</time>
   </trkpt>
   <trkpt lat="45.7616320" lon="4.7733960">
    <ele>220.7</ele>
    <time>2023-09-12T05:13:04Z</time>
   </trkpt>
   <trkpt lat="45.7616080" lon="4.7734150">
    <ele>220.7</ele>
    <time>2023-09-12T05:13:23Z</time>
   </trkpt>
   <trkpt lat="45.7615840" lon="4.7734350">
    <ele>220.7</ele>
    <time>2023-09-12T05:13:24Z</time>
   </trkpt>
   <trkpt lat="45.7615600" lon="4.7734540">
    <ele>220.7</ele>
    <time>2023-09-12T05:13:25Z</time>
   </trkpt>
   <trkpt lat="45.7615190" lon="4.7734340">
    <ele>220.7</ele>
    <time>2023-09-12T05:13:26Z</time>
   </trkpt>
   <trkpt lat="45.7614800" lon="4.7734110">
    <ele>220.7</ele>
    <time>2023-09-12T05:13:27Z</time>
   </trkpt>
   <trkpt lat="45.7614610" lon="4.7733800">
    <ele>220.7</ele>
    <time>2023-09-12T05:13:28Z</time>
   </trkpt>
   <trkpt lat="45.7614320" lon="4.7733720">
    <ele>220.7</ele>
    <time>2023-09-12T05:13:29Z</time>
   </trkpt>
   <trkpt lat="45.7614210" lon="4.7733680">
    <ele>220.7</ele>
    <time>2023-09-12T05:13:30Z</time>
   </trkpt>
   <trkpt lat="45.7613900" lon="4.7733450">
    <ele>220.7</ele>
    <time>2023-09-12T05:13:31Z</time>
   </trkpt>
   <trkpt lat="45.7613810" lon="4.7733370">
    <ele>220.7</ele>
    <time>2023-09-12T05:13:32Z</time>
   </trkpt>
   <trkpt lat="45.7613870" lon="4.7732820">
    <ele>220.8</ele>
    <time>2023-09-12T05:13:33Z</time>
   </trkpt>
   <trkpt lat="45.7613850" lon="4.7732600">
    <ele>220.8</ele>
    <time>2023-09-12T05:13:34Z</time>
   </trkpt>
   <trkpt lat="45.7613510" lon="4.7732370">
    <ele>220.8</ele>
    <time>2023-09-12T05:13:35Z</time>
   </trkpt>
   <trkpt lat="45.7613340" lon="4.7732390">
    <ele>220.8</ele>
    <time>2023-09-12T05:13:36Z</time>
   </trkpt>
   <trkpt lat="45.7613000" lon="4.7732460">
    <ele>220.8</ele>
    <time>2023-09-12T05:13:37Z</time>
   </trkpt>
   <trkpt lat="45.7612920" lon="4.7732480">
    <ele>220.8</ele>
    <time>2023-09-12T05:13:38Z</time>
   </trkpt>
   <trkpt lat="45.7612650" lon="4.7732390">
    <ele>220.8</ele>
    <time>2023-09-12T05:13:39Z</time>
   </trkpt>
   <trkpt lat="45.7612550" lon="4.7732320">
    <ele>220.8</ele>
    <time>2023-09-12T05:13:40Z</time>
   </trkpt>
   <trkpt lat="45.7612240" lon="4.7732220">
    <ele>220.8</ele>
    <time>2023-09-12T05:13:41Z</time>
   </trkpt>
   <trkpt lat="45.7611940" lon="4.7732100">
    <ele>220.9</ele>
    <time>2023-09-12T05:13:42Z</time>
   </trkpt>
   <trkpt lat="45.7611540" lon="4.7732010">
    <ele>220.9</ele>
    <time>2023-09-12T05:13:43Z</time>
   </trkpt>
   <trkpt lat="45.7611240" lon="4.7732090">
    <ele>220.9</ele>
    <time>2023-09-12T05:13:44Z</time>
   </trkpt>
   <trkpt lat="45.7611090" lon="4.7732030">
    <ele>220.9</ele>
    <time>2023-09-12T05:13:45Z</time>
   </trkpt>
   <trkpt lat="45.7610780" lon="4.7732080">
    <ele>220.9</ele>
    <time>2023-09-12T05:13:46Z</time>
   </trkpt>
   <trkpt lat="45.7610510" lon="4.7732010">
    <ele>220.9</ele>
    <time>2023-09-12T05:13:47Z</time>
   </trkpt>
   <trkpt lat="45.7610170" lon="4.7731880">
    <ele>220.9</ele>
    <time>2023-09-12T05:13:48Z</time>
   </trkpt>
   <trkpt lat="45.7610030" lon="4.7731850">
    <ele>221.0</ele>
    <time>2023-09-12T05:13:49Z</time>
   </trkpt>
   <trkpt lat="45.7609630" lon="4.7731860">
    <ele>221.0</ele>
    <time>2023-09-12T05:13:50Z</time>
   </trkpt>
   <trkpt lat="45.7609490" lon="4.7731890">
    <ele>221.0</ele>
    <time>2023-09-12T05:13:51Z</time>
   </trkpt>
   <trkpt lat="45.7609170" lon="4.7731900">
    <ele>221.0</ele>
    <time>2023-09-12T05:13:52Z</time>
   </trkpt>
   <trkpt lat="45.7608830" lon="4.7731650">
    <ele>221.0</ele>
    <time>2023-09-12T05:13:53Z</time>
   </trkpt>
   <trkpt lat="45.7608670" lon="4.7731540">
    <ele>221.0</ele>
    <time>2023-09-12T05:13:54Z</time>
   </trkpt>
   <trkpt lat="45.7608450" lon="4.7731940">
    <ele>221.0</ele>
    <time>2023-09-12T05:13:55Z</time>
   </trkpt>
   <trkpt lat="45.7608440" lon="4.7732190">
    <ele>221.0</ele>
    <time>2023-09-12T05:13:56Z</time>
   </trkpt>
   <trkpt lat="45.7608000" lon="4.7732310">
    <ele>221.0</ele>
    <time>2023-09-12T05:13:57Z</time>
   </trkpt>
   <trkpt lat="45.7607780" lon="4.7732280">
    <ele>221.0</ele>
    <time>2023-09-12T05:13:58Z</time>
   </trkpt>
   <trkpt lat="45.7607540" lon="4.7732460">
    <ele>221.0</ele>
    <time>2023-09-12T05:13:59Z</time>
   </trkpt>
   <trkpt lat="45.7607260" lon="4.7732380">
    <ele>221.0</ele>
    <time>2023-09-12T05:14:00Z</time>
   </trkpt>
   <trkpt lat="45.7606910" lon="4.7732420">
    <ele>221.0</ele>
    <time>2023-09-12T05:14:01Z</time>
   </trkpt>
   <trkpt lat="45.7606500" lon="4.7732620">
    <ele>221.0</ele>
    <time>2023-09-12T05:14:02Z</time>
   </trkpt>
   <trkpt lat="45.7606150" lon="4.7732590">
    <ele>221.0</ele>
    <time>2023-09-12T05:14:03Z</time>
   </trkpt>
   <trkpt lat="45.7605880" lon="4.7732220">
    <ele>221.1</ele>
    <time>2023-09-12T05:14:04Z</time>
   </trkpt>
   <trkpt lat="45.7605570" lon="4.7732360">
    <ele>221.1</ele>
    <time>2023-09-12T05:14:05Z</time>
   </trkpt>
   <trkpt lat="45.7605280" lon="4.7732090">
    <ele>221.1</ele>
    <time>2023-09-12T05:14:06Z</time>
   </trkpt>
   <trkpt lat="45.7605190" lon="4.7732050">
    <ele>221.1</ele>
    <time>2023-09-12T05:14:07Z</time>
   </trkpt>
   <trkpt lat="45.7604900" lon="4.7732240">
    <ele>221.1</ele>
    <time>2023-09-12T05:14:08Z</time>
   </trkpt>
   <trkpt lat="45.7604640" lon="4.7732380">
    <ele>221.1</ele>
    <time>2023-09-12T05:14:09Z</time>
   </trkpt>
   <trkpt lat="45.7604330" lon="4.7732310">
    <ele>221.2</ele>
    <time>2023-09-12T05:14:10Z</time>
   </trkpt>
   <trkpt lat="45.7604200" lon="4.7732190">
    <ele>221.2</ele>
    <time>2023-09-12T05:14:11Z</time>
   </trkpt>
   <trkpt lat="45.7603980" lon="4.7731670">
    <ele>221.2</ele>
    <time>2023-09-12T05:14:12Z</time>
   </trkpt>
   <trkpt lat="45.7603740" lon="4.7731400">
    <ele>221.2</ele>
    <time>2023-09-12T05:14:13Z</time>
   </trkpt>
   <trkpt lat="45.7603920" lon="4.7730770">
    <ele>221.2</ele>
    <time>2023-09-12T05:14:14Z</time>
   </trkpt>
   <trkpt lat="45.7603980" lon="4.7730260">
    <ele>221.2</ele>
    <time>2023-09-12T05:14:15Z</time>
   </trkpt>
   <trkpt lat="45.7603890" lon="4.7729820">
    <ele>221.1</ele>
    <time>2023-09-12T05:14:16Z</time>
   </trkpt>
   <trkpt lat="45.7603810" lon="4.7729660">
    <ele>221.1</ele>
    <time>2023-09-12T05:14:17Z</time>
   </trkpt>
   <trkpt lat="45.7603740" lon="4.7729210">
    <ele>221.1</ele>
    <time>2023-09-12T05:14:18Z</time>
   </trkpt>
   <trkpt lat="45.7603760" lon="4.7729010">
    <ele>221.1</ele>
    <time>2023-09-12T05:14:19Z</time>
   </trkpt>
   <trkpt lat="45.7603680" lon="4.7728640">
    <ele>221.1</ele>
    <time>2023-09-12T05:14:20Z</time>
   </trkpt>
   <trkpt lat="45.7603720" lon="4.7728200">
    <ele>221.0</ele>
    <time>2023-09-12T05:14:21Z</time>
   </trkpt>
   <trkpt lat="45.7603690" lon="4.7727730">
    <ele>221.0</ele>
    <time>2023-09-12T05:14:22Z</time>
   </trkpt>
   <trkpt lat="45.7604050" lon="4.7727440">
    <ele>221.0</ele>
    <time>2023-09-12T05:14:23Z</time>
   </trkpt>
   <trkpt lat="45.7604120" lon="4.7726950">
    <ele>220.5</ele>
    <time>2023-09-12T05:14:24Z</time>
   </trkpt>
   <trkpt lat="45.7604050" lon="4.7726470">
    <ele>220.2</ele>
    <time>2023-09-12T05:14:25Z</time>
   </trkpt>
   <trkpt lat="45.7603590" lon="4.7726180">
    <ele>219.7</ele>
    <time>2023-09-12T05:14:26Z</time>
   </trkpt>
   <trkpt lat="45.7603390" lon="4.7725800">
    <ele>219.4</ele>
    <time>2023-09-12T05:14:27Z</time>
   </trkpt>
   <trkpt lat="45.7603370" lon="4.7725650">
    <ele>219.3</ele>
    <time>2023-09-12T05:14:28Z</time>
   </trkpt>
   <trkpt lat="45.7603230" lon="4.7725250">
    <ele>219.0</ele>
    <time>2023-09-12T05:14:29Z</time>
   </trkpt>
   <trkpt lat="45.7603220" lon="4.7725110">
    <ele>219.0</ele>
    <time>2023-09-12T05:14:30Z</time>
   </trkpt>
   <trkpt lat="45.7602940" lon="4.7724630">
    <ele>218.6</ele>
    <time>2023-09-12T05:14:31Z</time>
   </trkpt>
   <trkpt lat="45.7602740" lon="4.7724190">
    <ele>218.2</ele>
    <time>2023-09-12T05:14:32Z</time>
   </trkpt>
   <trkpt lat="45.7602720" lon="4.7723980">
    <ele>218.2</ele>
    <time>2023-09-12T05:14:33Z</time>
   </trkpt>
   <trkpt lat="45.7602660" lon="4.7723540">
    <ele>218.2</ele>
    <time>2023-09-12T05:14:34Z</time>
   </trkpt>
   <trkpt lat="45.7602680" lon="4.7723140">
    <ele>218.1</ele>
    <time>2023-09-12T05:14:35Z</time>
   </trkpt>
   <trkpt lat="45.7602670" lon="4.7722710">
    <ele>218.1</ele>
    <time>2023-09-12T05:14:36Z</time>
   </trkpt>
   <trkpt lat="45.7602660" lon="4.7722240">
    <ele>218.0</ele>
    <time>2023-09-12T05:14:37Z</time>
   </trkpt>
   <trkpt lat="45.7602600" lon="4.7722070">
    <ele>218.0</ele>
    <time>2023-09-12T05:14:38Z</time>
   </trkpt>
   <trkpt lat="45.7602530" lon="4.7721500">
    <ele>218.0</ele>
    <time>2023-09-12T05:14:39Z</time>
   </trkpt>
   <trkpt lat="45.7602520" lon="4.7721280">
    <ele>217.9</ele>
    <time>2023-09-12T05:14:40Z</time>
   </trkpt>
   <trkpt lat="45.7602450" lon="4.7720900">
    <ele>217.9</ele>
    <time>2023-09-12T05:14:41Z</time>
   </trkpt>
   <trkpt lat="45.7602330" lon="4.7720410">
    <ele>217.9</ele>
    <time>2023-09-12T05:14:42Z</time>
   </trkpt>
   <trkpt lat="45.7602260" lon="4.7720250">
    <ele>217.9</ele>
    <time>2023-09-12T05:14:43Z</time>
   </trkpt>
   <trkpt lat="45.7602140" lon="4.7719700">
    <ele>217.8</ele>
    <time>2023-09-12T05:14:44Z</time>
   </trkpt>
   <trkpt lat="45.7602100" lon="4.7719490">
    <ele>217.8</ele>
    <time>2023-09-12T05:14:45Z</time>
   </trkpt>
   <trkpt lat="45.7602010" lon="4.7719060">
    <ele>217.8</ele>
    <time>2023-09-12T05:14:46Z</time>
   </trkpt>
   <trkpt lat="45.7601950" lon="4.7718580">
    <ele>217.8</ele>
    <time>2023-09-12T05:14:47Z</time>
   </trkpt>
   <trkpt lat="45.7601860" lon="4.7718120">
    <ele>217.8</ele>
    <time>2023-09-12T05:14:48Z</time>
   </trkpt>
   <trkpt lat="45.7601850" lon="4.7717720">
    <ele>217.7</ele>
    <time>2023-09-12T05:14:49Z</time>
   </trkpt>
   <trkpt lat="45.7601800" lon="4.7717090">
    <ele>217.7</ele>
    <time>2023-09-12T05:14:50Z</time>
   </trkpt>
   <trkpt lat="45.7601780" lon="4.7716840">
    <ele>217.7</ele>
    <time>2023-09-12T05:14:51Z</time>
   </trkpt>
   <trkpt lat="45.7601510" lon="4.7716510">
    <ele>217.7</ele>
    <time>2023-09-12T05:14:52Z</time>
   </trkpt>
   <trkpt lat="45.7601390" lon="4.7716130">
    <ele>217.7</ele>
    <time>2023-09-12T05:14:53Z</time>
   </trkpt>
   <trkpt lat="45.7601410" lon="4.7715710">
    <ele>217.7</ele>
    <time>2023-09-12T05:14:54Z</time>
   </trkpt>
   <trkpt lat="45.7601460" lon="4.7715130">
    <ele>217.7</ele>
    <time>2023-09-12T05:14:55Z</time>
   </trkpt>
   <trkpt lat="45.7601510" lon="4.7714900">
    <ele>217.7</ele>
    <time>2023-09-12T05:14:56Z</time>
   </trkpt>
   <trkpt lat="45.7601440" lon="4.7714210">
    <ele>217.8</ele>
    <time>2023-09-12T05:14:57Z</time>
   </trkpt>
   <trkpt lat="45.7601510" lon="4.7713840">
    <ele>217.8</ele>
    <time>2023-09-12T05:14:58Z</time>
   </trkpt>
   <trkpt lat="45.7601840" lon="4.7713380">
    <ele>217.8</ele>
    <time>2023-09-12T05:14:59Z</time>
   </trkpt>
   <trkpt lat="45.7602030" lon="4.7713260">
    <ele>218.0</ele>
    <time>2023-09-12T05:15:00Z</time>
   </trkpt>
   <trkpt lat="45.7602270" lon="4.7713020">
    <ele>218.0</ele>
    <time>2023-09-12T05:15:01Z</time>
   </trkpt>
   <trkpt lat="45.7602570" lon="4.7712950">
    <ele>218.0</ele>
    <time>2023-09-12T05:15:02Z</time>
   </trkpt>
   <trkpt lat="45.7602850" lon="4.7712960">
    <ele>218.0</ele>
    <time>2023-09-12T05:15:03Z</time>
   </trkpt>
   <trkpt lat="45.7603150" lon="4.7712860">
    <ele>218.1</ele>
    <time>2023-09-12T05:15:04Z</time>
   </trkpt>
   <trkpt lat="45.7603330" lon="4.7712560">
    <ele>218.1</ele>
    <time>2023-09-12T05:15:06Z</time>
   </trkpt>
   <trkpt lat="45.7603470" lon="4.7712210">
    <ele>218.1</ele>
    <time>2023-09-12T05:15:07Z</time>
   </trkpt>
   <trkpt lat="45.7603510" lon="4.7711720">
    <ele>218.1</ele>
    <time>2023-09-12T05:15:08Z</time>
   </trkpt>
   <trkpt lat="45.7603440" lon="4.7711320">
    <ele>218.1</ele>
    <time>2023-09-12T05:15:09Z</time>
   </trkpt>
   <trkpt lat="45.7603520" lon="4.7710830">
    <ele>218.1</ele>
    <time>2023-09-12T05:15:10Z</time>
   </trkpt>
   <trkpt lat="45.7603530" lon="4.7710660">
    <ele>218.1</ele>
    <time>2023-09-12T05:15:11Z</time>
   </trkpt>
   <trkpt lat="45.7603690" lon="4.7710270">
    <ele>218.1</ele>
    <time>2023-09-12T05:15:12Z</time>
   </trkpt>
   <trkpt lat="45.7603710" lon="4.7709780">
    <ele>218.1</ele>
    <time>2023-09-12T05:15:13Z</time>
   </trkpt>
   <trkpt lat="45.7603670" lon="4.7709390">
    <ele>218.1</ele>
    <time>2023-09-12T05:15:14Z</time>
   </trkpt>
   <trkpt lat="45.7603530" lon="4.7708820">
    <ele>218.2</ele>
    <time>2023-09-12T05:15:15Z</time>
   </trkpt>
   <trkpt lat="45.7603470" lon="4.7708570">
    <ele>218.3</ele>
    <time>2023-09-12T05:15:16Z</time>
   </trkpt>
   <trkpt lat="45.7603280" lon="4.7708140">
    <ele>218.4</ele>
    <time>2023-09-12T05:15:17Z</time>
   </trkpt>
   <trkpt lat="45.7603270" lon="4.7707590">
    <ele>218.5</ele>
    <time>2023-09-12T05:15:18Z</time>
   </trkpt>
   <trkpt lat="45.7603280" lon="4.7707390">
    <ele>218.5</ele>
    <time>2023-09-12T05:15:19Z</time>
   </trkpt>
   <trkpt lat="45.7603420" lon="4.7706890">
    <ele>218.6</ele>
    <time>2023-09-12T05:15:20Z</time>
   </trkpt>
   <trkpt lat="45.7603460" lon="4.7706370">
    <ele>218.8</ele>
    <time>2023-09-12T05:15:21Z</time>
   </trkpt>
   <trkpt lat="45.7603450" lon="4.7705900">
    <ele>218.8</ele>
    <time>2023-09-12T05:15:22Z</time>
   </trkpt>
   <trkpt lat="45.7603610" lon="4.7705510">
    <ele>218.9</ele>
    <time>2023-09-12T05:15:23Z</time>
   </trkpt>
   <trkpt lat="45.7603620" lon="4.7705020">
    <ele>219.0</ele>
    <time>2023-09-12T05:15:24Z</time>
   </trkpt>
   <trkpt lat="45.7603680" lon="4.7704630">
    <ele>219.1</ele>
    <time>2023-09-12T05:15:25Z</time>
   </trkpt>
   <trkpt lat="45.7603670" lon="4.7704440">
    <ele>219.1</ele>
    <time>2023-09-12T05:15:26Z</time>
   </trkpt>
   <trkpt lat="45.7603700" lon="4.7704020">
    <ele>219.2</ele>
    <time>2023-09-12T05:15:27Z</time>
   </trkpt>
   <trkpt lat="45.7603590" lon="4.7703450">
    <ele>219.4</ele>
    <time>2023-09-12T05:15:28Z</time>
   </trkpt>
   <trkpt lat="45.7603540" lon="4.7703240">
    <ele>219.4</ele>
    <time>2023-09-12T05:15:29Z</time>
   </trkpt>
   <trkpt lat="45.7603490" lon="4.7702750">
    <ele>219.6</ele>
    <time>2023-09-12T05:15:30Z</time>
   </trkpt>
   <trkpt lat="45.7603590" lon="4.7702170">
    <ele>219.8</ele>
    <time>2023-09-12T05:15:31Z</time>
   </trkpt>
   <trkpt lat="45.7603660" lon="4.7701680">
    <ele>219.9</ele>
    <time>2023-09-12T05:15:32Z</time>
   </trkpt>
   <trkpt lat="45.7603860" lon="4.7701260">
    <ele>220.1</ele>
    <time>2023-09-12T05:15:33Z</time>
   </trkpt>
   <trkpt lat="45.7604200" lon="4.7700910">
    <ele>220.1</ele>
    <time>2023-09-12T05:15:34Z</time>
   </trkpt>
   <trkpt lat="45.7604380" lon="4.7700530">
    <ele>220.1</ele>
    <time>2023-09-12T05:15:35Z</time>
   </trkpt>
   <trkpt lat="45.7604290" lon="4.7700060">
    <ele>220.1</ele>
    <time>2023-09-12T05:15:36Z</time>
   </trkpt>
   <trkpt lat="45.7604440" lon="4.7699670">
    <ele>220.1</ele>
    <time>2023-09-12T05:15:37Z</time>
   </trkpt>
   <trkpt lat="45.7604570" lon="4.7698860">
    <ele>220.0</ele>
    <time>2023-09-12T05:15:38Z</time>
   </trkpt>
   <trkpt lat="45.7604630" lon="4.7698390">
    <ele>220.0</ele>
    <time>2023-09-12T05:15:39Z</time>
   </trkpt>
   <trkpt lat="45.7604760" lon="4.7698000">
    <ele>220.0</ele>
    <time>2023-09-12T05:15:40Z</time>
   </trkpt>
   <trkpt lat="45.7604730" lon="4.7697140">
    <ele>220.0</ele>
    <time>2023-09-12T05:15:42Z</time>
   </trkpt>
   <trkpt lat="45.7604940" lon="4.7696790">
    <ele>220.0</ele>
    <time>2023-09-12T05:15:43Z</time>
   </trkpt>
   <trkpt lat="45.7605070" lon="4.7696430">
    <ele>220.0</ele>
    <time>2023-09-12T05:15:44Z</time>
   </trkpt>
   <trkpt lat="45.7605240" lon="4.7695890">
    <ele>220.0</ele>
    <time>2023-09-12T05:15:45Z</time>
   </trkpt>
   <trkpt lat="45.7605290" lon="4.7695630">
    <ele>220.0</ele>
    <time>2023-09-12T05:15:46Z</time>
   </trkpt>
   <trkpt lat="45.7605370" lon="4.7695170">
    <ele>220.1</ele>
    <time>2023-09-12T05:15:47Z</time>
   </trkpt>
   <trkpt lat="45.7605550" lon="4.7694830">
    <ele>220.1</ele>
    <time>2023-09-12T05:15:48Z</time>
   </trkpt>
   <trkpt lat="45.7605370" lon="4.7694290">
    <ele>220.1</ele>
    <time>2023-09-12T05:15:49Z</time>
   </trkpt>
   <trkpt lat="45.7605380" lon="4.7693890">
    <ele>220.1</ele>
    <time>2023-09-12T05:15:50Z</time>
   </trkpt>
   <trkpt lat="45.7605470" lon="4.7693370">
    <ele>220.1</ele>
    <time>2023-09-12T05:15:51Z</time>
   </trkpt>
   <trkpt lat="45.7605570" lon="4.7693180">
    <ele>220.1</ele>
    <time>2023-09-12T05:15:52Z</time>
   </trkpt>
   <trkpt lat="45.7605610" lon="4.7692680">
    <ele>220.2</ele>
    <time>2023-09-12T05:15:53Z</time>
   </trkpt>
   <trkpt lat="45.7605250" lon="4.7692270">
    <ele>220.1</ele>
    <time>2023-09-12T05:15:54Z</time>
   </trkpt>
   <trkpt lat="45.7604990" lon="4.7691920">
    <ele>220.0</ele>
    <time>2023-09-12T05:15:55Z</time>
   </trkpt>
   <trkpt lat="45.7604580" lon="4.7691790">
    <ele>219.9</ele>
    <time>2023-09-12T05:15:56Z</time>
   </trkpt>
   <trkpt lat="45.7604280" lon="4.7691890">
    <ele>219.8</ele>
    <time>2023-09-12T05:15:57Z</time>
   </trkpt>
   <trkpt lat="45.7603870" lon="4.7691950">
    <ele>219.8</ele>
    <time>2023-09-12T05:15:58Z</time>
   </trkpt>
   <trkpt lat="45.7603700" lon="4.7691940">
    <ele>219.7</ele>
    <time>2023-09-12T05:15:59Z</time>
   </trkpt>
   <trkpt lat="45.7603340" lon="4.7691780">
    <ele>219.7</ele>
    <time>2023-09-12T05:16:00Z</time>
   </trkpt>
   <trkpt lat="45.7603040" lon="4.7691690">
    <ele>219.6</ele>
    <time>2023-09-12T05:16:01Z</time>
   </trkpt>
   <trkpt lat="45.7602720" lon="4.7691830">
    <ele>219.6</ele>
    <time>2023-09-12T05:16:02Z</time>
   </trkpt>
   <trkpt lat="45.7602420" lon="4.7691740">
    <ele>219.5</ele>
    <time>2023-09-12T05:16:03Z</time>
   </trkpt>
   <trkpt lat="45.7602080" lon="4.7691660">
    <ele>219.5</ele>
    <time>2023-09-12T05:16:04Z</time>
   </trkpt>
   <trkpt lat="45.7601930" lon="4.7691660">
    <ele>219.4</ele>
    <time>2023-09-12T05:16:05Z</time>
   </trkpt>
   <trkpt lat="45.7601580" lon="4.7691640">
    <ele>219.4</ele>
    <time>2023-09-12T05:16:06Z</time>
   </trkpt>
   <trkpt lat="45.7601260" lon="4.7691680">
    <ele>219.4</ele>
    <time>2023-09-12T05:16:07Z</time>
   </trkpt>
   <trkpt lat="45.7600930" lon="4.7691860">
    <ele>219.3</ele>
    <time>2023-09-12T05:16:08Z</time>
   </trkpt>
   <trkpt lat="45.7600680" lon="4.7691510">
    <ele>219.3</ele>
    <time>2023-09-12T05:16:09Z</time>
   </trkpt>
   <trkpt lat="45.7600320" lon="4.7691750">
    <ele>219.2</ele>
    <time>2023-09-12T05:16:10Z</time>
   </trkpt>
   <trkpt lat="45.7600010" lon="4.7691820">
    <ele>219.2</ele>
    <time>2023-09-12T05:16:11Z</time>
   </trkpt>
   <trkpt lat="45.7599680" lon="4.7691760">
    <ele>219.2</ele>
    <time>2023-09-12T05:16:12Z</time>
   </trkpt>
   <trkpt lat="45.7599490" lon="4.7691760">
    <ele>219.2</ele>
    <time>2023-09-12T05:16:13Z</time>
   </trkpt>
   <trkpt lat="45.7599210" lon="4.7691370">
    <ele>219.1</ele>
    <time>2023-09-12T05:16:14Z</time>
   </trkpt>
   <trkpt lat="45.7598900" lon="4.7691140">
    <ele>219.1</ele>
    <time>2023-09-12T05:16:15Z</time>
   </trkpt>
   <trkpt lat="45.7598500" lon="4.7691190">
    <ele>219.1</ele>
    <time>2023-09-12T05:16:16Z</time>
   </trkpt>
   <trkpt lat="45.7598230" lon="4.7691110">
    <ele>219.0</ele>
    <time>2023-09-12T05:16:17Z</time>
   </trkpt>
   <trkpt lat="45.7597950" lon="4.7691050">
    <ele>219.0</ele>
    <time>2023-09-12T05:16:18Z</time>
   </trkpt>
   <trkpt lat="45.7597590" lon="4.7691060">
    <ele>219.0</ele>
    <time>2023-09-12T05:16:19Z</time>
   </trkpt>
   <trkpt lat="45.7597310" lon="4.7690960">
    <ele>218.9</ele>
    <time>2023-09-12T05:16:20Z</time>
   </trkpt>
   <trkpt lat="45.7597040" lon="4.7690860">
    <ele>218.9</ele>
    <time>2023-09-12T05:16:21Z</time>
   </trkpt>
   <trkpt lat="45.7596650" lon="4.7690910">
    <ele>218.9</ele>
    <time>2023-09-12T05:16:22Z</time>
   </trkpt>
   <trkpt lat="45.7596330" lon="4.7690780">
    <ele>218.8</ele>
    <time>2023-09-12T05:16:23Z</time>
   </trkpt>
   <trkpt lat="45.7595900" lon="4.7690780">
    <ele>218.8</ele>
    <time>2023-09-12T05:16:24Z</time>
   </trkpt>
   <trkpt lat="45.7595730" lon="4.7690790">
    <ele>218.8</ele>
    <time>2023-09-12T05:16:25Z</time>
   </trkpt>
   <trkpt lat="45.7595370" lon="4.7690870">
    <ele>218.8</ele>
    <time>2023-09-12T05:16:26Z</time>
   </trkpt>
   <trkpt lat="45.7595240" lon="4.7690920">
    <ele>218.8</ele>
    <time>2023-09-12T05:16:27Z</time>
   </trkpt>
   <trkpt lat="45.7594960" lon="4.7691100">
    <ele>218.8</ele>
    <time>2023-09-12T05:16:28Z</time>
   </trkpt>
   <trkpt lat="45.7594660" lon="4.7691230">
    <ele>218.8</ele>
    <time>2023-09-12T05:16:29Z</time>
   </trkpt>
   <trkpt lat="45.7594290" lon="4.7691260">
    <ele>218.9</ele>
    <time>2023-09-12T05:16:30Z</time>
   </trkpt>
   <trkpt lat="45.7594160" lon="4.7691330">
    <ele>218.9</ele>
    <time>2023-09-12T05:16:31Z</time>
   </trkpt>
   <trkpt lat="45.7593790" lon="4.7691500">
    <ele>218.9</ele>
    <time>2023-09-12T05:16:32Z</time>
   </trkpt>
   <trkpt lat="45.7593420" lon="4.7691450">
    <ele>219.0</ele>
    <time>2023-09-12T05:16:33Z</time>
   </trkpt>
   <trkpt lat="45.7593290" lon="4.7691490">
    <ele>219.0</ele>
    <time>2023-09-12T05:16:34Z</time>
   </trkpt>
   <trkpt lat="45.7592920" lon="4.7691410">
    <ele>219.0</ele>
    <time>2023-09-12T05:16:35Z</time>
   </trkpt>
   <trkpt lat="45.7592530" lon="4.7691350">
    <ele>219.1</ele>
    <time>2023-09-12T05:16:36Z</time>
   </trkpt>
   <trkpt lat="45.7592350" lon="4.7691370">
    <ele>219.1</ele>
    <time>2023-09-12T05:16:37Z</time>
   </trkpt>
   <trkpt lat="45.7591960" lon="4.7691300">
    <ele>219.1</ele>
    <time>2023-09-12T05:16:38Z</time>
   </trkpt>
   <trkpt lat="45.7591830" lon="4.7691220">
    <ele>219.2</ele>
    <time>2023-09-12T05:16:39Z</time>
   </trkpt>
   <trkpt lat="45.7591420" lon="4.7691300">
    <ele>219.2</ele>
    <time>2023-09-12T05:16:40Z</time>
   </trkpt>
   <trkpt lat="45.7591250" lon="4.7691220">
    <ele>219.2</ele>
    <time>2023-09-12T05:16:41Z</time>
   </trkpt>
   <trkpt lat="45.7590980" lon="4.7691270">
    <ele>219.3</ele>
    <time>2023-09-12T05:16:42Z</time>
   </trkpt>
   <trkpt lat="45.7590700" lon="4.7691350">
    <ele>219.3</ele>
    <time>2023-09-12T05:16:43Z</time>
   </trkpt>
   <trkpt lat="45.7590420" lon="4.7691100">
    <ele>219.5</ele>
    <time>2023-09-12T05:16:44Z</time>
   </trkpt>
   <trkpt lat="45.7590130" lon="4.7690820">
    <ele>219.5</ele>
    <time>2023-09-12T05:16:45Z</time>
   </trkpt>
   <trkpt lat="45.7590030" lon="4.7690770">
    <ele>219.5</ele>
    <time>2023-09-12T05:16:46Z</time>
   </trkpt>
   <trkpt lat="45.7589950" lon="4.7690180">
    <ele>219.5</ele>
    <time>2023-09-12T05:16:47Z</time>
   </trkpt>
   <trkpt lat="45.7589920" lon="4.7689540">
    <ele>219.5</ele>
    <time>2023-09-12T05:16:48Z</time>
   </trkpt>
   <trkpt lat="45.7589830" lon="4.7688940">
    <ele>219.4</ele>
    <time>2023-09-12T05:16:49Z</time>
   </trkpt>
   <trkpt lat="45.7589840" lon="4.7688550">
    <ele>219.4</ele>
    <time>2023-09-12T05:16:50Z</time>
   </trkpt>
   <trkpt lat="45.7589840" lon="4.7688400">
    <ele>219.4</ele>
    <time>2023-09-12T05:16:51Z</time>
   </trkpt>
   <trkpt lat="45.7589800" lon="4.7687750">
    <ele>219.4</ele>
    <time>2023-09-12T05:16:52Z</time>
   </trkpt>
   <trkpt lat="45.7589790" lon="4.7687460">
    <ele>219.4</ele>
    <time>2023-09-12T05:16:53Z</time>
   </trkpt>
   <trkpt lat="45.7589640" lon="4.7687030">
    <ele>219.4</ele>
    <time>2023-09-12T05:16:54Z</time>
   </trkpt>
   <trkpt lat="45.7589740" lon="4.7686450">
    <ele>219.4</ele>
    <time>2023-09-12T05:16:55Z</time>
   </trkpt>
   <trkpt lat="45.7589680" lon="4.7685990">
    <ele>219.4</ele>
    <time>2023-09-12T05:16:56Z</time>
   </trkpt>
   <trkpt lat="45.7589870" lon="4.7685450">
    <ele>219.5</ele>
    <time>2023-09-12T05:16:57Z</time>
   </trkpt>
   <trkpt lat="45.7589870" lon="4.7685170">
    <ele>219.5</ele>
    <time>2023-09-12T05:16:58Z</time>
   </trkpt>
   <trkpt lat="45.7589840" lon="4.7684740">
    <ele>219.5</ele>
    <time>2023-09-12T05:16:59Z</time>
   </trkpt>
   <trkpt lat="45.7589780" lon="4.7684610">
    <ele>219.5</ele>
    <time>2023-09-12T05:17:00Z</time>
   </trkpt>
   <trkpt lat="45.7589610" lon="4.7684220">
    <ele>219.5</ele>
    <time>2023-09-12T05:17:01Z</time>
   </trkpt>
   <trkpt lat="45.7589350" lon="4.7683700">
    <ele>219.6</ele>
    <time>2023-09-12T05:17:02Z</time>
   </trkpt>
   <trkpt lat="45.7589230" lon="4.7683110">
    <ele>219.6</ele>
    <time>2023-09-12T05:17:03Z</time>
   </trkpt>
   <trkpt lat="45.7589200" lon="4.7682830">
    <ele>219.6</ele>
    <time>2023-09-12T05:17:04Z</time>
   </trkpt>
   <trkpt lat="45.7588950" lon="4.7682450">
    <ele>219.6</ele>
    <time>2023-09-12T05:17:05Z</time>
   </trkpt>
   <trkpt lat="45.7588750" lon="4.7681930">
    <ele>219.7</ele>
    <time>2023-09-12T05:17:06Z</time>
   </trkpt>
   <trkpt lat="45.7588620" lon="4.7681700">
    <ele>219.7</ele>
    <time>2023-09-12T05:17:07Z</time>
   </trkpt>
   <trkpt lat="45.7588300" lon="4.7681440">
    <ele>219.7</ele>
    <time>2023-09-12T05:17:08Z</time>
   </trkpt>
   <trkpt lat="45.7588130" lon="4.7681130">
    <ele>219.7</ele>
    <time>2023-09-12T05:17:09Z</time>
   </trkpt>
   <trkpt lat="45.7587920" lon="4.7680740">
    <ele>219.8</ele>
    <time>2023-09-12T05:17:10Z</time>
   </trkpt>
   <trkpt lat="45.7587640" lon="4.7680330">
    <ele>219.8</ele>
    <time>2023-09-12T05:17:11Z</time>
   </trkpt>
   <trkpt lat="45.7587770" lon="4.7679880">
    <ele>219.9</ele>
    <time>2023-09-12T05:17:12Z</time>
   </trkpt>
   <trkpt lat="45.7587830" lon="4.7679360">
    <ele>220.0</ele>
    <time>2023-09-12T05:17:13Z</time>
   </trkpt>
   <trkpt lat="45.7587910" lon="4.7678820">
    <ele>220.0</ele>
    <time>2023-09-12T05:17:14Z</time>
   </trkpt>
   <trkpt lat="45.7587880" lon="4.7678280">
    <ele>220.1</ele>
    <time>2023-09-12T05:17:15Z</time>
   </trkpt>
   <trkpt lat="45.7587870" lon="4.7678040">
    <ele>220.1</ele>
    <time>2023-09-12T05:17:16Z</time>
   </trkpt>
   <trkpt lat="45.7588000" lon="4.7677550">
    <ele>220.2</ele>
    <time>2023-09-12T05:17:17Z</time>
   </trkpt>
   <trkpt lat="45.7588020" lon="4.7677140">
    <ele>220.3</ele>
    <time>2023-09-12T05:17:18Z</time>
   </trkpt>
   <trkpt lat="45.7587900" lon="4.7676630">
    <ele>220.4</ele>
    <time>2023-09-12T05:17:19Z</time>
   </trkpt>
   <trkpt lat="45.7587810" lon="4.7676150">
    <ele>220.4</ele>
    <time>2023-09-12T05:17:20Z</time>
   </trkpt>
   <trkpt lat="45.7587810" lon="4.7675600">
    <ele>220.5</ele>
    <time>2023-09-12T05:17:21Z</time>
   </trkpt>
   <trkpt lat="45.7587840" lon="4.7675370">
    <ele>220.6</ele>
    <time>2023-09-12T05:17:22Z</time>
   </trkpt>
   <trkpt lat="45.7587580" lon="4.7675080">
    <ele>220.6</ele>
    <time>2023-09-12T05:17:23Z</time>
   </trkpt>
   <trkpt lat="45.7587540" lon="4.7674460">
    <ele>220.7</ele>
    <time>2023-09-12T05:17:24Z</time>
   </trkpt>
   <trkpt lat="45.7587550" lon="4.7674200">
    <ele>220.8</ele>
    <time>2023-09-12T05:17:25Z</time>
   </trkpt>
   <trkpt lat="45.7587460" lon="4.7673760">
    <ele>220.8</ele>
    <time>2023-09-12T05:17:26Z</time>
   </trkpt>
   <trkpt lat="45.7587330" lon="4.7673590">
    <ele>221.1</ele>
    <time>2023-09-12T05:17:27Z</time>
   </trkpt>
   <trkpt lat="45.7586780" lon="4.7673420">
    <ele>221.2</ele>
    <time>2023-09-12T05:17:28Z</time>
   </trkpt>
   <trkpt lat="45.7586460" lon="4.7673440">
    <ele>221.2</ele>
    <time>2023-09-12T05:17:29Z</time>
   </trkpt>
   <trkpt lat="45.7586130" lon="4.7673600">
    <ele>221.2</ele>
    <time>2023-09-12T05:17:30Z</time>
   </trkpt>
   <trkpt lat="45.7585800" lon="4.7673710">
    <ele>221.3</ele>
    <time>2023-09-12T05:17:31Z</time>
   </trkpt>
   <trkpt lat="45.7585370" lon="4.7673880">
    <ele>221.3</ele>
    <time>2023-09-12T05:17:32Z</time>
   </trkpt>
   <trkpt lat="45.7585200" lon="4.7673960">
    <ele>221.3</ele>
    <time>2023-09-12T05:17:33Z</time>
   </trkpt>
   <trkpt lat="45.7584810" lon="4.7673920">
    <ele>221.3</ele>
    <time>2023-09-12T05:17:34Z</time>
   </trkpt>
   <trkpt lat="45.7584670" lon="4.7673860">
    <ele>221.4</ele>
    <time>2023-09-12T05:17:35Z</time>
   </trkpt>
   <trkpt lat="45.7584250" lon="4.7673860">
    <ele>221.4</ele>
    <time>2023-09-12T05:17:36Z</time>
   </trkpt>
   <trkpt lat="45.7584080" lon="4.7673860">
    <ele>221.4</ele>
    <time>2023-09-12T05:17:37Z</time>
   </trkpt>
   <trkpt lat="45.7583790" lon="4.7673730">
    <ele>221.4</ele>
    <time>2023-09-12T05:17:38Z</time>
   </trkpt>
   <trkpt lat="45.7583320" lon="4.7673750">
    <ele>221.5</ele>
    <time>2023-09-12T05:17:39Z</time>
   </trkpt>
   <trkpt lat="45.7582990" lon="4.7673700">
    <ele>221.5</ele>
    <time>2023-09-12T05:17:40Z</time>
   </trkpt>
   <trkpt lat="45.7582920" lon="4.7673720">
    <ele>221.5</ele>
    <time>2023-09-12T05:17:41Z</time>
   </trkpt>
   <trkpt lat="45.7582640" lon="4.7673790">
    <ele>221.5</ele>
    <time>2023-09-12T05:17:42Z</time>
   </trkpt>
   <trkpt lat="45.7582340" lon="4.7673830">
    <ele>221.6</ele>
    <time>2023-09-12T05:17:43Z</time>
   </trkpt>
   <trkpt lat="45.7581880" lon="4.7673730">
    <ele>221.6</ele>
    <time>2023-09-12T05:17:44Z</time>
   </trkpt>
   <trkpt lat="45.7581640" lon="4.7673720">
    <ele>221.6</ele>
    <time>2023-09-12T05:17:45Z</time>
   </trkpt>
   <trkpt lat="45.7581270" lon="4.7673670">
    <ele>221.7</ele>
    <time>2023-09-12T05:17:46Z</time>
   </trkpt>
   <trkpt lat="45.7580960" lon="4.7673680">
    <ele>221.7</ele>
    <time>2023-09-12T05:17:47Z</time>
   </trkpt>
   <trkpt lat="45.7580880" lon="4.7673690">
    <ele>221.7</ele>
    <time>2023-09-12T05:17:48Z</time>
   </trkpt>
   <trkpt lat="45.7580560" lon="4.7673720">
    <ele>221.7</ele>
    <time>2023-09-12T05:17:49Z</time>
   </trkpt>
   <trkpt lat="45.7580270" lon="4.7673760">
    <ele>221.7</ele>
    <time>2023-09-12T05:17:50Z</time>
   </trkpt>
   <trkpt lat="45.7580000" lon="4.7673780">
    <ele>221.7</ele>
    <time>2023-09-12T05:17:51Z</time>
   </trkpt>
   <trkpt lat="45.7579670" lon="4.7673950">
    <ele>221.8</ele>
    <time>2023-09-12T05:17:52Z</time>
   </trkpt>
   <trkpt lat="45.7579260" lon="4.7673880">
    <ele>221.8</ele>
    <time>2023-09-12T05:17:53Z</time>
   </trkpt>
   <trkpt lat="45.7579080" lon="4.7673870">
    <ele>221.8</ele>
    <time>2023-09-12T05:17:54Z</time>
   </trkpt>
   <trkpt lat="45.7578720" lon="4.7673860">
    <ele>221.8</ele>
    <time>2023-09-12T05:17:55Z</time>
   </trkpt>
   <trkpt lat="45.7578340" lon="4.7673860">
    <ele>221.9</ele>
    <time>2023-09-12T05:17:56Z</time>
   </trkpt>
   <trkpt lat="45.7578180" lon="4.7673860">
    <ele>221.9</ele>
    <time>2023-09-12T05:17:57Z</time>
   </trkpt>
   <trkpt lat="45.7577850" lon="4.7673920">
    <ele>221.9</ele>
    <time>2023-09-12T05:17:58Z</time>
   </trkpt>
   <trkpt lat="45.7577750" lon="4.7673950">
    <ele>221.9</ele>
    <time>2023-09-12T05:17:59Z</time>
   </trkpt>
   <trkpt lat="45.7577530" lon="4.7673770">
    <ele>221.9</ele>
    <time>2023-09-12T05:18:00Z</time>
   </trkpt>
   <trkpt lat="45.7577180" lon="4.7673540">
    <ele>221.9</ele>
    <time>2023-09-12T05:18:01Z</time>
   </trkpt>
   <trkpt lat="45.7576760" lon="4.7673630">
    <ele>221.9</ele>
    <time>2023-09-12T05:18:02Z</time>
   </trkpt>
   <trkpt lat="45.7576560" lon="4.7673630">
    <ele>221.9</ele>
    <time>2023-09-12T05:18:03Z</time>
   </trkpt>
   <trkpt lat="45.7576170" lon="4.7673660">
    <ele>221.8</ele>
    <time>2023-09-12T05:18:04Z</time>
   </trkpt>
   <trkpt lat="45.7576050" lon="4.7673600">
    <ele>221.8</ele>
    <time>2023-09-12T05:18:05Z</time>
   </trkpt>
   <trkpt lat="45.7575680" lon="4.7673630">
    <ele>221.8</ele>
    <time>2023-09-12T05:18:06Z</time>
   </trkpt>
   <trkpt lat="45.7575280" lon="4.7673600">
    <ele>221.8</ele>
    <time>2023-09-12T05:18:07Z</time>
   </trkpt>
   <trkpt lat="45.7575100" lon="4.7673500">
    <ele>221.8</ele>
    <time>2023-09-12T05:18:08Z</time>
   </trkpt>
   <trkpt lat="45.7574810" lon="4.7673660">
    <ele>221.8</ele>
    <time>2023-09-12T05:18:09Z</time>
   </trkpt>
   <trkpt lat="45.7574410" lon="4.7673770">
    <ele>221.8</ele>
    <time>2023-09-12T05:18:10Z</time>
   </trkpt>
   <trkpt lat="45.7574200" lon="4.7673820">
    <ele>221.8</ele>
    <time>2023-09-12T05:18:11Z</time>
   </trkpt>
   <trkpt lat="45.7573930" lon="4.7673780">
    <ele>221.8</ele>
    <time>2023-09-12T05:18:12Z</time>
   </trkpt>
   <trkpt lat="45.7573570" lon="4.7673790">
    <ele>221.9</ele>
    <time>2023-09-12T05:18:13Z</time>
   </trkpt>
   <trkpt lat="45.7573150" lon="4.7673810">
    <ele>221.9</ele>
    <time>2023-09-12T05:18:14Z</time>
   </trkpt>
   <trkpt lat="45.7572980" lon="4.7673850">
    <ele>221.9</ele>
    <time>2023-09-12T05:18:15Z</time>
   </trkpt>
   <trkpt lat="45.7572590" lon="4.7673880">
    <ele>221.9</ele>
    <time>2023-09-12T05:18:16Z</time>
   </trkpt>
   <trkpt lat="45.7572380" lon="4.7673880">
    <ele>221.9</ele>
    <time>2023-09-12T05:18:17Z</time>
   </trkpt>
   <trkpt lat="45.7572000" lon="4.7673930">
    <ele>221.9</ele>
    <time>2023-09-12T05:18:18Z</time>
   </trkpt>
   <trkpt lat="45.7571860" lon="4.7673900">
    <ele>221.9</ele>
    <time>2023-09-12T05:18:19Z</time>
   </trkpt>
   <trkpt lat="45.7571560" lon="4.7673870">
    <ele>222.0</ele>
    <time>2023-09-12T05:18:20Z</time>
   </trkpt>
   <trkpt lat="45.7571260" lon="4.7673900">
    <ele>222.0</ele>
    <time>2023-09-12T05:18:21Z</time>
   </trkpt>
   <trkpt lat="45.7570830" lon="4.7673940">
    <ele>222.0</ele>
    <time>2023-09-12T05:18:22Z</time>
   </trkpt>
   <trkpt lat="45.7570660" lon="4.7673990">
    <ele>222.0</ele>
    <time>2023-09-12T05:18:23Z</time>
   </trkpt>
   <trkpt lat="45.7570320" lon="4.7674200">
    <ele>222.1</ele>
    <time>2023-09-12T05:18:24Z</time>
   </trkpt>
   <trkpt lat="45.7569950" lon="4.7674280">
    <ele>222.1</ele>
    <time>2023-09-12T05:18:25Z</time>
   </trkpt>
   <trkpt lat="45.7569840" lon="4.7674350">
    <ele>222.1</ele>
    <time>2023-09-12T05:18:26Z</time>
   </trkpt>
   <trkpt lat="45.7569490" lon="4.7674090">
    <ele>222.1</ele>
    <time>2023-09-12T05:18:27Z</time>
   </trkpt>
   <trkpt lat="45.7569140" lon="4.7674160">
    <ele>222.2</ele>
    <time>2023-09-12T05:18:28Z</time>
   </trkpt>
   <trkpt lat="45.7568790" lon="4.7674070">
    <ele>222.2</ele>
    <time>2023-09-12T05:18:29Z</time>
   </trkpt>
   <trkpt lat="45.7568420" lon="4.7674310">
    <ele>222.2</ele>
    <time>2023-09-12T05:18:30Z</time>
   </trkpt>
   <trkpt lat="45.7568290" lon="4.7674420">
    <ele>222.2</ele>
    <time>2023-09-12T05:18:31Z</time>
   </trkpt>
   <trkpt lat="45.7567930" lon="4.7674410">
    <ele>222.3</ele>
    <time>2023-09-12T05:18:32Z</time>
   </trkpt>
   <trkpt lat="45.7567830" lon="4.7674390">
    <ele>222.3</ele>
    <time>2023-09-12T05:18:33Z</time>
   </trkpt>
   <trkpt lat="45.7567500" lon="4.7674230">
    <ele>222.3</ele>
    <time>2023-09-12T05:18:34Z</time>
   </trkpt>
   <trkpt lat="45.7567050" lon="4.7674150">
    <ele>222.3</ele>
    <time>2023-09-12T05:18:35Z</time>
   </trkpt>
   <trkpt lat="45.7566630" lon="4.7674030">
    <ele>222.4</ele>
    <time>2023-09-12T05:18:36Z</time>
   </trkpt>
   <trkpt lat="45.7566270" lon="4.7674080">
    <ele>222.4</ele>
    <time>2023-09-12T05:18:37Z</time>
   </trkpt>
   <trkpt lat="45.7565960" lon="4.7674150">
    <ele>222.4</ele>
    <time>2023-09-12T05:18:38Z</time>
   </trkpt>
   <trkpt lat="45.7565620" lon="4.7674150">
    <ele>222.4</ele>
    <time>2023-09-12T05:18:39Z</time>
   </trkpt>
   <trkpt lat="45.7565290" lon="4.7674120">
    <ele>222.4</ele>
    <time>2023-09-12T05:18:40Z</time>
   </trkpt>
   <trkpt lat="45.7564980" lon="4.7674150">
    <ele>222.5</ele>
    <time>2023-09-12T05:18:41Z</time>
   </trkpt>
   <trkpt lat="45.7564610" lon="4.7674210">
    <ele>222.5</ele>
    <time>2023-09-12T05:18:42Z</time>
   </trkpt>
   <trkpt lat="45.7564280" lon="4.7674260">
    <ele>222.5</ele>
    <time>2023-09-12T05:18:43Z</time>
   </trkpt>
   <trkpt lat="45.7564000" lon="4.7674230">
    <ele>222.5</ele>
    <time>2023-09-12T05:18:44Z</time>
   </trkpt>
   <trkpt lat="45.7563660" lon="4.7674060">
    <ele>222.5</ele>
    <time>2023-09-12T05:18:45Z</time>
   </trkpt>
   <trkpt lat="45.7563310" lon="4.7674180">
    <ele>222.6</ele>
    <time>2023-09-12T05:18:46Z</time>
   </trkpt>
   <trkpt lat="45.7562980" lon="4.7674290">
    <ele>222.6</ele>
    <time>2023-09-12T05:18:47Z</time>
   </trkpt>
   <trkpt lat="45.7562620" lon="4.7674320">
    <ele>222.6</ele>
    <time>2023-09-12T05:18:48Z</time>
   </trkpt>
   <trkpt lat="45.7562330" lon="4.7674310">
    <ele>222.6</ele>
    <time>2023-09-12T05:18:49Z</time>
   </trkpt>
   <trkpt lat="45.7562000" lon="4.7674320">
    <ele>222.7</ele>
    <time>2023-09-12T05:18:50Z</time>
   </trkpt>
   <trkpt lat="45.7561700" lon="4.7674370">
    <ele>222.7</ele>
    <time>2023-09-12T05:18:51Z</time>
   </trkpt>
   <trkpt lat="45.7561380" lon="4.7674480">
    <ele>222.7</ele>
    <time>2023-09-12T05:18:52Z</time>
   </trkpt>
   <trkpt lat="45.7561070" lon="4.7674360">
    <ele>222.7</ele>
    <time>2023-09-12T05:18:53Z</time>
   </trkpt>
   <trkpt lat="45.7560800" lon="4.7674340">
    <ele>222.7</ele>
    <time>2023-09-12T05:18:54Z</time>
   </trkpt>
   <trkpt lat="45.7560380" lon="4.7674320">
    <ele>222.7</ele>
    <time>2023-09-12T05:18:55Z</time>
   </trkpt>
   <trkpt lat="45.7560230" lon="4.7674280">
    <ele>222.7</ele>
    <time>2023-09-12T05:18:56Z</time>
   </trkpt>
   <trkpt lat="45.7559990" lon="4.7674500">
    <ele>222.8</ele>
    <time>2023-09-12T05:18:57Z</time>
   </trkpt>
   <trkpt lat="45.7559850" lon="4.7674530">
    <ele>222.8</ele>
    <time>2023-09-12T05:18:58Z</time>
   </trkpt>
   <trkpt lat="45.7559590" lon="4.7674630">
    <ele>222.8</ele>
    <time>2023-09-12T05:18:59Z</time>
   </trkpt>
   <trkpt lat="45.7559480" lon="4.7674680">
    <ele>222.8</ele>
    <time>2023-09-12T05:19:00Z</time>
   </trkpt>
   <trkpt lat="45.7559170" lon="4.7674510">
    <ele>222.8</ele>
    <time>2023-09-12T05:19:01Z</time>
   </trkpt>
   <trkpt lat="45.7558760" lon="4.7674500">
    <ele>222.7</ele>
    <time>2023-09-12T05:19:02Z</time>
   </trkpt>
   <trkpt lat="45.7558580" lon="4.7674420">
    <ele>222.7</ele>
    <time>2023-09-12T05:19:03Z</time>
   </trkpt>
   <trkpt lat="45.7557800" lon="4.7674830">
    <ele>222.7</ele>
    <time>2023-09-12T05:19:04Z</time>
   </trkpt>
   <trkpt lat="45.7557370" lon="4.7674920">
    <ele>222.7</ele>
    <time>2023-09-12T05:19:05Z</time>
   </trkpt>
   <trkpt lat="45.7556910" lon="4.7674920">
    <ele>222.7</ele>
    <time>2023-09-12T05:19:06Z</time>
   </trkpt>
   <trkpt lat="45.7556600" lon="4.7674740">
    <ele>222.7</ele>
    <time>2023-09-12T05:19:07Z</time>
   </trkpt>
   <trkpt lat="45.7556450" lon="4.7674600">
    <ele>222.6</ele>
    <time>2023-09-12T05:19:08Z</time>
   </trkpt>
   <trkpt lat="45.7556090" lon="4.7674640">
    <ele>222.6</ele>
    <time>2023-09-12T05:19:09Z</time>
   </trkpt>
   <trkpt lat="45.7555820" lon="4.7674550">
    <ele>222.6</ele>
    <time>2023-09-12T05:19:10Z</time>
   </trkpt>
   <trkpt lat="45.7555500" lon="4.7674350">
    <ele>222.6</ele>
    <time>2023-09-12T05:19:11Z</time>
   </trkpt>
   <trkpt lat="45.7554990" lon="4.7674750">
    <ele>222.6</ele>
    <time>2023-09-12T05:19:12Z</time>
   </trkpt>
   <trkpt lat="45.7554600" lon="4.7674800">
    <ele>222.6</ele>
    <time>2023-09-12T05:19:13Z</time>
   </trkpt>
   <trkpt lat="45.7554170" lon="4.7674800">
    <ele>222.6</ele>
    <time>2023-09-12T05:19:14Z</time>
   </trkpt>
   <trkpt lat="45.7553840" lon="4.7674700">
    <ele>222.6</ele>
    <time>2023-09-12T05:19:15Z</time>
   </trkpt>
   <trkpt lat="45.7553420" lon="4.7674700">
    <ele>222.6</ele>
    <time>2023-09-12T05:19:16Z</time>
   </trkpt>
   <trkpt lat="45.7553260" lon="4.7674680">
    <ele>222.6</ele>
    <time>2023-09-12T05:19:17Z</time>
   </trkpt>
   <trkpt lat="45.7552910" lon="4.7674510">
    <ele>222.6</ele>
    <time>2023-09-12T05:19:18Z</time>
   </trkpt>
   <trkpt lat="45.7552580" lon="4.7674520">
    <ele>222.6</ele>
    <time>2023-09-12T05:19:19Z</time>
   </trkpt>
   <trkpt lat="45.7552080" lon="4.7674840">
    <ele>222.5</ele>
    <time>2023-09-12T05:19:20Z</time>
   </trkpt>
   <trkpt lat="45.7551800" lon="4.7675090">
    <ele>222.5</ele>
    <time>2023-09-12T05:19:21Z</time>
   </trkpt>
   <trkpt lat="45.7551500" lon="4.7674830">
    <ele>222.5</ele>
    <time>2023-09-12T05:19:22Z</time>
   </trkpt>
   <trkpt lat="45.7551170" lon="4.7674460">
    <ele>222.4</ele>
    <time>2023-09-12T05:19:23Z</time>
   </trkpt>
   <trkpt lat="45.7550880" lon="4.7674580">
    <ele>222.4</ele>
    <time>2023-09-12T05:19:24Z</time>
   </trkpt>
   <trkpt lat="45.7550600" lon="4.7674440">
    <ele>222.4</ele>
    <time>2023-09-12T05:19:25Z</time>
   </trkpt>
   <trkpt lat="45.7550140" lon="4.7674460">
    <ele>222.4</ele>
    <time>2023-09-12T05:19:26Z</time>
   </trkpt>
   <trkpt lat="45.7549960" lon="4.7674470">
    <ele>222.4</ele>
    <time>2023-09-12T05:19:27Z</time>
   </trkpt>
   <trkpt lat="45.7549600" lon="4.7674600">
    <ele>222.3</ele>
    <time>2023-09-12T05:19:28Z</time>
   </trkpt>
   <trkpt lat="45.7549300" lon="4.7674710">
    <ele>222.3</ele>
    <time>2023-09-12T05:19:29Z</time>
   </trkpt>
   <trkpt lat="45.7548920" lon="4.7674770">
    <ele>222.3</ele>
    <time>2023-09-12T05:19:30Z</time>
   </trkpt>
   <trkpt lat="45.7548520" lon="4.7674600">
    <ele>222.3</ele>
    <time>2023-09-12T05:19:31Z</time>
   </trkpt>
   <trkpt lat="45.7548360" lon="4.7674550">
    <ele>222.3</ele>
    <time>2023-09-12T05:19:32Z</time>
   </trkpt>
   <trkpt lat="45.7548300" lon="4.7674340">
    <ele>222.3</ele>
    <time>2023-09-12T05:19:33Z</time>
   </trkpt>
   <trkpt lat="45.7548080" lon="4.7674290">
    <ele>222.3</ele>
    <time>2023-09-12T05:19:34Z</time>
   </trkpt>
   <trkpt lat="45.7547680" lon="4.7674160">
    <ele>222.2</ele>
    <time>2023-09-12T05:19:35Z</time>
   </trkpt>
   <trkpt lat="45.7547510" lon="4.7674140">
    <ele>222.2</ele>
    <time>2023-09-12T05:19:36Z</time>
   </trkpt>
   <trkpt lat="45.7546920" lon="4.7674440">
    <ele>222.2</ele>
    <time>2023-09-12T05:19:37Z</time>
   </trkpt>
   <trkpt lat="45.7546730" lon="4.7674500">
    <ele>222.2</ele>
    <time>2023-09-12T05:19:38Z</time>
   </trkpt>
   <trkpt lat="45.7546570" lon="4.7674470">
    <ele>222.2</ele>
    <time>2023-09-12T05:19:39Z</time>
   </trkpt>
   <trkpt lat="45.7546410" lon="4.7674450">
    <ele>222.1</ele>
    <time>2023-09-12T05:19:40Z</time>
   </trkpt>
   <trkpt lat="45.7546080" lon="4.7674460">
    <ele>222.1</ele>
    <time>2023-09-12T05:19:41Z</time>
   </trkpt>
   <trkpt lat="45.7545550" lon="4.7674460">
    <ele>222.1</ele>
    <time>2023-09-12T05:19:42Z</time>
   </trkpt>
   <trkpt lat="45.7545230" lon="4.7674390">
    <ele>222.1</ele>
    <time>2023-09-12T05:19:43Z</time>
   </trkpt>
   <trkpt lat="45.7544860" lon="4.7674470">
    <ele>222.1</ele>
    <time>2023-09-12T05:19:44Z</time>
   </trkpt>
   <trkpt lat="45.7544500" lon="4.7674520">
    <ele>222.1</ele>
    <time>2023-09-12T05:19:45Z</time>
   </trkpt>
   <trkpt lat="45.7544130" lon="4.7674680">
    <ele>222.0</ele>
    <time>2023-09-12T05:19:46Z</time>
   </trkpt>
   <trkpt lat="45.7543810" lon="4.7674880">
    <ele>222.0</ele>
    <time>2023-09-12T05:19:47Z</time>
   </trkpt>
   <trkpt lat="45.7543530" lon="4.7674920">
    <ele>222.0</ele>
    <time>2023-09-12T05:19:48Z</time>
   </trkpt>
   <trkpt lat="45.7543380" lon="4.7675030">
    <ele>222.0</ele>
    <time>2023-09-12T05:19:49Z</time>
   </trkpt>
   <trkpt lat="45.7542970" lon="4.7675120">
    <ele>221.9</ele>
    <time>2023-09-12T05:19:50Z</time>
   </trkpt>
   <trkpt lat="45.7542680" lon="4.7675130">
    <ele>221.9</ele>
    <time>2023-09-12T05:19:51Z</time>
   </trkpt>
   <trkpt lat="45.7542550" lon="4.7675330">
    <ele>221.9</ele>
    <time>2023-09-12T05:19:52Z</time>
   </trkpt>
   <trkpt lat="45.7542420" lon="4.7675400">
    <ele>221.9</ele>
    <time>2023-09-12T05:19:53Z</time>
   </trkpt>
   <trkpt lat="45.7542280" lon="4.7675480">
    <ele>221.8</ele>
    <time>2023-09-12T05:19:54Z</time>
   </trkpt>
   <trkpt lat="45.7541790" lon="4.7675260">
    <ele>221.8</ele>
    <time>2023-09-12T05:19:55Z</time>
   </trkpt>
   <trkpt lat="45.7541490" lon="4.7675340">
    <ele>221.8</ele>
    <time>2023-09-12T05:19:56Z</time>
   </trkpt>
   <trkpt lat="45.7541130" lon="4.7675510">
    <ele>221.7</ele>
    <time>2023-09-12T05:19:57Z</time>
   </trkpt>
   <trkpt lat="45.7540800" lon="4.7675320">
    <ele>221.7</ele>
    <time>2023-09-12T05:19:58Z</time>
   </trkpt>
   <trkpt lat="45.7540450" lon="4.7675320">
    <ele>221.6</ele>
    <time>2023-09-12T05:19:59Z</time>
   </trkpt>
   <trkpt lat="45.7540260" lon="4.7675340">
    <ele>221.6</ele>
    <time>2023-09-12T05:20:00Z</time>
   </trkpt>
   <trkpt lat="45.7539880" lon="4.7675290">
    <ele>221.5</ele>
    <time>2023-09-12T05:20:01Z</time>
   </trkpt>
   <trkpt lat="45.7539570" lon="4.7675350">
    <ele>221.5</ele>
    <time>2023-09-12T05:20:02Z</time>
   </trkpt>
   <trkpt lat="45.7539150" lon="4.7675270">
    <ele>221.5</ele>
    <time>2023-09-12T05:20:03Z</time>
   </trkpt>
   <trkpt lat="45.7539000" lon="4.7675260">
    <ele>221.4</ele>
    <time>2023-09-12T05:20:04Z</time>
   </trkpt>
   <trkpt lat="45.7538650" lon="4.7675290">
    <ele>221.4</ele>
    <time>2023-09-12T05:20:05Z</time>
   </trkpt>
   <trkpt lat="45.7538320" lon="4.7675260">
    <ele>221.4</ele>
    <time>2023-09-12T05:20:06Z</time>
   </trkpt>
   <trkpt lat="45.7538010" lon="4.7675220">
    <ele>221.4</ele>
    <time>2023-09-12T05:20:07Z</time>
   </trkpt>
   <trkpt lat="45.7537660" lon="4.7675140">
    <ele>221.3</ele>
    <time>2023-09-12T05:20:08Z</time>
   </trkpt>
   <trkpt lat="45.7537350" lon="4.7675060">
    <ele>221.3</ele>
    <time>2023-09-12T05:20:09Z</time>
   </trkpt>
   <trkpt lat="45.7537030" lon="4.7675050">
    <ele>221.3</ele>
    <time>2023-09-12T05:20:10Z</time>
   </trkpt>
   <trkpt lat="45.7536730" lon="4.7675040">
    <ele>221.3</ele>
    <time>2023-09-12T05:20:11Z</time>
   </trkpt>
   <trkpt lat="45.7536400" lon="4.7675000">
    <ele>221.2</ele>
    <time>2023-09-12T05:20:12Z</time>
   </trkpt>
   <trkpt lat="45.7536100" lon="4.7675000">
    <ele>221.2</ele>
    <time>2023-09-12T05:20:13Z</time>
   </trkpt>
   <trkpt lat="45.7535820" lon="4.7674990">
    <ele>221.2</ele>
    <time>2023-09-12T05:20:14Z</time>
   </trkpt>
   <trkpt lat="45.7535410" lon="4.7674860">
    <ele>221.1</ele>
    <time>2023-09-12T05:20:15Z</time>
   </trkpt>
   <trkpt lat="45.7535100" lon="4.7674730">
    <ele>221.1</ele>
    <time>2023-09-12T05:20:16Z</time>
   </trkpt>
   <trkpt lat="45.7534680" lon="4.7674780">
    <ele>221.1</ele>
    <time>2023-09-12T05:20:17Z</time>
   </trkpt>
   <trkpt lat="45.7534500" lon="4.7674830">
    <ele>221.0</ele>
    <time>2023-09-12T05:20:18Z</time>
   </trkpt>
   <trkpt lat="45.7534500" lon="4.7674810">
    <ele>221.0</ele>
    <time>2023-09-12T05:20:19Z</time>
   </trkpt>
   <trkpt lat="45.7534220" lon="4.7675030">
    <ele>221.0</ele>
    <time>2023-09-12T05:20:20Z</time>
   </trkpt>
   <trkpt lat="45.7533830" lon="4.7675020">
    <ele>221.0</ele>
    <time>2023-09-12T05:20:21Z</time>
   </trkpt>
   <trkpt lat="45.7533590" lon="4.7675000">
    <ele>220.9</ele>
    <time>2023-09-12T05:20:22Z</time>
   </trkpt>
   <trkpt lat="45.7533350" lon="4.7675080">
    <ele>220.9</ele>
    <time>2023-09-12T05:20:23Z</time>
   </trkpt>
   <trkpt lat="45.7533160" lon="4.7675090">
    <ele>220.9</ele>
    <time>2023-09-12T05:20:24Z</time>
   </trkpt>
   <trkpt lat="45.7532860" lon="4.7675340">
    <ele>220.8</ele>
    <time>2023-09-12T05:20:25Z</time>
   </trkpt>
   <trkpt lat="45.7532400" lon="4.7675190">
    <ele>220.8</ele>
    <time>2023-09-12T05:20:26Z</time>
   </trkpt>
   <trkpt lat="45.7532040" lon="4.7675000">
    <ele>220.8</ele>
    <time>2023-09-12T05:20:27Z</time>
   </trkpt>
   <trkpt lat="45.7531660" lon="4.7674810">
    <ele>220.7</ele>
    <time>2023-09-12T05:20:28Z</time>
   </trkpt>
   <trkpt lat="45.7531270" lon="4.7674690">
    <ele>220.7</ele>
    <time>2023-09-12T05:20:29Z</time>
   </trkpt>
   <trkpt lat="45.7530890" lon="4.7674780">
    <ele>220.6</ele>
    <time>2023-09-12T05:20:30Z</time>
   </trkpt>
   <trkpt lat="45.7530590" lon="4.7674860">
    <ele>220.6</ele>
    <time>2023-09-12T05:20:31Z</time>
   </trkpt>
   <trkpt lat="45.7530200" lon="4.7674890">
    <ele>220.6</ele>
    <time>2023-09-12T05:20:32Z</time>
   </trkpt>
   <trkpt lat="45.7530050" lon="4.7674940">
    <ele>220.5</ele>
    <time>2023-09-12T05:20:33Z</time>
   </trkpt>
   <trkpt lat="45.7529770" lon="4.7674820">
    <ele>220.5</ele>
    <time>2023-09-12T05:20:34Z</time>
   </trkpt>
   <trkpt lat="45.7529320" lon="4.7674740">
    <ele>220.4</ele>
    <time>2023-09-12T05:20:35Z</time>
   </trkpt>
   <trkpt lat="45.7528970" lon="4.7674870">
    <ele>220.4</ele>
    <time>2023-09-12T05:20:36Z</time>
   </trkpt>
   <trkpt lat="45.7528570" lon="4.7674940">
    <ele>220.3</ele>
    <time>2023-09-12T05:20:37Z</time>
   </trkpt>
   <trkpt lat="45.7528420" lon="4.7674960">
    <ele>220.3</ele>
    <time>2023-09-12T05:20:38Z</time>
   </trkpt>
   <trkpt lat="45.7528090" lon="4.7674970">
    <ele>220.3</ele>
    <time>2023-09-12T05:20:39Z</time>
   </trkpt>
   <trkpt lat="45.7527750" lon="4.7674900">
    <ele>220.2</ele>
    <time>2023-09-12T05:20:40Z</time>
   </trkpt>
   <trkpt lat="45.7527370" lon="4.7674930">
    <ele>220.2</ele>
    <time>2023-09-12T05:20:41Z</time>
   </trkpt>
   <trkpt lat="45.7527000" lon="4.7674740">
    <ele>220.1</ele>
    <time>2023-09-12T05:20:42Z</time>
   </trkpt>
   <trkpt lat="45.7526640" lon="4.7674680">
    <ele>220.0</ele>
    <time>2023-09-12T05:20:43Z</time>
   </trkpt>
   <trkpt lat="45.7526370" lon="4.7674740">
    <ele>220.0</ele>
    <time>2023-09-12T05:20:44Z</time>
   </trkpt>
   <trkpt lat="45.7526090" lon="4.7674890">
    <ele>219.9</ele>
    <time>2023-09-12T05:20:45Z</time>
   </trkpt>
   <trkpt lat="45.7525780" lon="4.7674950">
    <ele>219.9</ele>
    <time>2023-09-12T05:20:46Z</time>
   </trkpt>
   <trkpt lat="45.7525500" lon="4.7675000">
    <ele>219.8</ele>
    <time>2023-09-12T05:20:47Z</time>
   </trkpt>
   <trkpt lat="45.7525230" lon="4.7674830">
    <ele>219.8</ele>
    <time>2023-09-12T05:20:48Z</time>
   </trkpt>
   <trkpt lat="45.7525000" lon="4.7675050">
    <ele>219.7</ele>
    <time>2023-09-12T05:20:49Z</time>
   </trkpt>
   <trkpt lat="45.7524550" lon="4.7675060">
    <ele>219.7</ele>
    <time>2023-09-12T05:20:50Z</time>
   </trkpt>
   <trkpt lat="45.7524220" lon="4.7675460">
    <ele>219.6</ele>
    <time>2023-09-12T05:20:51Z</time>
   </trkpt>
   <trkpt lat="45.7524110" lon="4.7675730">
    <ele>219.6</ele>
    <time>2023-09-12T05:20:52Z</time>
   </trkpt>
   <trkpt lat="45.7523820" lon="4.7675670">
    <ele>219.6</ele>
    <time>2023-09-12T05:20:53Z</time>
   </trkpt>
   <trkpt lat="45.7523500" lon="4.7675610">
    <ele>219.5</ele>
    <time>2023-09-12T05:20:54Z</time>
   </trkpt>
   <trkpt lat="45.7523240" lon="4.7675490">
    <ele>219.5</ele>
    <time>2023-09-12T05:20:55Z</time>
   </trkpt>
   <trkpt lat="45.7522790" lon="4.7675520">
    <ele>219.5</ele>
    <time>2023-09-12T05:20:56Z</time>
   </trkpt>
   <trkpt lat="45.7522460" lon="4.7675530">
    <ele>219.5</ele>
    <time>2023-09-12T05:20:57Z</time>
   </trkpt>
   <trkpt lat="45.7522140" lon="4.7675530">
    <ele>219.5</ele>
    <time>2023-09-12T05:20:58Z</time>
   </trkpt>
   <trkpt lat="45.7521850" lon="4.7675590">
    <ele>219.3</ele>
    <time>2023-09-12T05:20:59Z</time>
   </trkpt>
   <trkpt lat="45.7521570" lon="4.7675820">
    <ele>219.2</ele>
    <time>2023-09-12T05:21:00Z</time>
   </trkpt>
   <trkpt lat="45.7521510" lon="4.7676010">
    <ele>219.2</ele>
    <time>2023-09-12T05:21:01Z</time>
   </trkpt>
   <trkpt lat="45.7521760" lon="4.7676360">
    <ele>219.1</ele>
    <time>2023-09-12T05:21:02Z</time>
   </trkpt>
   <trkpt lat="45.7522030" lon="4.7676580">
    <ele>219.0</ele>
    <time>2023-09-12T05:21:03Z</time>
   </trkpt>
   <trkpt lat="45.7522260" lon="4.7676820">
    <ele>219.0</ele>
    <time>2023-09-12T05:21:04Z</time>
   </trkpt>
   <trkpt lat="45.7522350" lon="4.7677360">
    <ele>218.9</ele>
    <time>2023-09-12T05:21:05Z</time>
   </trkpt>
   <trkpt lat="45.7522660" lon="4.7677370">
    <ele>218.8</ele>
    <time>2023-09-12T05:21:06Z</time>
   </trkpt>
   <trkpt lat="45.7522950" lon="4.7677370">
    <ele>218.7</ele>
    <time>2023-09-12T05:21:07Z</time>
   </trkpt>
   <trkpt lat="45.7523200" lon="4.7677560">
    <ele>218.7</ele>
    <time>2023-09-12T05:21:08Z</time>
   </trkpt>
   <trkpt lat="45.7523380" lon="4.7678010">
    <ele>218.6</ele>
    <time>2023-09-12T05:21:09Z</time>
   </trkpt>
   <trkpt lat="45.7523590" lon="4.7678340">
    <ele>218.6</ele>
    <time>2023-09-12T05:21:10Z</time>
   </trkpt>
   <trkpt lat="45.7523970" lon="4.7678430">
    <ele>218.5</ele>
    <time>2023-09-12T05:21:11Z</time>
   </trkpt>
   <trkpt lat="45.7524170" lon="4.7678690">
    <ele>218.5</ele>
    <time>2023-09-12T05:21:12Z</time>
   </trkpt>
   <trkpt lat="45.7524480" lon="4.7679110">
    <ele>218.4</ele>
    <time>2023-09-12T05:21:13Z</time>
   </trkpt>
   <trkpt lat="45.7524630" lon="4.7679220">
    <ele>218.4</ele>
    <time>2023-09-12T05:21:14Z</time>
   </trkpt>
   <trkpt lat="45.7524840" lon="4.7679500">
    <ele>218.4</ele>
    <time>2023-09-12T05:21:15Z</time>
   </trkpt>
   <trkpt lat="45.7525060" lon="4.7679880">
    <ele>218.3</ele>
    <time>2023-09-12T05:21:16Z</time>
   </trkpt>
   <trkpt lat="45.7525440" lon="4.7680130">
    <ele>218.3</ele>
    <time>2023-09-12T05:21:17Z</time>
   </trkpt>
   <trkpt lat="45.7525550" lon="4.7680350">
    <ele>218.3</ele>
    <time>2023-09-12T05:21:18Z</time>
   </trkpt>
   <trkpt lat="45.7525810" lon="4.7680550">
    <ele>218.2</ele>
    <time>2023-09-12T05:21:19Z</time>
   </trkpt>
   <trkpt lat="45.7526040" lon="4.7680880">
    <ele>218.2</ele>
    <time>2023-09-12T05:21:20Z</time>
   </trkpt>
   <trkpt lat="45.7526220" lon="4.7681180">
    <ele>218.2</ele>
    <time>2023-09-12T05:21:21Z</time>
   </trkpt>
   <trkpt lat="45.7526440" lon="4.7681680">
    <ele>218.2</ele>
    <time>2023-09-12T05:21:22Z</time>
   </trkpt>
   <trkpt lat="45.7526720" lon="4.7681800">
    <ele>218.2</ele>
    <time>2023-09-12T05:21:23Z</time>
   </trkpt>
   <trkpt lat="45.7526990" lon="4.7682210">
    <ele>218.2</ele>
    <time>2023-09-12T05:21:24Z</time>
   </trkpt>
   <trkpt lat="45.7527210" lon="4.7682670">
    <ele>218.2</ele>
    <time>2023-09-12T05:21:25Z</time>
   </trkpt>
   <trkpt lat="45.7527450" lon="4.7682900">
    <ele>218.1</ele>
    <time>2023-09-12T05:21:26Z</time>
   </trkpt>
   <trkpt lat="45.7527730" lon="4.7683110">
    <ele>218.1</ele>
    <time>2023-09-12T05:21:27Z</time>
   </trkpt>
   <trkpt lat="45.7527990" lon="4.7683420">
    <ele>218.1</ele>
    <time>2023-09-12T05:21:28Z</time>
   </trkpt>
   <trkpt lat="45.7528240" lon="4.7683630">
    <ele>218.1</ele>
    <time>2023-09-12T05:21:29Z</time>
   </trkpt>
   <trkpt lat="45.7528490" lon="4.7684060">
    <ele>218.1</ele>
    <time>2023-09-12T05:21:30Z</time>
   </trkpt>
   <trkpt lat="45.7528600" lon="4.7684180">
    <ele>218.1</ele>
    <time>2023-09-12T05:21:31Z</time>
   </trkpt>
   <trkpt lat="45.7528850" lon="4.7684480">
    <ele>218.1</ele>
    <time>2023-09-12T05:21:32Z</time>
   </trkpt>
   <trkpt lat="45.7529100" lon="4.7684670">
    <ele>218.0</ele>
    <time>2023-09-12T05:21:33Z</time>
   </trkpt>
   <trkpt lat="45.7529340" lon="4.7685030">
    <ele>218.0</ele>
    <time>2023-09-12T05:21:34Z</time>
   </trkpt>
   <trkpt lat="45.7529560" lon="4.7685290">
    <ele>218.0</ele>
    <time>2023-09-12T05:21:35Z</time>
   </trkpt>
   <trkpt lat="45.7529680" lon="4.7685680">
    <ele>218.0</ele>
    <time>2023-09-12T05:21:36Z</time>
   </trkpt>
   <trkpt lat="45.7529950" lon="4.7686020">
    <ele>217.9</ele>
    <time>2023-09-12T05:21:37Z</time>
   </trkpt>
   <trkpt lat="45.7530030" lon="4.7686540">
    <ele>217.9</ele>
    <time>2023-09-12T05:21:38Z</time>
   </trkpt>
   <trkpt lat="45.7530130" lon="4.7686900">
    <ele>217.9</ele>
    <time>2023-09-12T05:21:39Z</time>
   </trkpt>
   <trkpt lat="45.7530290" lon="4.7687250">
    <ele>217.9</ele>
    <time>2023-09-12T05:21:40Z</time>
   </trkpt>
   <trkpt lat="45.7530560" lon="4.7687470">
    <ele>217.8</ele>
    <time>2023-09-12T05:21:41Z</time>
   </trkpt>
   <trkpt lat="45.7530800" lon="4.7687880">
    <ele>217.8</ele>
    <time>2023-09-12T05:21:42Z</time>
   </trkpt>
   <trkpt lat="45.7531060" lon="4.7688190">
    <ele>217.8</ele>
    <time>2023-09-12T05:21:43Z</time>
   </trkpt>
   <trkpt lat="45.7531340" lon="4.7688430">
    <ele>217.7</ele>
    <time>2023-09-12T05:21:44Z</time>
   </trkpt>
   <trkpt lat="45.7531580" lon="4.7688640">
    <ele>217.7</ele>
    <time>2023-09-12T05:21:45Z</time>
   </trkpt>
   <trkpt lat="45.7531870" lon="4.7688960">
    <ele>217.7</ele>
    <time>2023-09-12T05:21:46Z</time>
   </trkpt>
   <trkpt lat="45.7532280" lon="4.7689070">
    <ele>217.6</ele>
    <time>2023-09-12T05:21:47Z</time>
   </trkpt>
   <trkpt lat="45.7532540" lon="4.7689340">
    <ele>217.6</ele>
    <time>2023-09-12T05:21:48Z</time>
   </trkpt>
   <trkpt lat="45.7532860" lon="4.7689530">
    <ele>217.6</ele>
    <time>2023-09-12T05:21:49Z</time>
   </trkpt>
   <trkpt lat="45.7533230" lon="4.7689750">
    <ele>217.6</ele>
    <time>2023-09-12T05:21:50Z</time>
   </trkpt>
   <trkpt lat="45.7533540" lon="4.7690020">
    <ele>217.5</ele>
    <time>2023-09-12T05:21:51Z</time>
   </trkpt>
   <trkpt lat="45.7533780" lon="4.7690310">
    <ele>217.5</ele>
    <time>2023-09-12T05:21:52Z</time>
   </trkpt>
   <trkpt lat="45.7533910" lon="4.7690460">
    <ele>217.5</ele>
    <time>2023-09-12T05:21:53Z</time>
   </trkpt>
   <trkpt lat="45.7534200" lon="4.7690780">
    <ele>217.5</ele>
    <time>2023-09-12T05:21:54Z</time>
   </trkpt>
   <trkpt lat="45.7534270" lon="4.7690960">
    <ele>217.5</ele>
    <time>2023-09-12T05:21:55Z</time>
   </trkpt>
   <trkpt lat="45.7534480" lon="4.7691150">
    <ele>217.5</ele>
    <time>2023-09-12T05:21:56Z</time>
   </trkpt>
   <trkpt lat="45.7534550" lon="4.7691300">
    <ele>217.5</ele>
    <time>2023-09-12T05:21:57Z</time>
   </trkpt>
   <trkpt lat="45.7534790" lon="4.7691560">
    <ele>217.5</ele>
    <time>2023-09-12T05:21:58Z</time>
   </trkpt>
   <trkpt lat="45.7534920" lon="4.7691720">
    <ele>217.5</ele>
    <time>2023-09-12T05:21:59Z</time>
   </trkpt>
   <trkpt lat="45.7535120" lon="4.7692140">
    <ele>217.5</ele>
    <time>2023-09-12T05:22:00Z</time>
   </trkpt>
   <trkpt lat="45.7535300" lon="4.7692300">
    <ele>217.5</ele>
    <time>2023-09-12T05:22:01Z</time>
   </trkpt>
   <trkpt lat="45.7535530" lon="4.7692520">
    <ele>217.5</ele>
    <time>2023-09-12T05:22:02Z</time>
   </trkpt>
   <trkpt lat="45.7535660" lon="4.7692620">
    <ele>217.5</ele>
    <time>2023-09-12T05:22:03Z</time>
   </trkpt>
   <trkpt lat="45.7535900" lon="4.7692900">
    <ele>217.5</ele>
    <time>2023-09-12T05:22:05Z</time>
   </trkpt>
   <trkpt lat="45.7535930" lon="4.7693030">
    <ele>217.5</ele>
    <time>2023-09-12T05:22:06Z</time>
   </trkpt>
   <trkpt lat="45.7536340" lon="4.7693080">
    <ele>217.5</ele>
    <time>2023-09-12T05:22:07Z</time>
   </trkpt>
   <trkpt lat="45.7536590" lon="4.7693310">
    <ele>217.5</ele>
    <time>2023-09-12T05:22:08Z</time>
   </trkpt>
   <trkpt lat="45.7536650" lon="4.7693500">
    <ele>217.5</ele>
    <time>2023-09-12T05:22:09Z</time>
   </trkpt>
   <trkpt lat="45.7537000" lon="4.7693820">
    <ele>217.5</ele>
    <time>2023-09-12T05:22:10Z</time>
   </trkpt>
   <trkpt lat="45.7537130" lon="4.7694080">
    <ele>217.5</ele>
    <time>2023-09-12T05:22:11Z</time>
   </trkpt>
   <trkpt lat="45.7537440" lon="4.7694470">
    <ele>217.6</ele>
    <time>2023-09-12T05:22:12Z</time>
   </trkpt>
   <trkpt lat="45.7537600" lon="4.7695130">
    <ele>217.6</ele>
    <time>2023-09-12T05:22:13Z</time>
   </trkpt>
   <trkpt lat="45.7537950" lon="4.7695640">
    <ele>217.6</ele>
    <time>2023-09-12T05:22:14Z</time>
   </trkpt>
   <trkpt lat="45.7538330" lon="4.7695870">
    <ele>217.6</ele>
    <time>2023-09-12T05:22:15Z</time>
   </trkpt>
   <trkpt lat="45.7538580" lon="4.7696270">
    <ele>217.6</ele>
    <time>2023-09-12T05:22:16Z</time>
   </trkpt>
   <trkpt lat="45.7538950" lon="4.7696850">
    <ele>217.6</ele>
    <time>2023-09-12T05:22:17Z</time>
   </trkpt>
   <trkpt lat="45.7539280" lon="4.7696990">
    <ele>217.6</ele>
    <time>2023-09-12T05:22:18Z</time>
   </trkpt>
   <trkpt lat="45.7539460" lon="4.7697150">
    <ele>217.6</ele>
    <time>2023-09-12T05:22:19Z</time>
   </trkpt>
   <trkpt lat="45.7539790" lon="4.7697420">
    <ele>217.6</ele>
    <time>2023-09-12T05:22:20Z</time>
   </trkpt>
   <trkpt lat="45.7540090" lon="4.7697950">
    <ele>217.6</ele>
    <time>2023-09-12T05:22:21Z</time>
   </trkpt>
   <trkpt lat="45.7540440" lon="4.7698260">
    <ele>217.6</ele>
    <time>2023-09-12T05:22:22Z</time>
   </trkpt>
   <trkpt lat="45.7540570" lon="4.7698810">
    <ele>217.6</ele>
    <time>2023-09-12T05:22:23Z</time>
   </trkpt>
   <trkpt lat="45.7540950" lon="4.7699140">
    <ele>217.6</ele>
    <time>2023-09-12T05:22:24Z</time>
   </trkpt>
   <trkpt lat="45.7541130" lon="4.7699560">
    <ele>217.6</ele>
    <time>2023-09-12T05:22:25Z</time>
   </trkpt>
   <trkpt lat="45.7541370" lon="4.7699950">
    <ele>217.6</ele>
    <time>2023-09-12T05:22:26Z</time>
   </trkpt>
   <trkpt lat="45.7541910" lon="4.7699980">
    <ele>217.6</ele>
    <time>2023-09-12T05:22:27Z</time>
   </trkpt>
   <trkpt lat="45.7542220" lon="4.7700180">
    <ele>217.6</ele>
    <time>2023-09-12T05:22:28Z</time>
   </trkpt>
   <trkpt lat="45.7542600" lon="4.7700450">
    <ele>217.6</ele>
    <time>2023-09-12T05:22:29Z</time>
   </trkpt>
   <trkpt lat="45.7542840" lon="4.7700680">
    <ele>217.6</ele>
    <time>2023-09-12T05:22:30Z</time>
   </trkpt>
   <trkpt lat="45.7543140" lon="4.7701090">
    <ele>217.6</ele>
    <time>2023-09-12T05:22:31Z</time>
   </trkpt>
   <trkpt lat="45.7543420" lon="4.7701580">
    <ele>217.6</ele>
    <time>2023-09-12T05:22:32Z</time>
   </trkpt>
   <trkpt lat="45.7543620" lon="4.7702210">
    <ele>217.5</ele>
    <time>2023-09-12T05:22:33Z</time>
   </trkpt>
   <trkpt lat="45.7543800" lon="4.7702540">
    <ele>217.5</ele>
    <time>2023-09-12T05:22:34Z</time>
   </trkpt>
   <trkpt lat="45.7544070" lon="4.7702890">
    <ele>217.5</ele>
    <time>2023-09-12T05:22:35Z</time>
   </trkpt>
   <trkpt lat="45.7544200" lon="4.7703320">
    <ele>217.5</ele>
    <time>2023-09-12T05:22:36Z</time>
   </trkpt>
   <trkpt lat="45.7544510" lon="4.7703820">
    <ele>217.5</ele>
    <time>2023-09-12T05:22:37Z</time>
   </trkpt>
   <trkpt lat="45.7544680" lon="4.7704380">
    <ele>217.5</ele>
    <time>2023-09-12T05:22:38Z</time>
   </trkpt>
   <trkpt lat="45.7545080" lon="4.7704640">
    <ele>217.5</ele>
    <time>2023-09-12T05:22:39Z</time>
   </trkpt>
   <trkpt lat="45.7545360" lon="4.7704990">
    <ele>217.6</ele>
    <time>2023-09-12T05:22:40Z</time>
   </trkpt>
   <trkpt lat="45.7545580" lon="4.7705400">
    <ele>217.6</ele>
    <time>2023-09-12T05:22:41Z</time>
   </trkpt>
   <trkpt lat="45.7545900" lon="4.7705490">
    <ele>217.6</ele>
    <time>2023-09-12T05:22:42Z</time>
   </trkpt>
   <trkpt lat="45.7546130" lon="4.7705980">
    <ele>217.6</ele>
    <time>2023-09-12T05:22:43Z</time>
   </trkpt>
   <trkpt lat="45.7546560" lon="4.7706280">
    <ele>217.7</ele>
    <time>2023-09-12T05:22:44Z</time>
   </trkpt>
   <trkpt lat="45.7546910" lon="4.7706640">
    <ele>217.7</ele>
    <time>2023-09-12T05:22:45Z</time>
   </trkpt>
   <trkpt lat="45.7547250" lon="4.7706870">
    <ele>217.7</ele>
    <time>2023-09-12T05:22:46Z</time>
   </trkpt>
   <trkpt lat="45.7547550" lon="4.7707040">
    <ele>217.7</ele>
    <time>2023-09-12T05:22:47Z</time>
   </trkpt>
   <trkpt lat="45.7547730" lon="4.7707510">
    <ele>217.7</ele>
    <time>2023-09-12T05:22:48Z</time>
   </trkpt>
   <trkpt lat="45.7547860" lon="4.7707630">
    <ele>217.7</ele>
    <time>2023-09-12T05:22:49Z</time>
   </trkpt>
   <trkpt lat="45.7548190" lon="4.7707990">
    <ele>217.8</ele>
    <time>2023-09-12T05:22:50Z</time>
   </trkpt>
   <trkpt lat="45.7548520" lon="4.7708440">
    <ele>217.8</ele>
    <time>2023-09-12T05:22:51Z</time>
   </trkpt>
   <trkpt lat="45.7548700" lon="4.7708820">
    <ele>217.8</ele>
    <time>2023-09-12T05:22:52Z</time>
   </trkpt>
   <trkpt lat="45.7548870" lon="4.7709120">
    <ele>217.8</ele>
    <time>2023-09-12T05:22:53Z</time>
   </trkpt>
   <trkpt lat="45.7549120" lon="4.7709510">
    <ele>217.8</ele>
    <time>2023-09-12T05:22:54Z</time>
   </trkpt>
   <trkpt lat="45.7549780" lon="4.7709590">
    <ele>217.9</ele>
    <time>2023-09-12T05:22:55Z</time>
   </trkpt>
   <trkpt lat="45.7549970" lon="4.7710060">
    <ele>217.9</ele>
    <time>2023-09-12T05:22:56Z</time>
   </trkpt>
   <trkpt lat="45.7550490" lon="4.7710250">
    <ele>217.9</ele>
    <time>2023-09-12T05:22:57Z</time>
   </trkpt>
   <trkpt lat="45.7550790" lon="4.7710550">
    <ele>217.9</ele>
    <time>2023-09-12T05:22:58Z</time>
   </trkpt>
   <trkpt lat="45.7551160" lon="4.7711030">
    <ele>217.9</ele>
    <time>2023-09-12T05:22:59Z</time>
   </trkpt>
   <trkpt lat="45.7551410" lon="4.7711570">
    <ele>217.9</ele>
    <time>2023-09-12T05:23:00Z</time>
   </trkpt>
   <trkpt lat="45.7552160" lon="4.7711840">
    <ele>218.0</ele>
    <time>2023-09-12T05:23:01Z</time>
   </trkpt>
   <trkpt lat="45.7552330" lon="4.7712700">
    <ele>218.0</ele>
    <time>2023-09-12T05:23:02Z</time>
   </trkpt>
   <trkpt lat="45.7552470" lon="4.7713240">
    <ele>218.0</ele>
    <time>2023-09-12T05:23:03Z</time>
   </trkpt>
   <trkpt lat="45.7552790" lon="4.7713580">
    <ele>218.1</ele>
    <time>2023-09-12T05:23:04Z</time>
   </trkpt>
   <trkpt lat="45.7552990" lon="4.7713760">
    <ele>218.1</ele>
    <time>2023-09-12T05:23:05Z</time>
   </trkpt>
   <trkpt lat="45.7553280" lon="4.7713820">
    <ele>218.1</ele>
    <time>2023-09-12T05:23:06Z</time>
   </trkpt>
   <trkpt lat="45.7553600" lon="4.7714230">
    <ele>218.2</ele>
    <time>2023-09-12T05:23:07Z</time>
   </trkpt>
   <trkpt lat="45.7553880" lon="4.7714530">
    <ele>218.2</ele>
    <time>2023-09-12T05:23:08Z</time>
   </trkpt>
   <trkpt lat="45.7554310" lon="4.7715000">
    <ele>218.2</ele>
    <time>2023-09-12T05:23:09Z</time>
   </trkpt>
   <trkpt lat="45.7554670" lon="4.7715570">
    <ele>218.2</ele>
    <time>2023-09-12T05:23:10Z</time>
   </trkpt>
   <trkpt lat="45.7555000" lon="4.7716050">
    <ele>218.3</ele>
    <time>2023-09-12T05:23:11Z</time>
   </trkpt>
   <trkpt lat="45.7555230" lon="4.7716200">
    <ele>218.3</ele>
    <time>2023-09-12T05:23:12Z</time>
   </trkpt>
   <trkpt lat="45.7555720" lon="4.7716630">
    <ele>218.3</ele>
    <time>2023-09-12T05:23:13Z</time>
   </trkpt>
   <trkpt lat="45.7556010" lon="4.7717190">
    <ele>218.3</ele>
    <time>2023-09-12T05:23:14Z</time>
   </trkpt>
   <trkpt lat="45.7556460" lon="4.7717500">
    <ele>218.3</ele>
    <time>2023-09-12T05:23:15Z</time>
   </trkpt>
   <trkpt lat="45.7556830" lon="4.7717730">
    <ele>218.4</ele>
    <time>2023-09-12T05:23:16Z</time>
   </trkpt>
   <trkpt lat="45.7557060" lon="4.7718250">
    <ele>218.4</ele>
    <time>2023-09-12T05:23:17Z</time>
   </trkpt>
   <trkpt lat="45.7557340" lon="4.7718800">
    <ele>218.4</ele>
    <time>2023-09-12T05:23:18Z</time>
   </trkpt>
   <trkpt lat="45.7557690" lon="4.7719350">
    <ele>218.5</ele>
    <time>2023-09-12T05:23:19Z</time>
   </trkpt>
   <trkpt lat="45.7557900" lon="4.7719790">
    <ele>218.5</ele>
    <time>2023-09-12T05:23:20Z</time>
   </trkpt>
   <trkpt lat="45.7558070" lon="4.7720280">
    <ele>218.5</ele>
    <time>2023-09-12T05:23:21Z</time>
   </trkpt>
   <trkpt lat="45.7558240" lon="4.7720810">
    <ele>218.5</ele>
    <time>2023-09-12T05:23:22Z</time>
   </trkpt>
   <trkpt lat="45.7558450" lon="4.7721340">
    <ele>218.6</ele>
    <time>2023-09-12T05:23:23Z</time>
   </trkpt>
   <trkpt lat="45.7558910" lon="4.7721560">
    <ele>218.6</ele>
    <time>2023-09-12T05:23:24Z</time>
   </trkpt>
   <trkpt lat="45.7559260" lon="4.7721250">
    <ele>218.6</ele>
    <time>2023-09-12T05:23:25Z</time>
   </trkpt>
   <trkpt lat="45.7559730" lon="4.7721070">
    <ele>218.6</ele>
    <time>2023-09-12T05:23:26Z</time>
   </trkpt>
   <trkpt lat="45.7560170" lon="4.7721110">
    <ele>218.8</ele>
    <time>2023-09-12T05:23:27Z</time>
   </trkpt>
   <trkpt lat="45.7576100" lon="4.7739620">
    <ele>219.7</ele>
    <time>2023-09-12T05:26:01Z</time>
   </trkpt>
   <trkpt lat="45.7576240" lon="4.7739730">
    <ele>219.7</ele>
    <time>2023-09-12T05:26:02Z</time>
   </trkpt>
   <trkpt lat="45.7576390" lon="4.7739840">
    <ele>219.7</ele>
    <time>2023-09-12T05:26:03Z</time>
   </trkpt>
   <trkpt lat="45.7576490" lon="4.7740030">
    <ele>219.7</ele>
    <time>2023-09-12T05:26:04Z</time>
   </trkpt>
   <trkpt lat="45.7576600" lon="4.7740190">
    <ele>219.7</ele>
    <time>2023-09-12T05:26:05Z</time>
   </trkpt>
   <trkpt lat="45.7576700" lon="4.7740380">
    <ele>219.7</ele>
    <time>2023-09-12T05:26:06Z</time>
   </trkpt>
   <trkpt lat="45.7577020" lon="4.7740560">
    <ele>219.7</ele>
    <time>2023-09-12T05:26:07Z</time>
   </trkpt>
   <trkpt lat="45.7577390" lon="4.7740680">
    <ele>219.8</ele>
    <time>2023-09-12T05:26:08Z</time>
   </trkpt>
   <trkpt lat="45.7577610" lon="4.7740680">
    <ele>219.8</ele>
    <time>2023-09-12T05:26:09Z</time>
   </trkpt>
   <trkpt lat="45.7577820" lon="4.7740930">
    <ele>219.8</ele>
    <time>2023-09-12T05:26:10Z</time>
   </trkpt>
   <trkpt lat="45.7578040" lon="4.7741230">
    <ele>219.8</ele>
    <time>2023-09-12T05:26:11Z</time>
   </trkpt>
   <trkpt lat="45.7578250" lon="4.7741630">
    <ele>219.8</ele>
    <time>2023-09-12T05:26:12Z</time>
   </trkpt>
   <trkpt lat="45.7578790" lon="4.7742290">
    <ele>219.8</ele>
    <time>2023-09-12T05:26:13Z</time>
   </trkpt>
   <trkpt lat="45.7578990" lon="4.7742930">
    <ele>219.9</ele>
    <time>2023-09-12T05:26:14Z</time>
   </trkpt>
   <trkpt lat="45.7579250" lon="4.7743480">
    <ele>219.9</ele>
    <time>2023-09-12T05:26:15Z</time>
   </trkpt>
   <trkpt lat="45.7579610" lon="4.7744040">
    <ele>220.0</ele>
    <time>2023-09-12T05:26:16Z</time>
   </trkpt>
   <trkpt lat="45.7579930" lon="4.7744430">
    <ele>220.0</ele>
    <time>2023-09-12T05:26:17Z</time>
   </trkpt>
   <trkpt lat="45.7580300" lon="4.7744470">
    <ele>220.0</ele>
    <time>2023-09-12T05:26:18Z</time>
   </trkpt>
   <trkpt lat="45.7580730" lon="4.7744760">
    <ele>220.1</ele>
    <time>2023-09-12T05:26:19Z</time>
   </trkpt>
   <trkpt lat="45.7581180" lon="4.7745030">
    <ele>220.2</ele>
    <time>2023-09-12T05:26:20Z</time>
   </trkpt>
   <trkpt lat="45.7581610" lon="4.7745440">
    <ele>220.2</ele>
    <time>2023-09-12T05:26:21Z</time>
   </trkpt>
   <trkpt lat="45.7582030" lon="4.7745500">
    <ele>220.4</ele>
    <time>2023-09-12T05:26:22Z</time>
   </trkpt>
   <trkpt lat="45.7582730" lon="4.7744880">
    <ele>220.4</ele>
    <time>2023-09-12T05:26:23Z</time>
   </trkpt>
   <trkpt lat="45.7583150" lon="4.7744550">
    <ele>220.4</ele>
    <time>2023-09-12T05:26:24Z</time>
   </trkpt>
   <trkpt lat="45.7583660" lon="4.7744720">
    <ele>220.4</ele>
    <time>2023-09-12T05:26:25Z</time>
   </trkpt>
   <trkpt lat="45.7584240" lon="4.7745170">
    <ele>220.4</ele>
    <time>2023-09-12T05:26:26Z</time>
   </trkpt>
   <trkpt lat="45.7584730" lon="4.7745130">
    <ele>220.4</ele>
    <time>2023-09-12T05:26:27Z</time>
   </trkpt>
   <trkpt lat="45.7585320" lon="4.7744770">
    <ele>220.4</ele>
    <time>2023-09-12T05:26:28Z</time>
   </trkpt>
   <trkpt lat="45.7585900" lon="4.7744690">
    <ele>220.4</ele>
    <time>2023-09-12T05:26:29Z</time>
   </trkpt>
   <trkpt lat="45.7586350" lon="4.7744690">
    <ele>220.3</ele>
    <time>2023-09-12T05:26:30Z</time>
   </trkpt>
   <trkpt lat="45.7586830" lon="4.7744410">
    <ele>220.3</ele>
    <time>2023-09-12T05:26:31Z</time>
   </trkpt>
   <trkpt lat="45.7587100" lon="4.7743890">
    <ele>220.3</ele>
    <time>2023-09-12T05:26:32Z</time>
   </trkpt>
   <trkpt lat="45.7587350" lon="4.7743750">
    <ele>220.3</ele>
    <time>2023-09-12T05:26:33Z</time>
   </trkpt>
   <trkpt lat="45.7587770" lon="4.7743390">
    <ele>220.3</ele>
    <time>2023-09-12T05:26:34Z</time>
   </trkpt>
   <trkpt lat="45.7588060" lon="4.7743060">
    <ele>220.3</ele>
    <time>2023-09-12T05:26:35Z</time>
   </trkpt>
   <trkpt lat="45.7588410" lon="4.7742980">
    <ele>220.3</ele>
    <time>2023-09-12T05:26:36Z</time>
   </trkpt>
   <trkpt lat="45.7588720" lon="4.7742860">
    <ele>220.3</ele>
    <time>2023-09-12T05:26:37Z</time>
   </trkpt>
   <trkpt lat="45.7589110" lon="4.7742800">
    <ele>220.3</ele>
    <time>2023-09-12T05:26:38Z</time>
   </trkpt>
   <trkpt lat="45.7589610" lon="4.7742440">
    <ele>220.3</ele>
    <time>2023-09-12T05:26:39Z</time>
   </trkpt>
   <trkpt lat="45.7590000" lon="4.7742400">
    <ele>220.3</ele>
    <time>2023-09-12T05:26:40Z</time>
   </trkpt>
   <trkpt lat="45.7590490" lon="4.7742200">
    <ele>220.3</ele>
    <time>2023-09-12T05:26:41Z</time>
   </trkpt>
   <trkpt lat="45.7590950" lon="4.7742150">
    <ele>220.4</ele>
    <time>2023-09-12T05:26:42Z</time>
   </trkpt>
   <trkpt lat="45.7591480" lon="4.7742130">
    <ele>220.4</ele>
    <time>2023-09-12T05:26:43Z</time>
   </trkpt>
   <trkpt lat="45.7591880" lon="4.7742250">
    <ele>220.4</ele>
    <time>2023-09-12T05:26:44Z</time>
   </trkpt>
   <trkpt lat="45.7592060" lon="4.7742180">
    <ele>220.4</ele>
    <time>2023-09-12T05:26:45Z</time>
   </trkpt>
   <trkpt lat="45.7592620" lon="4.7741830">
    <ele>220.4</ele>
    <time>2023-09-12T05:26:46Z</time>
   </trkpt>
   <trkpt lat="45.7593060" lon="4.7741510">
    <ele>220.4</ele>
    <time>2023-09-12T05:26:47Z</time>
   </trkpt>
   <trkpt lat="45.7593290" lon="4.7741290">
    <ele>220.4</ele>
    <time>2023-09-12T05:26:48Z</time>
   </trkpt>
   <trkpt lat="45.7593410" lon="4.7741180">
    <ele>220.4</ele>
    <time>2023-09-12T05:26:49Z</time>
   </trkpt>
   <trkpt lat="45.7594010" lon="4.7741080">
    <ele>220.4</ele>
    <time>2023-09-12T05:26:50Z</time>
   </trkpt>
   <trkpt lat="45.7594430" lon="4.7741000">
    <ele>220.4</ele>
    <time>2023-09-12T05:26:51Z</time>
   </trkpt>
   <trkpt lat="45.7595050" lon="4.7740620">
    <ele>220.5</ele>
    <time>2023-09-12T05:26:52Z</time>
   </trkpt>
   <trkpt lat="45.7595860" lon="4.7740380">
    <ele>220.5</ele>
    <time>2023-09-12T05:26:53Z</time>
   </trkpt>
   <trkpt lat="45.7596340" lon="4.7740220">
    <ele>220.5</ele>
    <time>2023-09-12T05:26:54Z</time>
   </trkpt>
   <trkpt lat="45.7596770" lon="4.7739880">
    <ele>220.5</ele>
    <time>2023-09-12T05:26:55Z</time>
   </trkpt>
   <trkpt lat="45.7597030" lon="4.7739320">
    <ele>220.5</ele>
    <time>2023-09-12T05:26:56Z</time>
   </trkpt>
   <trkpt lat="45.7597360" lon="4.7739330">
    <ele>220.6</ele>
    <time>2023-09-12T05:26:57Z</time>
   </trkpt>
   <trkpt lat="45.7597570" lon="4.7739220">
    <ele>220.6</ele>
    <time>2023-09-12T05:26:58Z</time>
   </trkpt>
   <trkpt lat="45.7597970" lon="4.7739030">
    <ele>220.6</ele>
    <time>2023-09-12T05:26:59Z</time>
   </trkpt>
   <trkpt lat="45.7598690" lon="4.7738930">
    <ele>220.6</ele>
    <time>2023-09-12T05:27:00Z</time>
   </trkpt>
   <trkpt lat="45.7598390" lon="4.7738290">
    <ele>220.6</ele>
    <time>2023-09-12T05:27:01Z</time>
   </trkpt>
   <trkpt lat="45.7598770" lon="4.7738090">
    <ele>220.6</ele>
    <time>2023-09-12T05:27:02Z</time>
   </trkpt>
   <trkpt lat="45.7599340" lon="4.7737880">
    <ele>220.7</ele>
    <time>2023-09-12T05:27:03Z</time>
   </trkpt>
   <trkpt lat="45.7599840" lon="4.7737610">
    <ele>220.7</ele>
    <time>2023-09-12T05:27:04Z</time>
   </trkpt>
   <trkpt lat="45.7600280" lon="4.7737300">
    <ele>220.8</ele>
    <time>2023-09-12T05:27:05Z</time>
   </trkpt>
   <trkpt lat="45.7600670" lon="4.7737030">
    <ele>220.8</ele>
    <time>2023-09-12T05:27:06Z</time>
   </trkpt>
   <trkpt lat="45.7600920" lon="4.7736790">
    <ele>220.8</ele>
    <time>2023-09-12T05:27:07Z</time>
   </trkpt>
   <trkpt lat="45.7601220" lon="4.7736520">
    <ele>220.8</ele>
    <time>2023-09-12T05:27:08Z</time>
   </trkpt>
   <trkpt lat="45.7601700" lon="4.7736620">
    <ele>220.9</ele>
    <time>2023-09-12T05:27:09Z</time>
   </trkpt>
   <trkpt lat="45.7602320" lon="4.7736330">
    <ele>220.9</ele>
    <time>2023-09-12T05:27:10Z</time>
   </trkpt>
   <trkpt lat="45.7602820" lon="4.7736120">
    <ele>220.9</ele>
    <time>2023-09-12T05:27:11Z</time>
   </trkpt>
   <trkpt lat="45.7603040" lon="4.7735570">
    <ele>221.0</ele>
    <time>2023-09-12T05:27:12Z</time>
   </trkpt>
   <trkpt lat="45.7603470" lon="4.7735290">
    <ele>221.0</ele>
    <time>2023-09-12T05:27:13Z</time>
   </trkpt>
   <trkpt lat="45.7603760" lon="4.7735290">
    <ele>221.1</ele>
    <time>2023-09-12T05:27:14Z</time>
   </trkpt>
   <trkpt lat="45.7604040" lon="4.7735360">
    <ele>221.1</ele>
    <time>2023-09-12T05:27:15Z</time>
   </trkpt>
  </trkseg>
 </trk>
</gpx>
